{"type":"FeatureCollection","features":[{"type":"Feature","properties":{"cod":"2501","nome":"Sertão Paraibano"},"geometry":{"type":"Point","coordinates":[-37.969538952784504,-6.92745]}},{"type":"Feature","properties":{"cod":"2503","nome":"Agreste Paraibano"},"geometry":{"type":"Point","coordinates":[-35.898825834304866,-7.11025]}},{"type":"Feature","properties":{"cod":"2502","nome":"Borborema"},"geometry":{"type":"Point","coordinates":[-36.68001353259686,-7.2962]}},{"type":"Feature","properties":{"cod":"2504","nome":"Mata Paraibana"},"geometry":{"type":"Point","coordinates":[-35.12186543843522,-7.0208]}}]}