{"type":"FeatureCollection","features":[{"type":"Feature","properties":{"nome":"Pedra da Boca","municipio":"Araruna","municipio_cod":"2501005","vias":null,"estilos":null,"graduacao":null,"geocodificado":true,"fonte_coordenada":"escaladas.com.br/local/id/457, coordenada do setor; confere com o nó OSM natural=peak 4831761553 (-6.456343, -35.675579), diferença de ~40 m","precisao":"setor"},"geometry":{"type":"Point","coordinates":[-35.67523031880148,-6.455975108519959]}},{"type":"Feature","properties":{"nome":"Pedra do Banguelo","municipio":"Mogeiro","municipio_cod":"2509404","vias":null,"estilos":null,"graduacao":null,"geocodificado":true,"fonte_coordenada":"escaladas.com.br/local/id/1606, coordenada do setor; geocodificação reversa no Nominatim devolve Gameleira, Mogeiro","precisao":"setor"},"geometry":{"type":"Point","coordinates":[-35.519787893227594,-7.232869981259289]}},{"type":"Feature","properties":{"nome":"Pedra do Marinho","municipio":"Massaranduba","municipio_cod":"2509206","vias":null,"estilos":null,"graduacao":null,"geocodificado":true,"fonte_coordenada":"escaladas.com.br/local/id/822, coordenada do setor","precisao":"setor"},"geometry":{"type":"Point","coordinates":[-35.816367187595894,-7.199911498322591]}},{"type":"Feature","properties":{"nome":"Pedra da Cabeça","municipio":"Algodão de Jandaíra","municipio_cod":"2500577","vias":null,"estilos":null,"graduacao":null,"geocodificado":true,"fonte_coordenada":"escaladas.com.br/local/id/346, coordenada do setor","precisao":"setor"},"geometry":{"type":"Point","coordinates":[-36.0052083741561,-6.926648185181363]}},{"type":"Feature","properties":{"nome":"Pedra Furada","municipio":"Algodão de Jandaíra","municipio_cod":"2500577","vias":null,"estilos":null,"graduacao":null,"geocodificado":true,"fonte_coordenada":"escaladas.com.br/local/id/413, coordenada do setor","precisao":"setor"},"geometry":{"type":"Point","coordinates":[-36.00915459178716,-6.929177406074206]}},{"type":"Feature","properties":{"nome":"Pedra do Caboclo","municipio":"Algodão de Jandaíra","municipio_cod":"2500577","vias":null,"estilos":null,"graduacao":null,"geocodificado":true,"fonte_coordenada":"escaladas.com.br/local/id/1098, coordenada do setor","precisao":"setor"},"geometry":{"type":"Point","coordinates":[-35.97699419126505,-6.91873428451934]}},{"type":"Feature","properties":{"nome":"Pedra do Tendó","municipio":"Teixeira","municipio_cod":"2516706","vias":null,"estilos":null,"graduacao":null,"geocodificado":true,"fonte_coordenada":"OpenStreetMap way 527161637, natural=cliff + sport=climbing, centroide do paredão","precisao":"paredão"},"geometry":{"type":"Point","coordinates":[-37.2589822,-7.2026263]}},{"type":"Feature","properties":{"nome":"Parque do Poeta","municipio":"Campina Grande","municipio_cod":"2504009","vias":null,"estilos":null,"graduacao":null,"geocodificado":true,"fonte_coordenada":"Centro do retângulo publicado para o Parque Estadual do Poeta e Repentista Juvenal de Oliveira (7°13'43,07\"S/35°51'47,23\"W a 7°13'16,70\"S/35°50'0,1\"W), citado no estudo de impacto socioambiental da unidade de conservação","precisao":"centro do parque"},"geometry":{"type":"Point","coordinates":[-35.84824,-7.224968]}},{"type":"Feature","properties":{"nome":"Pedra do Cordeiro","municipio":"Belém","municipio_cod":null,"vias":null,"estilos":null,"graduacao":null,"geocodificado":false,"fonte_coordenada":"Município identificado pela Wikipédia (oeste de Belém, divisa com Bananeiras, riacho Picada como divisor, altitude ~240 m). Nenhuma coordenada publicada encontrada no OpenStreetMap, Nominatim, Wikidata ou escaladas.com.br","precisao":null},"geometry":null},{"type":"Feature","properties":{"nome":"Almas Gêmeas","municipio":null,"municipio_cod":null,"vias":null,"estilos":null,"graduacao":null,"geocodificado":false,"fonte_coordenada":"Setor citado por escaladanaparaiba.com.br sem município. Ausente do OpenStreetMap, Nominatim, Wikidata e escaladas.com.br. O guia impresso resolve","precisao":null},"geometry":null},{"type":"Feature","properties":{"nome":"Pedra das Chaminés","municipio":null,"municipio_cod":null,"vias":null,"estilos":null,"graduacao":null,"geocodificado":false,"fonte_coordenada":"Setor citado por escaladanaparaiba.com.br sem município. Ausente do OpenStreetMap, Nominatim, Wikidata e escaladas.com.br. O guia impresso resolve","precisao":null},"geometry":null}]}