{"type":"FeatureCollection","features":[{"type":"Feature","geometry":{"type":"MultiLineString","coordinates":[[[-34.9808245,-7.1253245],[-34.980776,-7.1252927],[-34.9806038,-7.1251798],[-34.9802378,-7.124943],[-34.9798389,-7.12469],[-34.9796013,-7.1245535],[-34.9794214,-7.1244632],[-34.979226,-7.1243733],[-34.9790333,-7.1243005],[-34.9788329,-7.1242472],[-34.9786439,-7.1242088],[-34.977608,-7.124068],[-34.9775219,-7.1240566],[-34.9774033,-7.1240417],[-34.9769899,-7.1239795],[-34.976149,-7.1238575],[-34.9757806,-7.1238334],[-34.975431,-7.1238214],[-34.9746175,-7.1238048],[-34.974123,-7.1237909],[-34.9726589,-7.1237612],[-34.9724288,-7.1237393],[-34.9721948,-7.1237106],[-34.9719662,-7.1236632],[-34.9697083,-7.1231245],[-34.9693747,-7.1230356],[-34.9691084,-7.1229439],[-34.9688215,-7.1228128],[-34.9685546,-7.1226543],[-34.9673738,-7.1219453],[-34.9664846,-7.1214031],[-34.9659032,-7.12104],[-34.9656166,-7.1208745],[-34.9653545,-7.1207319],[-34.9651189,-7.1206325],[-34.9648788,-7.1205652],[-34.9647223,-7.1205423],[-34.9645517,-7.1205286],[-34.9643597,-7.1205348],[-34.9625977,-7.1206764],[-34.9620998,-7.1207116],[-34.9618714,-7.1207105],[-34.9617153,-7.1206938],[-34.9615758,-7.1206632],[-34.9614637,-7.1206324],[-34.9613496,-7.1205922],[-34.961176,-7.120514],[-34.9609818,-7.1204167],[-34.960836,-7.1203405],[-34.9606985,-7.1202729],[-34.9605527,-7.1202041],[-34.9603803,-7.1201392],[-34.960188,-7.1201003],[-34.9599894,-7.1200683],[-34.9568378,-7.1196165],[-34.9566407,-7.1196045],[-34.9564563,-7.1196108],[-34.9562638,-7.1196358],[-34.9560351,-7.1197034],[-34.9558125,-7.1197992],[-34.955446,-7.1199696],[-34.9540166,-7.1207502],[-34.9539657,-7.1207813],[-34.9535809,-7.1209825],[-34.9532416,-7.121117],[-34.9529292,-7.1211822],[-34.952492,-7.1212484],[-34.9471887,-7.1219786],[-34.9444574,-7.1223546],[-34.9439445,-7.1223968],[-34.9436393,-7.1224131],[-34.9432611,-7.1223809],[-34.9428293,-7.1223107],[-34.9412099,-7.1219843],[-34.9385501,-7.1214954],[-34.9382175,-7.1214661],[-34.9378849,-7.1214815],[-34.9375657,-7.1215353],[-34.9372385,-7.1216416],[-34.9369527,-7.1217915],[-34.9366833,-7.1219584],[-34.9362418,-7.1222587],[-34.9355371,-7.122738],[-34.9343045,-7.123595],[-34.9341897,-7.1236767],[-34.9340964,-7.1237432],[-34.9337487,-7.1239991],[-34.9333538,-7.1243307],[-34.9321193,-7.1254589],[-34.9319328,-7.1256199],[-34.9316445,-7.1258156],[-34.9314071,-7.1259433],[-34.9306879,-7.1262678],[-34.9293435,-7.1268457],[-34.9280124,-7.1274447],[-34.9267979,-7.127969],[-34.9247201,-7.1288823],[-34.9233889,-7.1294025],[-34.9228732,-7.1295422],[-34.9224528,-7.1296375],[-34.9215768,-7.1298623],[-34.9196566,-7.1303208],[-34.9185008,-7.1304826],[-34.9178167,-7.1305705],[-34.9161302,-7.1307871],[-34.9152998,-7.1309104],[-34.9151146,-7.1309308],[-34.9147953,-7.1309474],[-34.9145895,-7.1309464],[-34.9144116,-7.1309429],[-34.9142597,-7.1309328],[-34.9140323,-7.1308868],[-34.9139781,-7.1308716],[-34.9139075,-7.1308468],[-34.9138037,-7.1308104],[-34.9135342,-7.1307027],[-34.9131138,-7.1305053],[-34.9128901,-7.1303871],[-34.9119892,-7.1299108],[-34.9115741,-7.1296947],[-34.9112446,-7.1295466],[-34.9110879,-7.1294925],[-34.9108838,-7.1294483],[-34.910707,-7.1294221],[-34.9105116,-7.1294129],[-34.9103436,-7.1294139],[-34.9101211,-7.1294272],[-34.9098719,-7.1294591],[-34.9096317,-7.129513],[-34.9093279,-7.1296181],[-34.9082578,-7.1301095],[-34.9079579,-7.1302056],[-34.9076853,-7.1302552],[-34.9073649,-7.1302736],[-34.9070615,-7.130257],[-34.90678,-7.1302064],[-34.9064934,-7.1301192],[-34.9062162,-7.1300288],[-34.9056598,-7.1298142],[-34.9052591,-7.1296502],[-34.90474,-7.1293882],[-34.902928,-7.1282836],[-34.9027145,-7.1281501],[-34.9024259,-7.1279301],[-34.9021298,-7.1276786],[-34.9015707,-7.1272041],[-34.9010737,-7.1267777],[-34.8996778,-7.1255801],[-34.8994438,-7.1253765],[-34.8992044,-7.125189],[-34.8989523,-7.1250158],[-34.8986533,-7.1248549],[-34.8984064,-7.1247511],[-34.8970925,-7.1242876],[-34.8960551,-7.123937],[-34.8946549,-7.1234572],[-34.8943039,-7.1233108],[-34.8941179,-7.1232195],[-34.8939971,-7.1231358],[-34.8938296,-7.1229944],[-34.8937503,-7.1229097],[-34.8936304,-7.1227489],[-34.8935686,-7.1226387],[-34.8935185,-7.1225311],[-34.8934658,-7.1223672],[-34.8934388,-7.1222175],[-34.8934295,-7.1220535],[-34.8934429,-7.1216735],[-34.8934649,-7.1211561],[-34.8934641,-7.1210025],[-34.8934539,-7.1208608],[-34.893415,-7.1206922],[-34.8933341,-7.1204896],[-34.8931846,-7.1201571],[-34.8922659,-7.1181688],[-34.8919585,-7.1176221],[-34.8918124,-7.1173825],[-34.8916846,-7.1171724],[-34.8915924,-7.1170006],[-34.8914506,-7.1167466],[-34.8913292,-7.1165115],[-34.8906741,-7.1151287],[-34.8904404,-7.1145753],[-34.8903888,-7.1144309],[-34.8900425,-7.1134708],[-34.889855,-7.1131161],[-34.8896907,-7.112802],[-34.8895942,-7.112645],[-34.8894921,-7.112502],[-34.8893843,-7.1124128],[-34.889279,-7.1123396],[-34.8891415,-7.1122497],[-34.8889732,-7.1121572],[-34.88876,-7.1120375],[-34.8885414,-7.1118964],[-34.8880153,-7.1115525],[-34.8874553,-7.1111981],[-34.8868144,-7.1107926],[-34.8867262,-7.1107366],[-34.8859506,-7.1102494],[-34.8857318,-7.1101072],[-34.8855591,-7.1099966],[-34.8853871,-7.1098636],[-34.8852197,-7.1097211],[-34.8850948,-7.1095935],[-34.884985,-7.1094683],[-34.8847407,-7.1091663],[-34.8846753,-7.109097],[-34.8845315,-7.1089627],[-34.8843753,-7.1088296],[-34.8842257,-7.1087198],[-34.884053,-7.1086192],[-34.8837332,-7.10845],[-34.8835995,-7.1084088],[-34.8833684,-7.1083439],[-34.883126,-7.1082959],[-34.8828693,-7.1082739],[-34.8822659,-7.1082808],[-34.8819888,-7.108268],[-34.8817568,-7.1082414],[-34.8815677,-7.1082134],[-34.8813846,-7.1081759],[-34.8811989,-7.1081296],[-34.8810135,-7.1080727],[-34.8808622,-7.1080138],[-34.8806812,-7.1079366],[-34.8805055,-7.1078501],[-34.8803231,-7.1077397],[-34.8800726,-7.1075745],[-34.8798953,-7.1074349],[-34.8796767,-7.1072393],[-34.8794903,-7.1070383],[-34.8792181,-7.1067041],[-34.8784228,-7.1057674],[-34.8781871,-7.1055162],[-34.8780271,-7.1053828],[-34.8778193,-7.1052271],[-34.8775806,-7.1050648],[-34.8772466,-7.1048611],[-34.8756952,-7.1039122],[-34.8754633,-7.1037702],[-34.8743409,-7.1031213],[-34.8740964,-7.1029741],[-34.8738992,-7.1028576],[-34.8735827,-7.10268],[-34.8733293,-7.1025602],[-34.8730141,-7.1024311],[-34.872683,-7.1023165],[-34.8722647,-7.1022274],[-34.8719117,-7.1021849],[-34.8715271,-7.1021795],[-34.8710347,-7.1021816],[-34.8691332,-7.1021901],[-34.8688218,-7.1021649],[-34.868504,-7.102105],[-34.868118,-7.1020144],[-34.8678468,-7.1019294],[-34.8675211,-7.1018028],[-34.8671655,-7.1016246],[-34.8666208,-7.101357],[-34.8661891,-7.1011454],[-34.8661858,-7.1011437],[-34.8657177,-7.1009087],[-34.8653381,-7.1007246],[-34.86518,-7.1006479],[-34.8650774,-7.1005988],[-34.8649433,-7.1005457],[-34.8646982,-7.1004606],[-34.864478,-7.1003743],[-34.8638671,-7.1000712],[-34.8630139,-7.0996478],[-34.8628617,-7.0995497],[-34.8627299,-7.0994567],[-34.8626384,-7.0993961],[-34.8625159,-7.0993346],[-34.8612808,-7.0987261],[-34.8592665,-7.0977374],[-34.8586189,-7.0973812],[-34.858197,-7.0970911],[-34.8579623,-7.0968812],[-34.857685,-7.0965681],[-34.8575031,-7.0962361],[-34.8573453,-7.0958475],[-34.857196,-7.095358],[-34.8571331,-7.0951654],[-34.8570505,-7.0948802],[-34.8569626,-7.0945769],[-34.8569118,-7.0944307],[-34.8567833,-7.0941383],[-34.8567337,-7.0940253],[-34.8566594,-7.0939106],[-34.8565837,-7.0938096],[-34.856443,-7.0936368],[-34.8561733,-7.0933679],[-34.855012,-7.0922814],[-34.8539367,-7.0913103],[-34.8528293,-7.0903101],[-34.8526775,-7.0901657],[-34.8525508,-7.0900371],[-34.8524369,-7.0898973],[-34.8523489,-7.0897736],[-34.8522391,-7.0895941],[-34.8521775,-7.089461],[-34.8521602,-7.0893995],[-34.8521467,-7.0893514],[-34.8521087,-7.0890766],[-34.8520849,-7.0888291],[-34.8520866,-7.0885639],[-34.8521123,-7.088379],[-34.8521428,-7.0882397],[-34.8522997,-7.0875707],[-34.85258,-7.0864046],[-34.8526289,-7.0862148],[-34.8529326,-7.0849211],[-34.8531631,-7.0839396],[-34.8539426,-7.0807852],[-34.8547527,-7.0773417],[-34.8552367,-7.0751845],[-34.8558158,-7.0727856],[-34.8559434,-7.0723884],[-34.8564258,-7.0703132],[-34.8564776,-7.0700323],[-34.8564964,-7.0696855],[-34.8564848,-7.0693517],[-34.8563296,-7.0682673],[-34.8562447,-7.067584],[-34.8562437,-7.0675758],[-34.8558047,-7.0643133],[-34.855685,-7.0632759],[-34.8556484,-7.0629591],[-34.8548579,-7.0569815],[-34.8547359,-7.0560008],[-34.8545481,-7.0545419],[-34.8544996,-7.0541427],[-34.8543888,-7.0534964],[-34.8543496,-7.0532815],[-34.8542216,-7.0527523],[-34.854068,-7.0521449],[-34.8533546,-7.0491617],[-34.8532881,-7.0488893],[-34.8529254,-7.0473161],[-34.8520758,-7.0437705],[-34.8512461,-7.0403313],[-34.8507528,-7.0381527],[-34.8507129,-7.0379663],[-34.8503263,-7.0364432],[-34.8502836,-7.0362748],[-34.8500149,-7.0351778],[-34.8499427,-7.0348543],[-34.8498393,-7.0343895],[-34.8497531,-7.0340671],[-34.8496714,-7.0338192],[-34.8495682,-7.0335793],[-34.8494539,-7.0333471],[-34.8484576,-7.0315589],[-34.8474518,-7.0298035],[-34.845129,-7.0257975],[-34.8451138,-7.0257676],[-34.842207,-7.0207183],[-34.8415715,-7.0196154],[-34.841115,-7.0187947],[-34.8406467,-7.0179773],[-34.8384082,-7.0139927],[-34.8363398,-7.010453],[-34.8353824,-7.0087919],[-34.8344324,-7.0070952],[-34.8338862,-7.0061065],[-34.8337165,-7.0057883],[-34.833603,-7.0055287],[-34.8335408,-7.0052938],[-34.8335071,-7.0050926],[-34.8334973,-7.0049143],[-34.8334989,-7.0046612],[-34.8335592,-7.0039317],[-34.8336054,-7.0033111],[-34.8339586,-6.9989543],[-34.8339835,-6.9985059],[-34.8339888,-6.9980988],[-34.8339578,-6.9977116],[-34.833896,-6.9973832],[-34.8338211,-6.9970423],[-34.8336941,-6.996683],[-34.8327175,-6.9945156],[-34.832487,-6.9939623],[-34.8323743,-6.9935683],[-34.8323153,-6.9931956],[-34.8322843,-6.9927954],[-34.8322928,-6.9923431],[-34.8323266,-6.991979],[-34.8324006,-6.9915829],[-34.8324824,-6.9912012],[-34.8326181,-6.9905832],[-34.8326928,-6.990218],[-34.8328076,-6.989642],[-34.8329127,-6.989137],[-34.8332811,-6.9874003],[-34.8334826,-6.9864338],[-34.8336683,-6.9855316],[-34.833847,-6.9846192],[-34.834328,-6.9822116],[-34.8344961,-6.9813877],[-34.8345055,-6.9813338],[-34.8347216,-6.9801962],[-34.8349605,-6.9790453],[-34.8351204,-6.9782457],[-34.835164,-6.9780277],[-34.8351748,-6.9779771],[-34.8352565,-6.9775783],[-34.8355778,-6.9759657],[-34.8356745,-6.9754659],[-34.8359576,-6.9741177],[-34.8360174,-6.9738337],[-34.8360626,-6.9736189],[-34.8360988,-6.9735377],[-34.8361671,-6.9734034],[-34.8362324,-6.9732916]],[[-34.9471887,-7.1219786],[-34.9470353,-7.1220222],[-34.9468905,-7.1220741],[-34.9467256,-7.122122],[-34.9449835,-7.1223483],[-34.944797,-7.1223603],[-34.9446267,-7.1223483],[-34.9444574,-7.1223546]],[[-34.9129391,-7.1303809],[-34.9120201,-7.1298916]],[[-34.9020221,-7.127611],[-34.9015954,-7.1272439],[-34.9015828,-7.1272331],[-34.9015703,-7.1272224],[-34.9015576,-7.1272114],[-34.9015004,-7.1271622],[-34.9012026,-7.1269061]],[[-34.9010737,-7.1267777],[-34.9009718,-7.1267],[-34.9007722,-7.1265614],[-34.9006989,-7.1265068],[-34.8999881,-7.1258946],[-34.8999003,-7.1258086],[-34.8997675,-7.1256691],[-34.8996778,-7.1255801]]]},"properties":{"tipo":"linha","nome":"CBTU: Santa Rita → Cabedelo","operador":"CBTU","rede":"CBTU"}},{"type":"Feature","geometry":{"type":"Point","coordinates":[-34.9015707,-7.1272041]},"properties":{"tipo":"estacao","nome":"Ilha do Bispo","osm_id":670611259}},{"type":"Feature","geometry":{"type":"Point","coordinates":[-34.955446,-7.1199696]},"properties":{"tipo":"estacao","nome":"Várzea Nova","osm_id":921663459}},{"type":"Feature","geometry":{"type":"Point","coordinates":[-34.8552367,-7.0751845]},"properties":{"tipo":"estacao","nome":"Renascer","osm_id":1672897885}},{"type":"Feature","geometry":{"type":"Point","coordinates":[-34.8638671,-7.1000712]},"properties":{"tipo":"estacao","nome":"Mandacaru","osm_id":1672898551}},{"type":"Feature","geometry":{"type":"Point","coordinates":[-34.8415715,-7.0196154]},"properties":{"tipo":"estacao","nome":"Poço","osm_id":1675100079}},{"type":"Feature","geometry":{"type":"Point","coordinates":[-34.8326928,-6.990218]},"properties":{"tipo":"estacao","nome":"Jardim Manguinhos","osm_id":1675101552}},{"type":"Feature","geometry":{"type":"Point","coordinates":[-34.8359576,-6.9741177]},"properties":{"tipo":"estacao","nome":"Cabedelo","osm_id":1675102261}},{"type":"Feature","geometry":{"type":"Point","coordinates":[-34.9280124,-7.1274447]},"properties":{"tipo":"estacao","nome":"Bayeux","osm_id":2111531413}},{"type":"Feature","geometry":{"type":"Point","coordinates":[-34.8906741,-7.1151287]},"properties":{"tipo":"estacao","nome":"João Pessoa","osm_id":5212428248}},{"type":"Feature","geometry":{"type":"Point","coordinates":[-34.9802378,-7.124943]},"properties":{"tipo":"estacao","nome":"Santa Rita","osm_id":7123565397}},{"type":"Feature","geometry":{"type":"Point","coordinates":[-34.8335592,-7.0039317]},"properties":{"tipo":"estacao","nome":"Jardim Camboinha","osm_id":8807152026}},{"type":"Feature","geometry":{"type":"Point","coordinates":[-34.8503263,-7.0364432]},"properties":{"tipo":"estacao","nome":"Jacaré","osm_id":8807164309}},{"type":"Feature","geometry":{"type":"Point","coordinates":[-34.9128901,-7.1303871]},"properties":{"tipo":"estacao","nome":"Alto do Mateus","osm_id":11718195492}}]}