{"type":"FeatureCollection","features":[{"type":"Feature","geometry":{"type":"Point","coordinates":[-38.2209842,-6.7655474]},"properties":{"osm_id":773884329,"osm_type":"node","nome":"Terminal Rodoviário de Sousa","operador":null,"municipio_cod":"2516201","municipio":"Sousa"}},{"type":"Feature","geometry":{"type":"Point","coordinates":[-38.4073597,-6.5191128]},"properties":{"osm_id":1863146749,"osm_type":"node","nome":"Rodoviária de Uiraúna","operador":null,"municipio_cod":"2516904","municipio":"Uiraúna"}},{"type":"Feature","geometry":{"type":"Point","coordinates":[-38.4483339,-6.7315707]},"properties":{"osm_id":1863757297,"osm_type":"node","nome":null,"operador":null,"municipio_cod":"2500700","municipio":"São João do Rio do Peixe"}},{"type":"Feature","geometry":{"type":"Point","coordinates":[-37.2772252,-7.0224808]},"properties":{"osm_id":1975251823,"osm_type":"node","nome":"Terminal de Integração de Patos","operador":null,"municipio_cod":"2510808","municipio":"Patos"}},{"type":"Feature","geometry":{"type":"Point","coordinates":[-37.2593848,-7.0194393]},"properties":{"osm_id":2040129249,"osm_type":"node","nome":"Terminal Rodoviário de Patos","operador":"DER","municipio_cod":"2510808","municipio":"Patos"}},{"type":"Feature","geometry":{"type":"Point","coordinates":[-35.4886092,-6.847419]},"properties":{"osm_id":2079344658,"osm_type":"node","nome":"Terminal Rodoviário","operador":null,"municipio_cod":"2506301","municipio":"Guarabira"}},{"type":"Feature","geometry":{"type":"Point","coordinates":[-36.7127971,-6.9940363]},"properties":{"osm_id":2097457391,"osm_type":"node","nome":"Guanabara Passagens","operador":null,"municipio_cod":"2507804","municipio":"Junco do Seridó"}},{"type":"Feature","geometry":{"type":"Point","coordinates":[-34.8900531,-7.1176651]},"properties":{"osm_id":2530845076,"osm_type":"node","nome":"Terminal do Varadouro | Plataforma C - 02","operador":null,"municipio_cod":"2507507","municipio":"João Pessoa"}},{"type":"Feature","geometry":{"type":"Point","coordinates":[-34.8390882,-7.1887995]},"properties":{"osm_id":2531341342,"osm_type":"node","nome":"Terminal de Ônibus de Mangabeira IV","operador":null,"municipio_cod":"2507507","municipio":"João Pessoa"}},{"type":"Feature","geometry":{"type":"Point","coordinates":[-35.8697632,-7.2380435]},"properties":{"osm_id":2539001970,"osm_type":"node","nome":"Terminal Rodoviário de Campina Grande","operador":null,"municipio_cod":"2504009","municipio":"Campina Grande"}},{"type":"Feature","geometry":{"type":"Point","coordinates":[-34.8316541,-7.2160927]},"properties":{"osm_id":2635340590,"osm_type":"node","nome":"Terminal de Ônibus de Muçumagro","operador":null,"municipio_cod":"2507507","municipio":"João Pessoa"}},{"type":"Feature","geometry":{"type":"Point","coordinates":[-34.8367546,-7.1245901]},"properties":{"osm_id":2635341171,"osm_type":"node","nome":"Terminal Miramar - Linha 402","operador":null,"municipio_cod":"2507507","municipio":"João Pessoa"}},{"type":"Feature","geometry":{"type":"Point","coordinates":[-34.8720017,-7.1664887]},"properties":{"osm_id":2635341843,"osm_type":"node","nome":"Terminal Cristo Redentor - 204, 208, 3200","operador":null,"municipio_cod":"2507507","municipio":"João Pessoa"}},{"type":"Feature","geometry":{"type":"Point","coordinates":[-34.8815464,-7.1827931]},"properties":{"osm_id":2635342335,"osm_type":"node","nome":null,"operador":"Unitrans","municipio_cod":"2507507","municipio":"João Pessoa"}},{"type":"Feature","geometry":{"type":"Point","coordinates":[-37.1239548,-7.8917179]},"properties":{"osm_id":2675035910,"osm_type":"node","nome":"Terminal Realbus","operador":null,"municipio_cod":"2509701","municipio":"Monteiro"}},{"type":"Feature","geometry":{"type":"Point","coordinates":[-35.5372162,-6.7014623]},"properties":{"osm_id":2697162288,"osm_type":"node","nome":"Estação Rodoviária","operador":null,"municipio_cod":"2501906","municipio":"Belém"}},{"type":"Feature","geometry":{"type":"Point","coordinates":[-38.5134661,-7.3151913]},"properties":{"osm_id":2741306529,"osm_type":"node","nome":null,"operador":null,"municipio_cod":"2502409","municipio":"Bonito de Santa Fé"}},{"type":"Feature","geometry":{"type":"Point","coordinates":[-34.821127,-7.1607674]},"properties":{"osm_id":3654699757,"osm_type":"node","nome":"Terminal Quadramares - Linha 203","operador":null,"municipio_cod":"2507507","municipio":"João Pessoa"}},{"type":"Feature","geometry":{"type":"Point","coordinates":[-34.8460186,-7.0810837]},"properties":{"osm_id":3950854317,"osm_type":"node","nome":"Terminal de Ônibus do Val Paraíso","operador":null,"municipio_cod":"2507507","municipio":"João Pessoa"}},{"type":"Feature","geometry":{"type":"Point","coordinates":[-37.7460031,-6.3558794]},"properties":{"osm_id":4011847524,"osm_type":"node","nome":"Rodoviária de Catolé do Rocha","operador":null,"municipio_cod":"2504306","municipio":"Catolé do Rocha"}},{"type":"Feature","geometry":{"type":"Point","coordinates":[-37.7943484,-6.7660866]},"properties":{"osm_id":4261900970,"osm_type":"node","nome":"Terminal Rodoviário de Pombal","operador":null,"municipio_cod":"2512101","municipio":"Pombal"}},{"type":"Feature","geometry":{"type":"Point","coordinates":[-37.8065993,-6.5548526]},"properties":{"osm_id":4293897061,"osm_type":"node","nome":"Rodoviária de Jericó","operador":null,"municipio_cod":"2507408","municipio":"Jericó"}},{"type":"Feature","geometry":{"type":"Point","coordinates":[-36.5788122,-7.0691468]},"properties":{"osm_id":4305318712,"osm_type":"node","nome":"Rodoviária de Juazeirinho","operador":null,"municipio_cod":"2507705","municipio":"Juazeirinho"}},{"type":"Feature","geometry":{"type":"Point","coordinates":[-34.9836749,-7.2538896]},"properties":{"osm_id":5169863219,"osm_type":"node","nome":"Ponto 9 - Cicerolândia","operador":null,"municipio_cod":"2513703","municipio":"Santa Rita"}},{"type":"Feature","geometry":{"type":"Point","coordinates":[-38.5094931,-7.1203068]},"properties":{"osm_id":5514343728,"osm_type":"node","nome":"Rodoviária de São José de Piranhas","operador":null,"municipio_cod":"2514503","municipio":"São José de Piranhas"}},{"type":"Feature","geometry":{"type":"Point","coordinates":[-37.9259453,-7.1992971]},"properties":{"osm_id":5534772730,"osm_type":"node","nome":"Rodoviária de Piancó","operador":null,"municipio_cod":"2511301","municipio":"Piancó"}},{"type":"Feature","geometry":{"type":"Point","coordinates":[-38.4038136,-7.4973853]},"properties":{"osm_id":5534834156,"osm_type":"node","nome":"Terminal Rodoviário deibiara","operador":null,"municipio_cod":"2506608","municipio":"Ibiara"}},{"type":"Feature","geometry":{"type":"Point","coordinates":[-38.155582,-7.3040686]},"properties":{"osm_id":5538768698,"osm_type":"node","nome":"Terminal Rodoviário de Itaporanga","operador":null,"municipio_cod":"2507002","municipio":"Itaporanga"}},{"type":"Feature","geometry":{"type":"Point","coordinates":[-37.9453539,-7.0181589]},"properties":{"osm_id":6060626432,"osm_type":"node","nome":"Terminal Rodoviário de Coremas","operador":null,"municipio_cod":"2504801","municipio":"Coremas"}},{"type":"Feature","geometry":{"type":"Point","coordinates":[-34.9560728,-7.1670359]},"properties":{"osm_id":6122457532,"osm_type":"node","nome":"TERMINAL - HEITEL SANTIAGO;Parada (final Heltel)","operador":"TR TRANSPORTES;Tr Transporte de Passageiros, Viação Sonho Doutrdo","municipio_cod":"2513703","municipio":"Santa Rita"}},{"type":"Feature","geometry":{"type":"Point","coordinates":[-34.865761,-7.180503]},"properties":{"osm_id":7277909531,"osm_type":"node","nome":"Terminal 5100 Circular","operador":null,"municipio_cod":"2507507","municipio":"João Pessoa"}},{"type":"Feature","geometry":{"type":"Point","coordinates":[-34.8711888,-7.1797564]},"properties":{"osm_id":7277909532,"osm_type":"node","nome":"Terminal 1510 - 5110","operador":null,"municipio_cod":"2507507","municipio":"João Pessoa"}},{"type":"Feature","geometry":{"type":"Point","coordinates":[-34.8667538,-7.1763767]},"properties":{"osm_id":7330640979,"osm_type":"node","nome":"Terminal 502-202-106","operador":null,"municipio_cod":"2507507","municipio":"João Pessoa"}},{"type":"Feature","geometry":{"type":"Point","coordinates":[-36.8241658,-7.2077364]},"properties":{"osm_id":9590322362,"osm_type":"node","nome":"Terminal Rodoviário Argemiro Cândido","operador":null,"municipio_cod":"2516508","municipio":"Taperoá"}},{"type":"Feature","geometry":{"type":"Point","coordinates":[-34.8748076,-7.1075122]},"properties":{"osm_id":11761700225,"osm_type":"node","nome":"Terminal de Ônibus do Roger","operador":null,"municipio_cod":"2507507","municipio":"João Pessoa"}},{"type":"Feature","geometry":{"type":"Point","coordinates":[-35.3180729,-7.0539937]},"properties":{"osm_id":12374249817,"osm_type":"node","nome":"Terminal Rodoviário de Marí","operador":null,"municipio_cod":"2509107","municipio":"Mari"}},{"type":"Feature","geometry":{"type":"Point","coordinates":[-35.8825633,-7.2167752]},"properties":{"osm_id":13284040052,"osm_type":"node","nome":"Rodoviária Velha de Campina Grande","operador":null,"municipio_cod":"2504009","municipio":"Campina Grande"}},{"type":"Feature","geometry":{"type":"Point","coordinates":[-38.2278247,-6.7594887]},"properties":{"osm_id":174005174,"osm_type":"way","nome":"Terminal Municipal de Transporte Coletivo","operador":null,"municipio_cod":"2516201","municipio":"Sousa"}},{"type":"Feature","geometry":{"type":"Point","coordinates":[-38.553922,-6.8873436]},"properties":{"osm_id":174393907,"osm_type":"way","nome":"Terminal Rodoriário Clóvis Rolim","operador":null,"municipio_cod":"2503704","municipio":"Cajazeiras"}},{"type":"Feature","geometry":{"type":"Point","coordinates":[-35.4956339,-6.8539499]},"properties":{"osm_id":174988067,"osm_type":"way","nome":"Terminal Rodoviário Estadual Antônio Gentil de Amorim","operador":null,"municipio_cod":"2506301","municipio":"Guarabira"}},{"type":"Feature","geometry":{"type":"Point","coordinates":[-37.0962328,-6.9371823]},"properties":{"osm_id":190067190,"osm_type":"way","nome":"Terminal Rodoviário Etelberto Cabral","operador":null,"municipio_cod":"2514909","municipio":"São Mamede"}},{"type":"Feature","geometry":{"type":"Point","coordinates":[-34.8898745,-7.1178675]},"properties":{"osm_id":194973062,"osm_type":"way","nome":"Terminal de Integração do Varadouro","operador":null,"municipio_cod":"2507507","municipio":"João Pessoa"}},{"type":"Feature","geometry":{"type":"Point","coordinates":[-35.8893829,-7.2207263]},"properties":{"osm_id":243985615,"osm_type":"way","nome":"Terminal de Integração","operador":null,"municipio_cod":"2504009","municipio":"Campina Grande"}},{"type":"Feature","geometry":{"type":"Point","coordinates":[-34.9290206,-7.1727694]},"properties":{"osm_id":246441635,"osm_type":"way","nome":"Terminal Cidade Verde","operador":null,"municipio_cod":"2507507","municipio":"João Pessoa"}},{"type":"Feature","geometry":{"type":"Point","coordinates":[-34.8845091,-7.1963028]},"properties":{"osm_id":247741092,"osm_type":"way","nome":"Terminal de Integração Colinas do Sul","operador":null,"municipio_cod":"2507507","municipio":"João Pessoa"}},{"type":"Feature","geometry":{"type":"Point","coordinates":[-35.662583,-6.7579505]},"properties":{"osm_id":250235392,"osm_type":"way","nome":"Terminal Rodoviário Municipal Anísio Rodrigues da Costa","operador":"Prefeitura Municipal","municipio_cod":"2516003","municipio":"Solânea"}},{"type":"Feature","geometry":{"type":"Point","coordinates":[-34.8451079,-7.1987636]},"properties":{"osm_id":251401728,"osm_type":"way","nome":"Terminal de Valentina Figueiredo","operador":null,"municipio_cod":"2507507","municipio":"João Pessoa"}},{"type":"Feature","geometry":{"type":"Point","coordinates":[-34.8150852,-7.1842914]},"properties":{"osm_id":256885287,"osm_type":"way","nome":"Terminal de Ônibus do Cidade Verde","operador":"Transnacional","municipio_cod":"2507507","municipio":"João Pessoa"}},{"type":"Feature","geometry":{"type":"Point","coordinates":[-34.8455305,-7.0631239]},"properties":{"osm_id":259240564,"osm_type":"way","nome":"Terminal de Integração do Bessa","operador":null,"municipio_cod":"2507507","municipio":"João Pessoa"}},{"type":"Feature","geometry":{"type":"Point","coordinates":[-34.9811536,-7.1221893]},"properties":{"osm_id":261073891,"osm_type":"way","nome":"Terminal Urbano de Santa Rita","operador":"Prefeitura Municipal de Santa Rita","municipio_cod":"2513703","municipio":"Santa Rita"}},{"type":"Feature","geometry":{"type":"Point","coordinates":[-34.8912347,-7.1182836]},"properties":{"osm_id":292114964,"osm_type":"way","nome":"Terminal Rodoviário Severino Camêlo","operador":null,"municipio_cod":"2507507","municipio":"João Pessoa"}},{"type":"Feature","geometry":{"type":"Point","coordinates":[-35.632404,-6.7547153]},"properties":{"osm_id":377683555,"osm_type":"way","nome":"Rodoviária Municipal","operador":null,"municipio_cod":"2501500","municipio":"Bananeiras"}},{"type":"Feature","geometry":{"type":"Point","coordinates":[-35.7406178,-6.5282741]},"properties":{"osm_id":379141038,"osm_type":"way","nome":null,"operador":null,"municipio_cod":"2501005","municipio":"Araruna"}},{"type":"Feature","geometry":{"type":"Point","coordinates":[-38.5092413,-7.5590501]},"properties":{"osm_id":462431270,"osm_type":"way","nome":"Terminal Rodoviário de Conceição","operador":null,"municipio_cod":"2504405","municipio":"Conceição"}},{"type":"Feature","geometry":{"type":"Point","coordinates":[-34.881426,-7.1827871]},"properties":{"osm_id":475868768,"osm_type":"way","nome":null,"operador":"Unitrans","municipio_cod":"2507507","municipio":"João Pessoa"}},{"type":"Feature","geometry":{"type":"Point","coordinates":[-38.6552519,-6.8161053]},"properties":{"osm_id":494798182,"osm_type":"way","nome":"Rodoviaria Municipal Walmor Dantas","operador":null,"municipio_cod":"2502201","municipio":"Bom Jesus"}},{"type":"Feature","geometry":{"type":"Point","coordinates":[-36.9249068,-6.8701229]},"properties":{"osm_id":548763846,"osm_type":"way","nome":"Estação Rodoviária de Santa Luzia","operador":null,"municipio_cod":"2513406","municipio":"Santa Luzia"}},{"type":"Feature","geometry":{"type":"Point","coordinates":[-36.8901715,-7.6803595]},"properties":{"osm_id":549365440,"osm_type":"way","nome":"Parada de ônibus","operador":null,"municipio_cod":"2516300","municipio":"Sumé"}},{"type":"Feature","geometry":{"type":"Point","coordinates":[-36.8746321,-7.6687993]},"properties":{"osm_id":549633619,"osm_type":"way","nome":"Parada de ônibus","operador":null,"municipio_cod":"2516300","municipio":"Sumé"}},{"type":"Feature","geometry":{"type":"Point","coordinates":[-35.7935643,-6.9650256]},"properties":{"osm_id":568798212,"osm_type":"way","nome":"Agência São José","operador":null,"municipio_cod":"2512705","municipio":"Remígio"}},{"type":"Feature","geometry":{"type":"Point","coordinates":[-35.7934613,-6.9657235]},"properties":{"osm_id":568802591,"osm_type":"way","nome":"Agência Bela Vista","operador":null,"municipio_cod":"2512705","municipio":"Remígio"}},{"type":"Feature","geometry":{"type":"Point","coordinates":[-38.5840277,-7.2140019]},"properties":{"osm_id":579058084,"osm_type":"way","nome":"Rodoviária de Monte Horebe","operador":null,"municipio_cod":"2509602","municipio":"Monte Horebe"}},{"type":"Feature","geometry":{"type":"Point","coordinates":[-35.4189444,-6.6863631]},"properties":{"osm_id":605344385,"osm_type":"way","nome":null,"operador":null,"municipio_cod":"2505808","municipio":"Duas Estradas"}},{"type":"Feature","geometry":{"type":"Point","coordinates":[-35.6274692,-7.047374]},"properties":{"osm_id":688057292,"osm_type":"way","nome":"Rodoviária de Alagoa Grande","operador":null,"municipio_cod":"2500304","municipio":"Alagoa Grande"}},{"type":"Feature","geometry":{"type":"Point","coordinates":[-37.0574752,-7.2108371]},"properties":{"osm_id":824904129,"osm_type":"way","nome":null,"operador":null,"municipio_cod":"2503555","municipio":"Cacimbas"}},{"type":"Feature","geometry":{"type":"Point","coordinates":[-35.1229223,-6.8366989]},"properties":{"osm_id":1085224168,"osm_type":"way","nome":null,"operador":null,"municipio_cod":"2508901","municipio":"Mamanguape"}},{"type":"Feature","geometry":{"type":"Point","coordinates":[-35.8711678,-7.2387798]},"properties":{"osm_id":1193566914,"osm_type":"way","nome":"Terminal Rodoviário Argemiro de Figueiredo","operador":null,"municipio_cod":"2504009","municipio":"Campina Grande"}},{"type":"Feature","geometry":{"type":"Point","coordinates":[-34.8472667,-7.2049139]},"properties":{"osm_id":1204790151,"osm_type":"way","nome":"Terminal de Integração do Valentina","operador":null,"municipio_cod":"2507507","municipio":"João Pessoa"}}]}