{"type":"FeatureCollection","features":[{"type":"Feature","geometry":{"type":"Point","coordinates":[-38.262065887,-6.734270096]},"properties":{"geossit_id":115,"url":"https://www.sgb.gov.br/geossit/geossitios/ver/115","nome_lista":"Passagem das Pedras (Icnofósseis da Bacia do Rio do Peixe, PB)","nota":"360","municipio_lista":"Sousa","nome":"Passagem das Pedras (Icnofósseis da Bacia do Rio do Peixe, PB)","municipio":"Sousa","datum":"WGS 84","classificacao":"Paleontologia","classificacao_secundaria":null,"enquadramento":"BACIAS SEDIMENTARES EMERSAS DO FANEROZÓICO - Rio do Peixe","tempo_geologico":"Cretáceo","rocha":"Siltito","relevancia":"Geossítio de relevância Internacional","valor_cientifico":360,"valor_educativo":380,"valor_turistico":345,"risco_degradacao":125,"fragilidade":"Elevada","acesso":"O geossítio Passagem das Pedras está localizado 3,5 Km a noroeste da cidade de Sousa. O acesso é feito a partir da saída noroeste daquela cidade, pela rodovia PB-391. A entrada para o Monumento Natural Vale dos Dinossauros, onde está o geossítio, fica na margem esquerda da estrada."}},{"type":"Feature","geometry":{"type":"Point","coordinates":[-38.308746338,-6.693729877]},"properties":{"geossit_id":116,"url":"https://www.sgb.gov.br/geossit/geossitios/ver/116","nome_lista":"Serrote do Letreiro (Icnofósseis da Bacia do Rio do Peixe, PB)","nota":"220","municipio_lista":"Sousa","nome":"Serrote do Letreiro (Icnofósseis da Bacia do Rio do Peixe, PB)","municipio":"Sousa","datum":"WGS 84","classificacao":"Paleontologia","classificacao_secundaria":null,"enquadramento":"BACIAS SEDIMENTARES EMERSAS DO FANEROZÓICO - Rio do Peixe","tempo_geologico":"Cretáceo","rocha":"Arenito","relevancia":"Geossítio de relevância Nacional","valor_cientifico":220,"valor_educativo":290,"valor_turistico":245,"risco_degradacao":265,"fragilidade":"Razoável","acesso":"O geossítio Serrote do Letreiro está localizado a 12,3 Km a noroeste da cidade de Sousa. O acesso é feito a partir da saída noroeste da cidade de Sousa pela rodovia PB-391. Percorrer 11 Km até uma bifurcação à direita da estrada asfaltada, de onde se segue por estrada carroçável por 1,3 Km, onde fica o geossítio, na margem direita da estrada."}},{"type":"Feature","geometry":{"type":"Point","coordinates":[-38.195625305,-6.721789837]},"properties":{"geossit_id":118,"url":"https://www.sgb.gov.br/geossit/geossitios/ver/118","nome_lista":"Serrote do Pimenta (Icnofósseis da Bacia do Rio do Peixe, PB)","nota":"280","municipio_lista":"Sousa","nome":"Serrote do Pimenta (Icnofósseis da Bacia do Rio do Peixe, PB)","municipio":"Sousa","datum":"WGS 84","classificacao":"Paleontologia","classificacao_secundaria":null,"enquadramento":"BACIAS SEDIMENTARES EMERSAS DO FANEROZÓICO - Rio do Peixe","tempo_geologico":"Cretáceo","rocha":"Arenito síltico-argiloso","relevancia":"Geossítio de relevância Nacional","valor_cientifico":280,"valor_educativo":265,"valor_turistico":210,"risco_degradacao":250,"fragilidade":"Razoável","acesso":"O geossítio Serrote do Pimenta está situado 6 Km a nordeste da cidade de Sousa. O acesso é feito a partir da saída nordeste da cidade através de estrada de terra. Na primeira bifurcação à esquerda seguir até o rio, e após cruzar este, continuar por mais 1,8 km e entrar à direita até chegar à Fazenda Estreito, cujo proprietário é o Sr. Hermano, onde está localizado o geossitio."}},{"type":"Feature","geometry":{"type":"Point","coordinates":[-38.209247589,-6.818130016]},"properties":{"geossit_id":119,"url":"https://www.sgb.gov.br/geossit/geossitios/ver/119","nome_lista":"Mãe d&#039;Água (Icnofósseis da Bacia do Rio do Peixe, PB)","nota":"190","municipio_lista":"Sousa","nome":"Mãe d'Água (Icnofósseis da Bacia do Rio do Peixe, PB)","municipio":"Sousa","datum":"WGS 84","classificacao":"Paleontologia","classificacao_secundaria":null,"enquadramento":"BACIAS SEDIMENTARES EMERSAS DO FANEROZÓICO - Rio do Peixe","tempo_geologico":"Cretáceo","rocha":"Arenito","relevancia":"Sítio da Geodiversidade Relevância Nacional","valor_cientifico":190,"valor_educativo":280,"valor_turistico":220,"risco_degradacao":195,"fragilidade":"Razoável","acesso":"O sítio da geodiversidade Mãe d’Água fica situado a 6 km a sudeste da cidade de Sousa. O acesso é feito a partir da saída sudeste da cidade, pela estrada de terra que vai até a vila de Mãe d'Água. O sítio é um pequeno morro a cerca de 1 km a sudoeste da vila."}},{"type":"Feature","geometry":{"type":"Point","coordinates":[-38.342445374,-6.684519768]},"properties":{"geossit_id":120,"url":"https://www.sgb.gov.br/geossit/geossitios/ver/120","nome_lista":"Floresta dos Borba (Icnofósseis da Bacia do Rio do Peixe, PB)","nota":"200","municipio_lista":"Sousa","nome":"Floresta dos Borba (Icnofósseis da Bacia do Rio do Peixe, PB)","municipio":"Sousa","datum":"WGS 84","classificacao":"Paleontologia","classificacao_secundaria":null,"enquadramento":"BACIAS SEDIMENTARES EMERSAS DO FANEROZÓICO - Rio do Peixe","tempo_geologico":"Cretáceo","rocha":"Arenito","relevancia":"Geossítio de relevância Nacional","valor_cientifico":200,"valor_educativo":265,"valor_turistico":205,"risco_degradacao":285,"fragilidade":"Elevada","acesso":"O geossítio Floresta dos Borba fica situado a 19,5 Km a noroeste da cidade de Sousa. O acesso é feito a partir da saída noroeste da cidade de Sousa pela rodovia PB-391, por onde se percorre 15,5 Km pela estrada asfaltada, até uma bifurcação à esquerda, onde se percorre mais 4 km, em estrada carroçável, até o geossítio."}},{"type":"Feature","geometry":{"type":"Point","coordinates":[-38.164108276,-6.813290119]},"properties":{"geossit_id":123,"url":"https://www.sgb.gov.br/geossit/geossitios/ver/123","nome_lista":"Fazenda Paraíso (Icnofósseis da Bacia do Rio do Peixe, PB)","nota":"220","municipio_lista":"Sousa","nome":"Fazenda Paraíso (Icnofósseis da Bacia do Rio do Peixe, PB)","municipio":"Sousa","datum":"WGS 84","classificacao":"Paleontologia","classificacao_secundaria":null,"enquadramento":"BACIAS SEDIMENTARES EMERSAS DO FANEROZÓICO - Rio do Peixe","tempo_geologico":"Cretáceo","rocha":"Arenito","relevancia":"Geossítio de relevância Nacional","valor_cientifico":220,"valor_educativo":295,"valor_turistico":235,"risco_degradacao":270,"fragilidade":"Razoável","acesso":"O geossítio Fazenda Paraíso está situado a 9,15 km a sudeste da cidade de Sousa. O acesso é realizado a partir da saída sudeste da cidade de Sousa, de onde se segue pela rodovia BR-230 por aproximadamente 5,2 km em direção à cidade de Aparecida, entrando à direita em uma estrada de terra. Nesta, segue-se por mais 3, 2 km, entrando a direita no primeiro entroncamento e seguindo mais 750 m."}},{"type":"Feature","geometry":{"type":"Point","coordinates":[-38.438339233,-6.736519814]},"properties":{"geossit_id":124,"url":"https://www.sgb.gov.br/geossit/geossitios/ver/124","nome_lista":"Barragem do Domício (Icnofósseis da Bacia do Rio do Peixe, PB)","nota":"160","municipio_lista":"São João do Rio do Peixe","nome":"Barragem do Domício (Icnofósseis da Bacia do Rio do Peixe, PB)","municipio":"São João do Rio do Peixe","datum":"WGS 84","classificacao":"Paleontologia","classificacao_secundaria":null,"enquadramento":"BACIAS SEDIMENTARES EMERSAS DO FANEROZÓICO - Rio do Peixe","tempo_geologico":"Cretáceo","rocha":"Arenito","relevancia":"Sítio da Geodiversidade Relevância Nacional","valor_cientifico":160,"valor_educativo":285,"valor_turistico":245,"risco_degradacao":255,"fragilidade":"Elevada","acesso":"O sítio da geodiversidade Barragem do Domício está situado a cerca de 1.300 m a sudeste de São João do Rio do Peixe. O acesso ao sítio se dá através da saída sudeste da cidade, seguindo 800 m por uma estrada de terra em direção à Sousa. Nesse ponto, é necessário seguir a pé por 420 m para o sul, em direção ao rio através de um pasto. O sítio encontra-se às margens de uma pequena barragem no Rio do Peixe."}},{"type":"Feature","geometry":{"type":"Point","coordinates":[-38.330734253,-6.740019798]},"properties":{"geossit_id":125,"url":"https://www.sgb.gov.br/geossit/geossitios/ver/125","nome_lista":"Piau (Icnofósseis da Bacia do Rio do Peixe, PB)","nota":"155","municipio_lista":"Sousa","nome":"Piau (Icnofósseis da Bacia do Rio do Peixe, PB)","municipio":"Sousa","datum":"WGS 84","classificacao":"Paleontologia","classificacao_secundaria":null,"enquadramento":"BACIAS SEDIMENTARES EMERSAS DO FANEROZÓICO - Rio do Peixe","tempo_geologico":"Cretáceo","rocha":"Siltito","relevancia":"Sítio da Geodiversidade Relevância Nacional","valor_cientifico":155,"valor_educativo":295,"valor_turistico":240,"risco_degradacao":225,"fragilidade":"Elevada","acesso":"O sítio da geodiversidade Piau está situado a 16,5 Km a noroeste da cidade de Sousa. O acesso é feito a partir da saída noroeste da cidade de Sousa pela rodovia PB-391, por onde se percorre 11 Km em estrada asfaltada até a vila da Caiçara, de onde se toma a direção oeste em estrada de terra, por mais 5,5 Km, até o sítio, que fica na margem esquerda do Rio do Peixe, à jusante de uma pequena barragem."}},{"type":"Feature","geometry":{"type":"Point","coordinates":[-38.111560822,-6.769790173]},"properties":{"geossit_id":127,"url":"https://www.sgb.gov.br/geossit/geossitios/ver/127","nome_lista":"Tapera","nota":"200","municipio_lista":"Aparecida","nome":"Tapera","municipio":"Aparecida","datum":"WGS 84","classificacao":"Paleontologia","classificacao_secundaria":null,"enquadramento":"BACIAS SEDIMENTARES EMERSAS DO FANEROZÓICO - Rio do Peixe","tempo_geologico":"Cretáceo","rocha":"Arenito síltico-argiloso","relevancia":"Geossítio de relevância Nacional","valor_cientifico":200,"valor_educativo":280,"valor_turistico":240,"risco_degradacao":290,"fragilidade":"Extrema","acesso":"O geossítio Tapera está situado a 3,5 km a noroeste da cidade de Aparecida. O acesso é feito a partir da saída da cidade em direção à Sousa, pela rodovia BR-230, de onde se percorre 1 km até a primeira entrada à direita, e se segue por mais 2,5 km por estrada de terra em direção noroeste, até cruzar um riacho tributário do Piranhas. O geossítio fica logo a seguir, na margem esquerda do Rio Piranhas."}},{"type":"Feature","geometry":{"type":"Point","coordinates":[-38.412109375,-6.71476984]},"properties":{"geossit_id":133,"url":"https://www.sgb.gov.br/geossit/geossitios/ver/133","nome_lista":"Engenho Novo (Icnofósseis da Bacia do Rio do Peixe, PB)","nota":"210","municipio_lista":"Sousa","nome":"Engenho Novo (Icnofósseis da Bacia do Rio do Peixe, PB)","municipio":"Sousa","datum":"WGS 84","classificacao":"Paleontologia","classificacao_secundaria":null,"enquadramento":"BACIAS SEDIMENTARES EMERSAS DO FANEROZÓICO - Rio do Peixe","tempo_geologico":"Cretáceo","rocha":"Siltito","relevancia":"Geossítio de relevância Nacional","valor_cientifico":210,"valor_educativo":270,"valor_turistico":205,"risco_degradacao":305,"fragilidade":"Elevada","acesso":"O geossítio Engenho Novo está localizado a cerca de 5 Km a nordeste da cidade de São João do Rio do Peixe, cujo acesso é feito pela saída leste da cidade, onde se pega uma estrada de terra que vai até o geossitio, na margem direita."}},{"type":"Feature","geometry":{"type":"Point","coordinates":[-38.184223175,-6.801010132]},"properties":{"geossit_id":134,"url":"https://www.sgb.gov.br/geossit/geossitios/ver/134","nome_lista":"Lagoa do Forno I","nota":"180","municipio_lista":"Sousa","nome":"Lagoa do Forno I","municipio":"Sousa","datum":"WGS 84","classificacao":"Paleontologia","classificacao_secundaria":null,"enquadramento":"BACIAS SEDIMENTARES EMERSAS DO FANEROZÓICO - Rio do Peixe","tempo_geologico":"Cretáceo","rocha":"Arenito","relevancia":"Sítio da Geodiversidade Relevância Nacional","valor_cientifico":180,"valor_educativo":285,"valor_turistico":220,"risco_degradacao":305,"fragilidade":"Elevada","acesso":"O sítio da geodiversidade Lagoa do Forno I fica localizado a 6,5 km a sudeste da cidade de Sousa. O acesso é feito a partir da saída sudeste da cidade de Sousa, de onde se segue pela rodovia BR-230 por aproximadamente 3,1 km em direção à cidade de Aparecida, entrando à direita em uma estrada de terra. Nesta, segue-se por mais 3,4 km até o sítio, antes da vila homônima."}},{"type":"Feature","geometry":{"type":"Point","coordinates":[-38.246143341,-6.76195097]},"properties":{"geossit_id":638,"url":"https://www.sgb.gov.br/geossit/geossitios/ver/638","nome_lista":"Lagoa dos Patos","nota":"300","municipio_lista":"Sousa","nome":"Lagoa dos Patos","municipio":"Sousa","datum":"WGS 84","classificacao":"Estratigrafia","classificacao_secundaria":null,"enquadramento":"BACIAS SEDIMENTARES EMERSAS DO FANEROZÓICO - Rio do Peixe","tempo_geologico":"Cretáceo","rocha":"Siltito","relevancia":"Geossítio de relevância Nacional","valor_cientifico":300,"valor_educativo":305,"valor_turistico":250,"risco_degradacao":265,"fragilidade":"Elevada","acesso":"O geossítio Lagoa dos Patos fica localizado às margens do Rio do Peixe, bem próximo a área urbana de Sousa. O acesso é feito pela Rua Bruno Figueiredo Pinto, noroeste da cidade, de onde se vai por uma estrada carroçável pela margem direita do rio até o geossítio, que fica a 1,3 Km da cidade."}},{"type":"Feature","geometry":{"type":"Point","coordinates":[-38.309860229,-6.845661163]},"properties":{"geossit_id":942,"url":"https://www.sgb.gov.br/geossit/geossitios/ver/942","nome_lista":"Falha de São Gonçalo","nota":"115","municipio_lista":"Sousa","nome":"Falha de São Gonçalo","municipio":"Sousa","datum":"WGS 84","classificacao":"Tectônica","classificacao_secundaria":null,"enquadramento":"PROVÍNCIAS ESTRUTURAIS DO BRASIL - Borborema","tempo_geologico":null,"rocha":null,"relevancia":"Sítio da Geodiversidade Relevância Regional/Local","valor_cientifico":115,"valor_educativo":190,"valor_turistico":165,"risco_degradacao":245,"fragilidade":"Baixa","acesso":"O sítio da geodiversidade Falha de São Gonçalo está localizado ao lado enrocamento da barragem homônima, no distrito de São Gonçalo, a 11 Km da cidade de Sousa, cujo acesso é feito pela BR- 230."}},{"type":"Feature","geometry":{"type":"Point","coordinates":[-38.084472656,-6.812144279]},"properties":{"geossit_id":957,"url":"https://www.sgb.gov.br/geossit/geossitios/ver/957","nome_lista":"Conglomerado da Fazenda Acauã","nota":"205","municipio_lista":"Aparecida","nome":"Conglomerado da Fazenda Acauã","municipio":"Aparecida","datum":"WGS 84","classificacao":"Tectônica","classificacao_secundaria":null,"enquadramento":"BACIAS SEDIMENTARES EMERSAS DO FANEROZÓICO - Rio do Peixe","tempo_geologico":null,"rocha":null,"relevancia":"Geossítio de relevância Nacional","valor_cientifico":205,"valor_educativo":265,"valor_turistico":265,"risco_degradacao":135,"fragilidade":"Baixa","acesso":"O geossítio Conglomerado da Fazenda Acauã está localizado a 2,1 km a sul da cidade de Aparecida. O acesso é feito pela saída da Rua João Benedito de Sousa na direção sul, até cruzar a ponte sobre o Rio Piranhas, de onde se toma a estrada à direita, até as terras da Fazenda Acauã, onde está o geossítio."}},{"type":"Feature","geometry":{"type":"Point","coordinates":[-38.546298981,-6.715284824]},"properties":{"geossit_id":961,"url":"https://www.sgb.gov.br/geossit/geossitios/ver/961","nome_lista":"Formação Triunfo","nota":"275","municipio_lista":"Santa Helena","nome":"Formação Triunfo","municipio":"Santa Helena","datum":"WGS 84","classificacao":"Sedimentologia","classificacao_secundaria":null,"enquadramento":"BACIAS SEDIMENTARES EMERSAS DO FANEROZÓICO - Rio do Peixe","tempo_geologico":null,"rocha":null,"relevancia":"Geossítio de relevância Nacional","valor_cientifico":275,"valor_educativo":230,"valor_turistico":205,"risco_degradacao":130,"fragilidade":"Baixa","acesso":"O geossítio Formação Triunfo está localizado a 13,7 km a noroeste da cidade de São João do Rio do Peixe. O acesso é feito a partir da cidade pela PB-393, no sentido de Triunfo, de onde se percorre 5,7 km até um atrevo com a PB-395 e mais 7,4 km até entrar numa estrada de terra a esquerda da rodovia, onde se percorre mais 600 metros até um pátio abandonado, construído pela Petrobrás para um poço exploratório, onde fica o geossítio."}},{"type":"Feature","geometry":{"type":"Point","coordinates":[-38.526424408,-6.702113628]},"properties":{"geossit_id":962,"url":"https://www.sgb.gov.br/geossit/geossitios/ver/962","nome_lista":"Brecha Vulcânica Poço da Jurema","nota":"205","municipio_lista":"Triunfo","nome":"Brecha Vulcânica Poço da Jurema","municipio":"Triunfo","datum":"WGS 84","classificacao":"Vulcanismo","classificacao_secundaria":null,"enquadramento":"PROVÍNCIAS ESTRUTURAIS DO BRASIL - Borborema","tempo_geologico":null,"rocha":null,"relevancia":"Geossítio de relevância Nacional","valor_cientifico":205,"valor_educativo":260,"valor_turistico":185,"risco_degradacao":110,"fragilidade":"Baixa","acesso":"O geossítio Brecha Vulcânica Poço da Jurema está situado a 10,2 km a noroeste da cidade de São João do Rio do Peixe. O acesso é feito a partir da cidade pela PB-393, no sentido de Triunfo, de onde se percorre 5,7 km até um atrevo com a PB-395 e mais 4 km, até o povoado de Brejo das Freiras. Logo após o povoado, pegar primeira estrada de terra a esquerda e percorrer mais 500 m até o geossítio."}},{"type":"Feature","geometry":{"type":"Point","coordinates":[-38.498058319,-6.676621437]},"properties":{"geossit_id":965,"url":"https://www.sgb.gov.br/geossit/geossitios/ver/965","nome_lista":"Falha de Portalegre","nota":"175","municipio_lista":"São João do Rio do Peixe","nome":"Falha de Portalegre","municipio":"São João do Rio do Peixe","datum":"WGS 84","classificacao":"Tectônica","classificacao_secundaria":null,"enquadramento":"PROVÍNCIAS ESTRUTURAIS DO BRASIL - Borborema","tempo_geologico":null,"rocha":null,"relevancia":"Sítio da Geodiversidade Relevância Nacional","valor_cientifico":175,"valor_educativo":280,"valor_turistico":260,"risco_degradacao":105,"fragilidade":"Baixa","acesso":"O sítio da geodiversidade Falha de Portalegre está localizado a 8,1 km a noroeste da cidade de São João do Rio do Peixe. O acesso é feito pela PB-393, no sentido de Triunfo. Depois de percorridos 7 km, até uma rotunda, pegar estrada à esquerda até o Hotel Brejo das Freiras, onde fica o sítio."}},{"type":"Feature","geometry":{"type":"Point","coordinates":[-38.338111877,-6.723785877]},"properties":{"geossit_id":1030,"url":"https://www.sgb.gov.br/geossit/geossitios/ver/1030","nome_lista":"Sítio Sagui","nota":"155","municipio_lista":"Sousa","nome":"Sítio Sagui","municipio":"Sousa","datum":"WGS 84","classificacao":"Sedimentologia","classificacao_secundaria":null,"enquadramento":"BACIAS SEDIMENTARES EMERSAS DO FANEROZÓICO - Rio do Peixe","tempo_geologico":null,"rocha":null,"relevancia":"Sítio da Geodiversidade Relevância Regional/Local","valor_cientifico":155,"valor_educativo":175,"valor_turistico":170,"risco_degradacao":135,"fragilidade":"Baixa","acesso":"O sítio da geodiversidade Sagüi fica localizado 14,5 Km a noroeste da cidade de Sousa. O acesso é a partir da saída noroeste, de onde se segue pela PB-391 por 11 Km até a vila da Caiçara, de onde se toma a direção oeste em estrada de terra, por mais 3,5 Km até o geossítio."}},{"type":"Feature","geometry":{"type":"Point","coordinates":[-38.477973938,-6.701874256]},"properties":{"geossit_id":1032,"url":"https://www.sgb.gov.br/geossit/geossitios/ver/1032","nome_lista":"Molassa de Brejo das Freiras","nota":"105","municipio_lista":"São João do Rio do Peixe","nome":"Molassa de Brejo das Freiras","municipio":"São João do Rio do Peixe","datum":"WGS 84","classificacao":"Sedimentologia","classificacao_secundaria":null,"enquadramento":"BACIAS SEDIMENTARES EMERSAS DO FANEROZÓICO - Rio do Peixe","tempo_geologico":null,"rocha":null,"relevancia":"Sítio da Geodiversidade Relevância Regional/Local","valor_cientifico":105,"valor_educativo":185,"valor_turistico":160,"risco_degradacao":50,"fragilidade":"Razoável","acesso":"O sítio da geodiversidade Molassa de Brejo das Freiras está localizado a 3,4 km a noroeste da cidade de São João do Rio do Peixe. O acesso é feito pela PB-393, no sentido de Triunfo. Depois de percorrida a referida distância, chega-se ao geossítio, que fica situado em ambas as margens da estrada."}},{"type":"Feature","geometry":{"type":"Point","coordinates":[-38.415042877,-6.818401337]},"properties":{"geossit_id":1034,"url":"https://www.sgb.gov.br/geossit/geossitios/ver/1034","nome_lista":"Calcarenito Fossilífero","nota":"185","municipio_lista":"São João do Rio do Peixe","nome":"Calcarenito Fossilífero","municipio":"São João do Rio do Peixe","datum":"WGS 84","classificacao":"Sedimentologia","classificacao_secundaria":null,"enquadramento":"BACIAS SEDIMENTARES EMERSAS DO FANEROZÓICO - Rio do Peixe","tempo_geologico":"Cretáceo","rocha":"Calcarenito","relevancia":"Sítio da Geodiversidade Relevância Regional/Local","valor_cientifico":185,"valor_educativo":180,"valor_turistico":160,"risco_degradacao":370,"fragilidade":"Razoável","acesso":"O sítio da geodiversidade Calcarenito Fossilífero está situado a 10 km a sudeste da cidade de São João do Rio do Peixe. O acesso é feito pela BR-405, no sentido de Marizópolis. Depois de percorrida a referida distância, chega-se ao geossítio, que fica situado na margem esquerda da estrada."}},{"type":"Feature","geometry":{"type":"Point","coordinates":[-36.296703339,-7.381158829]},"properties":{"geossit_id":1302,"url":"https://www.sgb.gov.br/geossit/geossitios/ver/1302","nome_lista":"Lajedo do Pai Mateus","nota":"340","municipio_lista":"Cabaceiras","nome":"Lajedo do Pai Mateus","municipio":"Cabaceiras","datum":"WGS 84","classificacao":"Geomorfologia","classificacao_secundaria":null,"enquadramento":"PROVÍNCIAS ESTRUTURAIS DO BRASIL - Borborema","tempo_geologico":null,"rocha":null,"relevancia":"Geossítio de relevância Internacional","valor_cientifico":340,"valor_educativo":355,"valor_turistico":340,"risco_degradacao":95,"fragilidade":"Baixa","acesso":"O geossítio Lajedo do Pai Mateus está localizado a 18,5 km, na direção norte da cidade de Cabaceiras. Partindo dessa cidade, pegar a rodovia estadual não pavimentada PB-160, que liga Cabaceiras a Boa Vista. Percorridos 9 km, seguir pela estrada bifurcada à esquerda para o Hotel Fazenda Pai Mateus, que fica a 6 km. Do hotel, percorre-se mais 3,5 km na direção nordeste, onde está localizado o geossítio."}},{"type":"Feature","geometry":{"type":"Point","coordinates":[-36.323501587,-7.375420094]},"properties":{"geossit_id":1303,"url":"https://www.sgb.gov.br/geossit/geossitios/ver/1303","nome_lista":"Sacas de Lã","nota":"370","municipio_lista":"Cabaceiras","nome":"Sacas de Lã","municipio":"Cabaceiras","datum":"WGS 84","classificacao":"Geomorfologia","classificacao_secundaria":null,"enquadramento":"PROVÍNCIAS ESTRUTURAIS DO BRASIL - Borborema","tempo_geologico":null,"rocha":null,"relevancia":"Geossítio de relevância Internacional","valor_cientifico":370,"valor_educativo":325,"valor_turistico":315,"risco_degradacao":115,"fragilidade":"Razoável","acesso":"O geossítio Sacas de Lã está localizado a 17,7 km, na direção norte da cidade de Cabaceiras. Partindo dessa cidade, pegar a estrada carroçável PB-160, que liga Cabaceiras a Boa Vista. Percorridos 9 km, seguir pela estrada bifurcada à esquerda para o Hotel Fazenda Pai Mateus, que fica a 6 km. Do hotel, percorrer mais 2,7 km na direção norte, onde está localizado o geossítio. Este monólito ímpar na região dista apenas 2 km a oeste do Lajedo do Pai Mateus."}},{"type":"Feature","geometry":{"type":"Point","coordinates":[-36.294513702,-7.373338699]},"properties":{"geossit_id":1326,"url":"https://www.sgb.gov.br/geossit/geossitios/ver/1326","nome_lista":"Pedra do Cálice","nota":"120","municipio_lista":"Cabaceiras","nome":"Pedra do Cálice","municipio":"Cabaceiras","datum":"WGS 84","classificacao":"Geomorfologia","classificacao_secundaria":null,"enquadramento":"PROVÍNCIAS ESTRUTURAIS DO BRASIL - Borborema","tempo_geologico":null,"rocha":null,"relevancia":"Sítio da Geodiversidade Relevância Nacional","valor_cientifico":120,"valor_educativo":200,"valor_turistico":225,"risco_degradacao":115,"fragilidade":"Baixa","acesso":"O Sítio da Geodiversidade Pedra do Cálice está localizado a 18,7 km, na direção norte da cidade de Cabaceiras. Partindo dessa cidade, pegar a estrada carroçável PB-160, que liga Cabaceiras a Boa Vista. Percorridos 9 km, seguir pela estrada bifurcada à esquerda para o Hotel Fazenda Pai Mateus, que fica a 6 km. Do hotel, percorrer mais 3,7 km na direção nordeste, onde está localizado o geossítio."}},{"type":"Feature","geometry":{"type":"Point","coordinates":[-36.320495605,-7.374091625]},"properties":{"geossit_id":1327,"url":"https://www.sgb.gov.br/geossit/geossitios/ver/1327","nome_lista":"Lajedo Manoel de Souza","nota":"195","municipio_lista":"Cabaceiras","nome":"Lajedo Manoel de Souza","municipio":"Cabaceiras","datum":"WGS 84","classificacao":"Geomorfologia","classificacao_secundaria":null,"enquadramento":"PROVÍNCIAS ESTRUTURAIS DO BRASIL - Borborema","tempo_geologico":null,"rocha":null,"relevancia":"Sítio da Geodiversidade Relevância Nacional","valor_cientifico":195,"valor_educativo":310,"valor_turistico":305,"risco_degradacao":150,"fragilidade":"Baixa","acesso":"O Sítio da Geodiversidade Lajedo Manoel de Souza está localizado a 18 km, na direção norte da cidade de Cabaceiras. Partindo dessa cidade, pegar a estrada carroçável PB-160, que liga Cabaceiras a Boa Vista. Percorridos 9 km, seguir pela estrada bifurcada à esquerda para o Hotel Fazenda Pai Mateus, que fica a 6 km. Do hotel, percorrer mais 3,0 km na direção nordeste, onde está localizado sítio."}},{"type":"Feature","geometry":{"type":"Point","coordinates":[-36.313179016,-7.382189274]},"properties":{"geossit_id":1328,"url":"https://www.sgb.gov.br/geossit/geossitios/ver/1328","nome_lista":"Brecha Magmática da Fazenda Pai Mateus","nota":"295","municipio_lista":"Cabaceiras","nome":"Brecha Magmática da Fazenda Pai Mateus","municipio":"Cabaceiras","datum":"WGS 84","classificacao":"Plutonismo","classificacao_secundaria":null,"enquadramento":"PROVÍNCIAS ESTRUTURAIS DO BRASIL - Borborema","tempo_geologico":null,"rocha":null,"relevancia":"Geossítio de relevância Nacional","valor_cientifico":295,"valor_educativo":240,"valor_turistico":250,"risco_degradacao":115,"fragilidade":"Razoável","acesso":"O geossítio Brecha Magmática está localizado a 16,3 km, na direção norte da cidade de Cabaceiras. Partindo dessa cidade, pegar a estrada carroçável PB-160, que liga Cabaceiras a Boa Vista. Percorridos 9 km, seguir pela estrada bifurcada à esquerda para o Hotel Fazenda Pai Mateus, que fica a 6 km. Do hotel, percorrer mais 1,3 km na direção nordeste, onde está localizado o geossítio."}},{"type":"Feature","geometry":{"type":"Point","coordinates":[-36.242778778,-7.363191605]},"properties":{"geossit_id":1330,"url":"https://www.sgb.gov.br/geossit/geossitios/ver/1330","nome_lista":"Pedra Oca","nota":"180","municipio_lista":"Cabaceiras","nome":"Pedra Oca","municipio":"Cabaceiras","datum":"WGS 84","classificacao":"Geomorfologia","classificacao_secundaria":null,"enquadramento":"PROVÍNCIAS ESTRUTURAIS DO BRASIL - Borborema","tempo_geologico":null,"rocha":null,"relevancia":"Sítio da Geodiversidade Relevância Nacional","valor_cientifico":180,"valor_educativo":240,"valor_turistico":200,"risco_degradacao":100,"fragilidade":"Baixa","acesso":"O Sítio da Geodiversidade Pedra Oca está localizado a 11,7 km, na direção sul da cidade de Boa Vista. Partindo dessa cidade, pegar a estrada carroçável PB-160, que liga Boa Vista a Cabaceiras, e percorrer 11 km até o povoado do Bravo. Do povoado, continuar na direção sul por mais 700 m até o geossítio, que fica do lado direito da estrada."}},{"type":"Feature","geometry":{"type":"Point","coordinates":[-36.308300018,-7.377442837]},"properties":{"geossit_id":1331,"url":"https://www.sgb.gov.br/geossit/geossitios/ver/1331","nome_lista":"Tanques com Enclaves de Diorito","nota":"220","municipio_lista":"Cabaceiras","nome":"Tanques com Enclaves de Diorito","municipio":"Cabaceiras","datum":"WGS 84","classificacao":"Plutonismo","classificacao_secundaria":"Petrologia","enquadramento":"PROVÍNCIAS ESTRUTURAIS DO BRASIL - Borborema","tempo_geologico":"Ediacarano","rocha":"Diorito","relevancia":"Geossítio de relevância Nacional","valor_cientifico":220,"valor_educativo":315,"valor_turistico":295,"risco_degradacao":150,"fragilidade":"Baixa","acesso":"O geossítio Tanques com Enclaves de Diorito está localizado a 17 km, na direção norte da cidade de Cabaceiras. Partindo dessa cidade, pegar a estrada carroçável PB-160, que liga Cabaceiras a Boa Vista. Percorridos 9 km, seguir pela estrada bifurcada à esquerda para o Hotel Fazenda Pai Mateus, que fica a 6 km. Do hotel, percorrer mais 2 km na direção nordeste, onde está localizado o geossítio."}},{"type":"Feature","geometry":{"type":"Point","coordinates":[-36.282688141,-7.367872238]},"properties":{"geossit_id":1332,"url":"https://www.sgb.gov.br/geossit/geossitios/ver/1332","nome_lista":"Lajedo Salambaia","nota":"195","municipio_lista":"Boa Vista","nome":"Lajedo Salambaia","municipio":"Boa Vista","datum":"WGS 84","classificacao":"Geomorfologia","classificacao_secundaria":null,"enquadramento":"PROVÍNCIAS ESTRUTURAIS DO BRASIL - Borborema","tempo_geologico":"Ediacarano","rocha":"Sienogranito","relevancia":"Sítio da Geodiversidade Relevância Nacional","valor_cientifico":195,"valor_educativo":325,"valor_turistico":300,"risco_degradacao":115,"fragilidade":"Baixa","acesso":"O geossítio Lajedo Salambaia está localizado a 21 km, na direção norte da cidade de Cabaceiras. Partindo dessa cidade, pegar a estrada carroçável PB-160, que liga Cabaceiras a Boa Vista. Percorridos 9 km, seguir pela estrada bifurcada à esquerda para o Hotel Fazenda Pai Mateus, que fica a 6 km. Do hotel, percorrer mais 6 km na direção nordeste, onde está localizado o geossítio."}},{"type":"Feature","geometry":{"type":"Point","coordinates":[-36.247097015,-7.359775543]},"properties":{"geossit_id":1333,"url":"https://www.sgb.gov.br/geossit/geossitios/ver/1333","nome_lista":"Lajedo do Bravo","nota":"220","municipio_lista":"Cabaceiras","nome":"Lajedo do Bravo","municipio":"Cabaceiras","datum":"WGS 84","classificacao":"Geomorfologia","classificacao_secundaria":null,"enquadramento":"PROVÍNCIAS ESTRUTURAIS DO BRASIL - Borborema","tempo_geologico":"Ediacarano","rocha":"Sienogranito","relevancia":"Geossítio de relevância Nacional","valor_cientifico":220,"valor_educativo":325,"valor_turistico":275,"risco_degradacao":155,"fragilidade":"Baixa","acesso":"O geossítio Lajedo do Bravo está localizado a 11,8 km, na direção sul da cidade de Boa Vista. Partindo dessa cidade, pegar a rodovia não pavimentada PB-160, que liga Boa Vista a Cabaceiras, e percorrer 11 km até o povoado do Bravo. Do povoado, continuar em trilha a pé na direção sudoeste por mais 800 m até o geossítio"}},{"type":"Feature","geometry":{"type":"Point","coordinates":[-36.255008698,-7.358080387]},"properties":{"geossit_id":1334,"url":"https://www.sgb.gov.br/geossit/geossitios/ver/1334","nome_lista":"Mistura de Magmas","nota":"180","municipio_lista":"Boa Vista","nome":"Mistura de Magmas","municipio":"Boa Vista","datum":"WGS 84","classificacao":"Plutonismo","classificacao_secundaria":null,"enquadramento":"PROVÍNCIAS ESTRUTURAIS DO BRASIL - Borborema","tempo_geologico":null,"rocha":null,"relevancia":"Sítio da Geodiversidade Relevância Nacional","valor_cientifico":180,"valor_educativo":200,"valor_turistico":195,"risco_degradacao":65,"fragilidade":"Baixa","acesso":"O Sítio da Geodiversidade Mistura de Magmas está localizado a 12,2 km, na direção sul da cidade de Boa Vista. Partindo dessa cidade, pegar a estrada carroçável PB-160, que liga Boa Vista a Cabaceiras, e percorrer 11 km até o povoado do Bravo. Do povoado, continuar em trilha a pé na direção este por mais 1.200 m até o geossítio."}},{"type":"Feature","geometry":{"type":"Point","coordinates":[-36.252445221,-7.362781525]},"properties":{"geossit_id":1335,"url":"https://www.sgb.gov.br/geossit/geossitios/ver/1335","nome_lista":"Muralha do Cariri","nota":"285","municipio_lista":"Boa Vista","nome":"Muralha do Cariri","municipio":"Boa Vista","datum":"WGS 84","classificacao":"Plutonismo","classificacao_secundaria":null,"enquadramento":"PROVÍNCIAS ESTRUTURAIS DO BRASIL - Borborema","tempo_geologico":null,"rocha":null,"relevancia":"Geossítio de relevância Nacional","valor_cientifico":285,"valor_educativo":245,"valor_turistico":225,"risco_degradacao":120,"fragilidade":"Baixa","acesso":"O Geossítio Muralha do Cariri está localizado a 12,6 km, na direção sul da cidade de Boa Vista. Partindo dessa cidade, pegar a estrada carroçável PB-160, que liga Boa Vista a Cabaceiras, e percorrer 11 km até o povoado do Bravo. Do povoado, continuar em trilha a pé na direção este por mais 1.600 m até o geossítio."}},{"type":"Feature","geometry":{"type":"Point","coordinates":[-36.30002594,-7.349435329]},"properties":{"geossit_id":1336,"url":"https://www.sgb.gov.br/geossit/geossitios/ver/1336","nome_lista":"Lagoa da Cunhã","nota":"220","municipio_lista":"Boa Vista","nome":"Lagoa da Cunhã","municipio":"Boa Vista","datum":"WGS 84","classificacao":"Geomorfologia","classificacao_secundaria":null,"enquadramento":"PROVÍNCIAS ESTRUTURAIS DO BRASIL - Borborema","tempo_geologico":"Ediacarano","rocha":"Sienogranito","relevancia":"Geossítio de relevância Nacional","valor_cientifico":220,"valor_educativo":235,"valor_turistico":200,"risco_degradacao":225,"fragilidade":"Baixa","acesso":"O geossítio Lagoa da Cunhã está localizado a 19,7 km, na direção sudoeste da cidade de Boa Vista. Partindo dessa cidade, pegar a estrada carroçável PB-160, que liga Boa Vista a Cabaceiras, e percorrer 11 km até o povoado do Bravo. Do povoado, continuar em estrada carroçável na direção Este por mais 8,7 km até o geossítio, que está dentro das terras da Fazenda Esperança."}},{"type":"Feature","geometry":{"type":"Point","coordinates":[-36.183509827,-7.340614319]},"properties":{"geossit_id":1337,"url":"https://www.sgb.gov.br/geossit/geossitios/ver/1337","nome_lista":"Lavas Almofadadas da Bacia de Boa Vista","nota":"340","municipio_lista":"Boa Vista","nome":"Lavas Almofadadas da Bacia de Boa Vista","municipio":"Boa Vista","datum":"WGS 84","classificacao":"Vulcanismo","classificacao_secundaria":null,"enquadramento":"BACIAS SEDIMENTARES EMERSAS DO FANEROZÓICO - Outro (Boa Vista)","tempo_geologico":"Paleógeno","rocha":"Basalto","relevancia":"Geossítio de relevância Internacional","valor_cientifico":340,"valor_educativo":230,"valor_turistico":235,"risco_degradacao":320,"fragilidade":"Extrema","acesso":"O geossítio Lavas Almofadadas da Bacia de Boa Vista está localizado a 18,5 km, na direção sudeste da cidade de Boa Vista. Partindo dessa cidade, pegar a estrada carroçável PB-160, que liga Boa Vista a Cabaceiras, e percorrer 11 km até o povoado do Bravo. Do povoado, continuar em estrada carroçável na direção este por mais 7,5 km m até o geossítio."}},{"type":"Feature","geometry":{"type":"Point","coordinates":[-36.209827423,-7.238371372]},"properties":{"geossit_id":1338,"url":"https://www.sgb.gov.br/geossit/geossitios/ver/1338","nome_lista":"Mármore Santa Rosa","nota":"70","municipio_lista":"Boa Vista","nome":"Mármore Santa Rosa","municipio":"Boa Vista","datum":"WGS 84","classificacao":"Metamorfismo","classificacao_secundaria":null,"enquadramento":"PROVÍNCIAS ESTRUTURAIS DO BRASIL - Borborema","tempo_geologico":null,"rocha":null,"relevancia":"Sítio da Geodiversidade Relevância Nacional","valor_cientifico":70,"valor_educativo":200,"valor_turistico":190,"risco_degradacao":335,"fragilidade":"Elevada","acesso":"O Sítio da Geodiversidade Mármore Santa Rosa está localizado a 5,8 km, na direção nordeste da cidade de Boa Vista. Partindo dessa cidade, pegar a estrada BR-402, no sentido bifurcação com a BR-230, e percorrer 4,5 km até a estrada de acesso à mineração Santa Rosa, que fica do lado esquerdo da BR, de onde se percorre mais 1,3 km em estrada carroçável até a mina a céu aberto, onde está o geossítio."}},{"type":"Feature","geometry":{"type":"Point","coordinates":[-36.111328125,-7.154014111]},"properties":{"geossit_id":1339,"url":"https://www.sgb.gov.br/geossit/geossitios/ver/1339","nome_lista":"Zona de Cisalhamento do Meio do Mundo","nota":"150","municipio_lista":"Boa Vista","nome":"Zona de Cisalhamento do Meio do Mundo","municipio":"Boa Vista","datum":"WGS 84","classificacao":"Tectônica","classificacao_secundaria":null,"enquadramento":"PROVÍNCIAS ESTRUTURAIS DO BRASIL - Borborema","tempo_geologico":null,"rocha":null,"relevancia":"Sítio da Geodiversidade Relevância Nacional","valor_cientifico":150,"valor_educativo":230,"valor_turistico":200,"risco_degradacao":220,"fragilidade":"Razoável","acesso":"O Sítio da Geodiversidade Zona de Cisalhamento do Meio do Mundo está localizado a 18,5 km, na direção nordeste da cidade de Boa Vista. Partindo dessa cidade, pegar a estrada BR-402, no sentido bifurcação com a BR-230, o geossítio fica a 500 m da bifurcação, do lado direito da estrada."}},{"type":"Feature","geometry":{"type":"Point","coordinates":[-36.379112244,-7.388165951]},"properties":{"geossit_id":1340,"url":"https://www.sgb.gov.br/geossit/geossitios/ver/1340","nome_lista":"Cânion do Rio Soledade","nota":"275","municipio_lista":"São João do Cariri","nome":"Cânion do Rio Soledade","municipio":"São João do Cariri","datum":"WGS 84","classificacao":"Geomorfologia","classificacao_secundaria":null,"enquadramento":"PROVÍNCIAS ESTRUTURAIS DO BRASIL - Borborema","tempo_geologico":null,"rocha":null,"relevancia":"Geossítio de relevância Nacional","valor_cientifico":275,"valor_educativo":260,"valor_turistico":205,"risco_degradacao":150,"fragilidade":"Razoável","acesso":"O geossítio Cânion do Rio Soledade também conhecido como Cânion do Rio do Rastro está localizado a 22,3 km, na direção noroeste, da cidade de Cabaceiras. Partindo dessa cidade, pegar a estrada carroçável PB-160, que liga Cabaceiras a Boa Vista. Percorridos 9 km, seguir pela estrada bifurcada à esquerda para o Hotel Fazenda Pai Mateus, que fica a 6 km. Do hotel, percorrer mais 7,3 km na direção oeste, onde está localizado o geossítio."}},{"type":"Feature","geometry":{"type":"Point","coordinates":[-36.566623688,-7.436740398]},"properties":{"geossit_id":1341,"url":"https://www.sgb.gov.br/geossit/geossitios/ver/1341","nome_lista":"Dique granítico Sítio Picoito","nota":"80","municipio_lista":"São João do Cariri","nome":"Dique granítico Sítio Picoito","municipio":"São João do Cariri","datum":"WGS 84","classificacao":"Geomorfologia","classificacao_secundaria":null,"enquadramento":"PROVÍNCIAS ESTRUTURAIS DO BRASIL - Borborema","tempo_geologico":null,"rocha":null,"relevancia":"Sítio da Geodiversidade Relevância Regional/Local","valor_cientifico":80,"valor_educativo":170,"valor_turistico":130,"risco_degradacao":215,"fragilidade":null,"acesso":"O sítio Dique Granítico do Sítio Picoito está localizado a 7,2 km, na direção sudoeste, da cidade de São João do Cariri. Partindo dessa cidade, pegar a BR-412 no sentido Monteiro. Percorridos 6,5 km, seguir pela estrada carroçável, bifurcada ao lado esquerdo, que vai para a localidade do Jirau. O sítio fica a 700 m, do lado direito da estrada."}},{"type":"Feature","geometry":{"type":"Point","coordinates":[-36.141052246,-7.500216961]},"properties":{"geossit_id":1342,"url":"https://www.sgb.gov.br/geossit/geossitios/ver/1342","nome_lista":"Metanortosito de Boqueirão","nota":"240","municipio_lista":"Boqueirão","nome":"Metanortosito de Boqueirão","municipio":"Boqueirão","datum":"WGS 84","classificacao":"Petrologia","classificacao_secundaria":null,"enquadramento":"PROVÍNCIAS ESTRUTURAIS DO BRASIL - Borborema","tempo_geologico":null,"rocha":null,"relevancia":"Geossítio de relevância Nacional","valor_cientifico":240,"valor_educativo":335,"valor_turistico":305,"risco_degradacao":335,"fragilidade":"Razoável","acesso":"O geossítio Metanortosito do Boqueirão está localizado a 1,8 km, na direção sudoeste da cidade de Boqueirão, próximo às margens da barragem homônima. O acesso é feito pela estrada carroçável que vai de Boqueirão para o povoado do Marinho. O geossítio fica na margem esquerda da estrada."}},{"type":"Feature","geometry":{"type":"Point","coordinates":[-36.168830872,-7.589635849]},"properties":{"geossit_id":1343,"url":"https://www.sgb.gov.br/geossit/geossitios/ver/1343","nome_lista":"Lajedo do Marinho","nota":"150","municipio_lista":"Boqueirão","nome":"Lajedo do Marinho","municipio":"Boqueirão","datum":"WGS 84","classificacao":"Geomorfologia","classificacao_secundaria":null,"enquadramento":"PROVÍNCIAS ESTRUTURAIS DO BRASIL - Borborema","tempo_geologico":null,"rocha":null,"relevancia":"Sítio da Geodiversidade Relevância Nacional","valor_cientifico":150,"valor_educativo":285,"valor_turistico":220,"risco_degradacao":155,"fragilidade":"Baixa","acesso":"O geossítio Lajedo do Marinho está localizado a 13 km, na direção sudoeste da cidade de Boqueirão. O acesso é feito pela estrada carroçável que vai de Boqueirão para o povoado do Marinho, com um percurso de 12,7 km. O geossítio fica a 300 metros do povoado, na direção sul."}},{"type":"Feature","geometry":{"type":"Point","coordinates":[-36.284500122,-7.484519005]},"properties":{"geossit_id":1344,"url":"https://www.sgb.gov.br/geossit/geossitios/ver/1344","nome_lista":"Pedra do Letreiro de Cabaceiras","nota":"270","municipio_lista":"Cabaceiras","nome":"Pedra do Letreiro de Cabaceiras","municipio":"Cabaceiras","datum":"WGS 84","classificacao":"Petrologia","classificacao_secundaria":null,"enquadramento":"PROVÍNCIAS ESTRUTURAIS DO BRASIL - Borborema","tempo_geologico":null,"rocha":null,"relevancia":"Geossítio de relevância Nacional","valor_cientifico":270,"valor_educativo":275,"valor_turistico":290,"risco_degradacao":265,"fragilidade":"Razoável","acesso":"O geossítio da Pedra do Letreiro está localizado na margem esquerda da rodovia PB-148 na entrada da cidade de Cabaceiras, no sentido Boqueirão-Cabaceiras. No local tem uma placa com a inscrição “Roliúde Nordestina”, numa referência ao fato do município de Cabaceiras ter sido o cenário de diversos filmes e séries nacionais."}}]}