{"type":"FeatureCollection","features":[{"type":"Feature","geometry":{"type":"Point","coordinates":[-37.0035796,-6.7096044]},"properties":{"osm_id":539167643,"nome":"Serra da Formosa","ele":398.0,"prominence":null,"wikipedia":null,"wikidata":null}},{"type":"Feature","geometry":{"type":"Point","coordinates":[-36.7124388,-6.9800192]},"properties":{"osm_id":539168773,"nome":null,"ele":783.0,"prominence":null,"wikipedia":null,"wikidata":null}},{"type":"Feature","geometry":{"type":"Point","coordinates":[-37.6430521,-7.4097502]},"properties":{"osm_id":539187455,"nome":null,"ele":870.0,"prominence":null,"wikipedia":null,"wikidata":null}},{"type":"Feature","geometry":{"type":"Point","coordinates":[-37.0070647,-7.0516773]},"properties":{"osm_id":539188333,"nome":"Pico do Serrote Branco","ele":null,"prominence":null,"wikipedia":null,"wikidata":null}},{"type":"Feature","geometry":{"type":"Point","coordinates":[-36.7320881,-7.0194048]},"properties":{"osm_id":539188438,"nome":null,"ele":811.0,"prominence":null,"wikipedia":null,"wikidata":null}},{"type":"Feature","geometry":{"type":"Point","coordinates":[-37.0873869,-7.1819536]},"properties":{"osm_id":539189480,"nome":null,"ele":855.0,"prominence":null,"wikipedia":null,"wikidata":null}},{"type":"Feature","geometry":{"type":"Point","coordinates":[-38.764807,-6.994153]},"properties":{"osm_id":539189516,"nome":"Serra do Balanço","ele":600.0,"prominence":null,"wikipedia":null,"wikidata":null}},{"type":"Feature","geometry":{"type":"Point","coordinates":[-37.0352553,-7.1887652]},"properties":{"osm_id":539189640,"nome":"Pedra do Flamengo","ele":826.0,"prominence":null,"wikipedia":null,"wikidata":null}},{"type":"Feature","geometry":{"type":"Point","coordinates":[-36.8653493,-7.0628196]},"properties":{"osm_id":539191646,"nome":null,"ele":836.0,"prominence":null,"wikipedia":null,"wikidata":null}},{"type":"Feature","geometry":{"type":"Point","coordinates":[-37.3561792,-7.9727304]},"properties":{"osm_id":539192069,"nome":null,"ele":1062.0,"prominence":null,"wikipedia":null,"wikidata":null}},{"type":"Feature","geometry":{"type":"Point","coordinates":[-35.5151939,-7.585021]},"properties":{"osm_id":539192104,"nome":null,"ele":676.0,"prominence":null,"wikipedia":null,"wikidata":null}},{"type":"Feature","geometry":{"type":"Point","coordinates":[-38.1154506,-7.7622998]},"properties":{"osm_id":539192288,"nome":null,"ele":993.0,"prominence":null,"wikipedia":null,"wikidata":null}},{"type":"Feature","geometry":{"type":"Point","coordinates":[-36.6678453,-8.1242659]},"properties":{"osm_id":539193105,"nome":null,"ele":1114.0,"prominence":null,"wikipedia":null,"wikidata":null}},{"type":"Feature","geometry":{"type":"Point","coordinates":[-36.8617023,-8.2224268]},"properties":{"osm_id":539193171,"nome":null,"ele":1006.0,"prominence":null,"wikipedia":null,"wikidata":null}},{"type":"Feature","geometry":{"type":"Point","coordinates":[-36.6969744,-8.1547012]},"properties":{"osm_id":539193180,"nome":null,"ele":1161.0,"prominence":null,"wikipedia":null,"wikidata":null}},{"type":"Feature","geometry":{"type":"Point","coordinates":[-36.7228075,-8.1509658]},"properties":{"osm_id":539193188,"nome":null,"ele":1170.0,"prominence":null,"wikipedia":null,"wikidata":null}},{"type":"Feature","geometry":{"type":"Point","coordinates":[-38.0694783,-7.7723243]},"properties":{"osm_id":539193278,"nome":null,"ele":1134.0,"prominence":null,"wikipedia":null,"wikidata":null}},{"type":"Feature","geometry":{"type":"Point","coordinates":[-35.841,-7.747]},"properties":{"osm_id":539193404,"nome":null,"ele":708.0,"prominence":null,"wikipedia":null,"wikidata":null}},{"type":"Feature","geometry":{"type":"Point","coordinates":[-38.073,-7.793]},"properties":{"osm_id":539193541,"nome":null,"ele":1135.0,"prominence":null,"wikipedia":null,"wikidata":null}},{"type":"Feature","geometry":{"type":"Point","coordinates":[-38.131,-7.803]},"properties":{"osm_id":539193554,"nome":null,"ele":955.0,"prominence":null,"wikipedia":null,"wikidata":null}},{"type":"Feature","geometry":{"type":"Point","coordinates":[-37.5244636,-6.8803792]},"properties":{"osm_id":1729179728,"nome":"Serra do Pico de Malta","ele":593.0,"prominence":null,"wikipedia":"pt:Serra do Pico (Paraíba)","wikidata":"Q10370496"}},{"type":"Feature","geometry":{"type":"Point","coordinates":[-37.3839839,-7.2528169]},"properties":{"osm_id":1729192486,"nome":"Pico do Jabre","ele":1208.0,"prominence":567.0,"wikipedia":"pt:Pico do Jabre","wikidata":"Q2154955"}},{"type":"Feature","geometry":{"type":"Point","coordinates":[-37.5531241,-6.9016064]},"properties":{"osm_id":1746873778,"nome":"Cruzeiro de São José","ele":372.0,"prominence":null,"wikipedia":null,"wikidata":null}},{"type":"Feature","geometry":{"type":"Point","coordinates":[-37.5177605,-6.9153146]},"properties":{"osm_id":1746873779,"nome":"Cruzeiro Nossa Senhora da Conceição","ele":360.0,"prominence":null,"wikipedia":null,"wikidata":null}},{"type":"Feature","geometry":{"type":"Point","coordinates":[-37.3413819,-6.9806778]},"properties":{"osm_id":1771630942,"nome":"Serrote Campo Alegre","ele":345.0,"prominence":null,"wikipedia":null,"wikidata":null}},{"type":"Feature","geometry":{"type":"Point","coordinates":[-37.3008185,-7.0638379]},"properties":{"osm_id":1779985287,"nome":"Espinho Branco","ele":413.0,"prominence":null,"wikipedia":"pt:Serrote do Espinho Branco","wikidata":"Q10370553"}},{"type":"Feature","geometry":{"type":"Point","coordinates":[-37.2516288,-7.2240047]},"properties":{"osm_id":1803458056,"nome":"Pedra do Cruzeiro","ele":762.0,"prominence":null,"wikipedia":null,"wikidata":null}},{"type":"Feature","geometry":{"type":"Point","coordinates":[-37.9918411,-6.7577801]},"properties":{"osm_id":1883266573,"nome":"Serrote do Tigre","ele":532.0,"prominence":null,"wikipedia":null,"wikidata":null}},{"type":"Feature","geometry":{"type":"Point","coordinates":[-36.1729472,-7.5942696]},"properties":{"osm_id":2380755871,"nome":"Serrote Macado","ele":590.0,"prominence":null,"wikipedia":null,"wikidata":null}},{"type":"Feature","geometry":{"type":"Point","coordinates":[-36.8003418,-7.0891308]},"properties":{"osm_id":2567419125,"nome":"Alto do Tem Dó","ele":549.0,"prominence":null,"wikipedia":null,"wikidata":null}},{"type":"Feature","geometry":{"type":"Point","coordinates":[-36.5980232,-7.0696021]},"properties":{"osm_id":2567480392,"nome":null,"ele":603.0,"prominence":null,"wikipedia":null,"wikidata":null}},{"type":"Feature","geometry":{"type":"Point","coordinates":[-37.1590797,-7.1906115]},"properties":{"osm_id":2569914445,"nome":null,"ele":978.0,"prominence":null,"wikipedia":null,"wikidata":null}},{"type":"Feature","geometry":{"type":"Point","coordinates":[-36.3300286,-7.3053122]},"properties":{"osm_id":2572205502,"nome":"Morro do São Joãozinho","ele":542.0,"prominence":null,"wikipedia":null,"wikidata":null}},{"type":"Feature","geometry":{"type":"Point","coordinates":[-35.4051344,-7.2199492]},"properties":{"osm_id":2596009047,"nome":"Morro do Sino","ele":354.0,"prominence":null,"wikipedia":null,"wikidata":null}},{"type":"Feature","geometry":{"type":"Point","coordinates":[-35.5251012,-7.4666697]},"properties":{"osm_id":2673028504,"nome":"Pedra Bico","ele":null,"prominence":null,"wikipedia":null,"wikidata":null}},{"type":"Feature","geometry":{"type":"Point","coordinates":[-35.5270685,-7.4663123]},"properties":{"osm_id":2673028505,"nome":"Pico Stant","ele":null,"prominence":null,"wikipedia":null,"wikidata":null}},{"type":"Feature","geometry":{"type":"Point","coordinates":[-35.5285562,-6.8661581]},"properties":{"osm_id":2675534835,"nome":"Serra da Coruja","ele":null,"prominence":null,"wikipedia":null,"wikidata":null}},{"type":"Feature","geometry":{"type":"Point","coordinates":[-37.4797131,-7.3504822]},"properties":{"osm_id":2678030455,"nome":null,"ele":833.0,"prominence":null,"wikipedia":null,"wikidata":null}},{"type":"Feature","geometry":{"type":"Point","coordinates":[-37.5523259,-7.4392164]},"properties":{"osm_id":2678030462,"nome":null,"ele":792.0,"prominence":null,"wikipedia":null,"wikidata":null}},{"type":"Feature","geometry":{"type":"Point","coordinates":[-37.6023222,-7.4861511]},"properties":{"osm_id":2678030468,"nome":null,"ele":768.0,"prominence":null,"wikipedia":null,"wikidata":null}},{"type":"Feature","geometry":{"type":"Point","coordinates":[-36.9921083,-6.9366449]},"properties":{"osm_id":2845226826,"nome":"Pico do Yayu","ele":470.0,"prominence":null,"wikipedia":null,"wikidata":null}},{"type":"Feature","geometry":{"type":"Point","coordinates":[-37.5015873,-6.9132361]},"properties":{"osm_id":2896410621,"nome":null,"ele":347.0,"prominence":null,"wikipedia":null,"wikidata":null}},{"type":"Feature","geometry":{"type":"Point","coordinates":[-37.8857578,-7.0191423]},"properties":{"osm_id":2912144335,"nome":null,"ele":323.0,"prominence":null,"wikipedia":null,"wikidata":null}},{"type":"Feature","geometry":{"type":"Point","coordinates":[-34.8835168,-6.9487909]},"properties":{"osm_id":2919672565,"nome":null,"ele":43.0,"prominence":null,"wikipedia":null,"wikidata":null}},{"type":"Feature","geometry":{"type":"Point","coordinates":[-34.8801004,-6.9694612]},"properties":{"osm_id":2919672816,"nome":null,"ele":39.0,"prominence":null,"wikipedia":null,"wikidata":null}},{"type":"Feature","geometry":{"type":"Point","coordinates":[-34.8821389,-6.9721816]},"properties":{"osm_id":2919672818,"nome":null,"ele":33.0,"prominence":null,"wikipedia":null,"wikidata":null}},{"type":"Feature","geometry":{"type":"Point","coordinates":[-34.8894465,-6.9880221]},"properties":{"osm_id":2919672916,"nome":null,"ele":86.0,"prominence":null,"wikipedia":null,"wikidata":null}},{"type":"Feature","geometry":{"type":"Point","coordinates":[-34.8887578,-6.9955732]},"properties":{"osm_id":2919672920,"nome":null,"ele":77.0,"prominence":null,"wikipedia":null,"wikidata":null}},{"type":"Feature","geometry":{"type":"Point","coordinates":[-38.074262,-7.7807485]},"properties":{"osm_id":2933637268,"nome":null,"ele":1096.0,"prominence":null,"wikipedia":null,"wikidata":null}},{"type":"Feature","geometry":{"type":"Point","coordinates":[-34.9829153,-7.4612059]},"properties":{"osm_id":3699844257,"nome":null,"ele":57.0,"prominence":null,"wikipedia":null,"wikidata":null}},{"type":"Feature","geometry":{"type":"Point","coordinates":[-35.1604005,-7.2001397]},"properties":{"osm_id":3709499560,"nome":null,"ele":76.0,"prominence":null,"wikipedia":null,"wikidata":null}},{"type":"Feature","geometry":{"type":"Point","coordinates":[-34.9660597,-6.6015972]},"properties":{"osm_id":3709499580,"nome":null,"ele":3.0,"prominence":null,"wikipedia":null,"wikidata":null}},{"type":"Feature","geometry":{"type":"Point","coordinates":[-35.0235234,-6.5101058]},"properties":{"osm_id":3709499581,"nome":null,"ele":36.0,"prominence":null,"wikipedia":null,"wikidata":null}},{"type":"Feature","geometry":{"type":"Point","coordinates":[-35.3418946,-6.5596664]},"properties":{"osm_id":3709499582,"nome":null,"ele":110.0,"prominence":null,"wikipedia":null,"wikidata":null}},{"type":"Feature","geometry":{"type":"Point","coordinates":[-35.3567624,-6.6755607]},"properties":{"osm_id":3709506427,"nome":null,"ele":145.0,"prominence":null,"wikipedia":null,"wikidata":null}},{"type":"Feature","geometry":{"type":"Point","coordinates":[-37.4880837,-7.0410908]},"properties":{"osm_id":3777497050,"nome":null,"ele":343.0,"prominence":null,"wikipedia":null,"wikidata":null}},{"type":"Feature","geometry":{"type":"Point","coordinates":[-37.3455002,-7.9743]},"properties":{"osm_id":3777497052,"nome":null,"ele":1079.0,"prominence":null,"wikipedia":null,"wikidata":null}},{"type":"Feature","geometry":{"type":"Point","coordinates":[-37.1121497,-7.054353]},"properties":{"osm_id":3823519303,"nome":"Serra das Preacas","ele":737.0,"prominence":null,"wikipedia":null,"wikidata":null}},{"type":"Feature","geometry":{"type":"Point","coordinates":[-36.9668652,-7.1178783]},"properties":{"osm_id":3861564330,"nome":null,"ele":498.0,"prominence":null,"wikipedia":null,"wikidata":null}},{"type":"Feature","geometry":{"type":"Point","coordinates":[-38.421722,-7.1402712]},"properties":{"osm_id":3887055363,"nome":"Serra da Bolandeira","ele":null,"prominence":null,"wikipedia":null,"wikidata":null}},{"type":"Feature","geometry":{"type":"Point","coordinates":[-38.4594999,-7.1441281]},"properties":{"osm_id":3887055395,"nome":"Serra do Boqueirãozinho","ele":null,"prominence":null,"wikipedia":null,"wikidata":null}},{"type":"Feature","geometry":{"type":"Point","coordinates":[-37.5339215,-6.6338336]},"properties":{"osm_id":4010377866,"nome":"Serrote do Mimoso","ele":229.0,"prominence":null,"wikipedia":null,"wikidata":null}},{"type":"Feature","geometry":{"type":"Point","coordinates":[-35.2344486,-6.8636241]},"properties":{"osm_id":4029214566,"nome":null,"ele":41.0,"prominence":null,"wikipedia":null,"wikidata":null}},{"type":"Feature","geometry":{"type":"Point","coordinates":[-35.9418443,-6.4971984]},"properties":{"osm_id":4062521734,"nome":"Serra do Japi","ele":568.0,"prominence":null,"wikipedia":null,"wikidata":null}},{"type":"Feature","geometry":{"type":"Point","coordinates":[-35.5176285,-7.605201]},"properties":{"osm_id":4168479069,"nome":null,"ele":720.0,"prominence":null,"wikipedia":null,"wikidata":null}},{"type":"Feature","geometry":{"type":"Point","coordinates":[-37.330513,-6.946279]},"properties":{"osm_id":4172943996,"nome":"Serra dos Macacos","ele":null,"prominence":null,"wikipedia":null,"wikidata":null}},{"type":"Feature","geometry":{"type":"Point","coordinates":[-36.6375321,-8.1185518]},"properties":{"osm_id":4173473583,"nome":null,"ele":1054.0,"prominence":null,"wikipedia":null,"wikidata":null}},{"type":"Feature","geometry":{"type":"Point","coordinates":[-36.7228104,-8.1509647]},"properties":{"osm_id":4174332108,"nome":null,"ele":1170.0,"prominence":null,"wikipedia":null,"wikidata":null}},{"type":"Feature","geometry":{"type":"Point","coordinates":[-36.6969758,-8.1547011]},"properties":{"osm_id":4174332109,"nome":null,"ele":1161.0,"prominence":null,"wikipedia":null,"wikidata":null}},{"type":"Feature","geometry":{"type":"Point","coordinates":[-36.8243493,-8.2082077]},"properties":{"osm_id":4174384407,"nome":null,"ele":1017.0,"prominence":null,"wikipedia":null,"wikidata":null}},{"type":"Feature","geometry":{"type":"Point","coordinates":[-37.3512869,-7.9664703]},"properties":{"osm_id":4176695414,"nome":null,"ele":1070.0,"prominence":null,"wikipedia":null,"wikidata":null}},{"type":"Feature","geometry":{"type":"Point","coordinates":[-37.1243527,-8.1741114]},"properties":{"osm_id":4176696073,"nome":null,"ele":740.0,"prominence":null,"wikipedia":null,"wikidata":null}},{"type":"Feature","geometry":{"type":"Point","coordinates":[-37.3080928,-7.9162672]},"properties":{"osm_id":4176896826,"nome":null,"ele":899.0,"prominence":null,"wikipedia":null,"wikidata":null}},{"type":"Feature","geometry":{"type":"Point","coordinates":[-37.317624,-7.94277]},"properties":{"osm_id":4176896846,"nome":null,"ele":962.0,"prominence":null,"wikipedia":null,"wikidata":null}},{"type":"Feature","geometry":{"type":"Point","coordinates":[-37.3398696,-7.9452073]},"properties":{"osm_id":4176896855,"nome":null,"ele":1036.0,"prominence":null,"wikipedia":null,"wikidata":null}},{"type":"Feature","geometry":{"type":"Point","coordinates":[-37.3485928,-7.9462987]},"properties":{"osm_id":4176896858,"nome":null,"ele":1038.0,"prominence":null,"wikipedia":null,"wikidata":null}},{"type":"Feature","geometry":{"type":"Point","coordinates":[-37.348592,-7.9462989]},"properties":{"osm_id":4176896859,"nome":null,"ele":1038.0,"prominence":null,"wikipedia":null,"wikidata":null}},{"type":"Feature","geometry":{"type":"Point","coordinates":[-34.9799086,-6.5353334]},"properties":{"osm_id":4183875072,"nome":null,"ele":96.0,"prominence":null,"wikipedia":null,"wikidata":null}},{"type":"Feature","geometry":{"type":"Point","coordinates":[-35.7317757,-7.3366388]},"properties":{"osm_id":4185782296,"nome":null,"ele":696.0,"prominence":null,"wikipedia":null,"wikidata":null}},{"type":"Feature","geometry":{"type":"Point","coordinates":[-35.7451491,-7.3422764]},"properties":{"osm_id":4185782311,"nome":null,"ele":675.0,"prominence":null,"wikipedia":null,"wikidata":null}},{"type":"Feature","geometry":{"type":"Point","coordinates":[-38.153383,-7.7808485]},"properties":{"osm_id":4186163940,"nome":null,"ele":1035.0,"prominence":null,"wikipedia":null,"wikidata":null}},{"type":"Feature","geometry":{"type":"Point","coordinates":[-38.1391963,-7.7862381]},"properties":{"osm_id":4186163952,"nome":null,"ele":1101.0,"prominence":null,"wikipedia":null,"wikidata":null}},{"type":"Feature","geometry":{"type":"Point","coordinates":[-38.096739,-7.0126028]},"properties":{"osm_id":4186486484,"nome":null,"ele":451.0,"prominence":null,"wikipedia":null,"wikidata":null}},{"type":"Feature","geometry":{"type":"Point","coordinates":[-36.1203433,-7.0583511]},"properties":{"osm_id":4188282501,"nome":null,"ele":698.0,"prominence":null,"wikipedia":null,"wikidata":null}},{"type":"Feature","geometry":{"type":"Point","coordinates":[-37.8401542,-6.3267737]},"properties":{"osm_id":4190038842,"nome":"Pico da Serra Rajada","ele":null,"prominence":null,"wikipedia":null,"wikidata":null}},{"type":"Feature","geometry":{"type":"Point","coordinates":[-38.0574834,-7.3924924]},"properties":{"osm_id":4190087963,"nome":"Serra Branca","ele":564.0,"prominence":null,"wikipedia":null,"wikidata":null}},{"type":"Feature","geometry":{"type":"Point","coordinates":[-38.0498529,-7.3983811]},"properties":{"osm_id":4190087965,"nome":null,"ele":566.0,"prominence":null,"wikipedia":null,"wikidata":null}},{"type":"Feature","geometry":{"type":"Point","coordinates":[-38.0498314,-7.4116347]},"properties":{"osm_id":4190090201,"nome":"Serrote dos Pereiros","ele":445.0,"prominence":null,"wikipedia":null,"wikidata":null}},{"type":"Feature","geometry":{"type":"Point","coordinates":[-37.3259463,-7.2262714]},"properties":{"osm_id":4190550829,"nome":null,"ele":877.0,"prominence":null,"wikipedia":null,"wikidata":null}},{"type":"Feature","geometry":{"type":"Point","coordinates":[-37.352474,-7.2340644]},"properties":{"osm_id":4190550833,"nome":null,"ele":971.0,"prominence":null,"wikipedia":null,"wikidata":null}},{"type":"Feature","geometry":{"type":"Point","coordinates":[-36.6669312,-6.9714508]},"properties":{"osm_id":4192055246,"nome":"Serra do Teresópolis","ele":790.0,"prominence":null,"wikipedia":null,"wikidata":null}},{"type":"Feature","geometry":{"type":"Point","coordinates":[-36.8291115,-7.0511599]},"properties":{"osm_id":4192055278,"nome":null,"ele":871.0,"prominence":null,"wikipedia":null,"wikidata":null}},{"type":"Feature","geometry":{"type":"Point","coordinates":[-36.320738,-7.809176]},"properties":{"osm_id":4193732688,"nome":"Serra da Cachemira","ele":647.0,"prominence":null,"wikipedia":null,"wikidata":null}},{"type":"Feature","geometry":{"type":"Point","coordinates":[-37.1234283,-7.8405658]},"properties":{"osm_id":4225821318,"nome":null,"ele":859.0,"prominence":null,"wikipedia":null,"wikidata":null}},{"type":"Feature","geometry":{"type":"Point","coordinates":[-37.0201652,-7.9636429]},"properties":{"osm_id":4225822023,"nome":null,"ele":603.0,"prominence":null,"wikipedia":null,"wikidata":null}},{"type":"Feature","geometry":{"type":"Point","coordinates":[-36.9755191,-7.9646899]},"properties":{"osm_id":4225822029,"nome":null,"ele":656.0,"prominence":null,"wikipedia":null,"wikidata":null}},{"type":"Feature","geometry":{"type":"Point","coordinates":[-37.7174485,-6.876609]},"properties":{"osm_id":4329965650,"nome":null,"ele":437.0,"prominence":null,"wikipedia":null,"wikidata":null}},{"type":"Feature","geometry":{"type":"Point","coordinates":[-37.4862743,-6.9951104]},"properties":{"osm_id":4341925368,"nome":null,"ele":369.0,"prominence":null,"wikipedia":null,"wikidata":null}},{"type":"Feature","geometry":{"type":"Point","coordinates":[-37.4023276,-6.3722257]},"properties":{"osm_id":4457272214,"nome":null,"ele":161.0,"prominence":null,"wikipedia":null,"wikidata":null}},{"type":"Feature","geometry":{"type":"Point","coordinates":[-35.5987756,-7.2918794]},"properties":{"osm_id":4575186673,"nome":"Cruzeiro de Ingá","ele":null,"prominence":null,"wikipedia":null,"wikidata":null}},{"type":"Feature","geometry":{"type":"Point","coordinates":[-35.6755793,-6.456343]},"properties":{"osm_id":4831761553,"nome":"Pedra da Boca","ele":null,"prominence":null,"wikipedia":null,"wikidata":null}},{"type":"Feature","geometry":{"type":"Point","coordinates":[-35.6822956,-6.4547422]},"properties":{"osm_id":4831761554,"nome":"Pedras Soltas","ele":null,"prominence":null,"wikipedia":null,"wikidata":null}},{"type":"Feature","geometry":{"type":"Point","coordinates":[-37.3675072,-7.2332992]},"properties":{"osm_id":5029736950,"nome":null,"ele":916.0,"prominence":null,"wikipedia":null,"wikidata":null}},{"type":"Feature","geometry":{"type":"Point","coordinates":[-37.3915803,-7.2803408]},"properties":{"osm_id":5029737159,"nome":null,"ele":888.0,"prominence":null,"wikipedia":null,"wikidata":null}},{"type":"Feature","geometry":{"type":"Point","coordinates":[-37.4077535,-7.2662749]},"properties":{"osm_id":5029737160,"nome":null,"ele":882.0,"prominence":null,"wikipedia":null,"wikidata":null}},{"type":"Feature","geometry":{"type":"Point","coordinates":[-35.2687419,-7.1934976]},"properties":{"osm_id":5435510156,"nome":null,"ele":91.0,"prominence":null,"wikipedia":null,"wikidata":null}},{"type":"Feature","geometry":{"type":"Point","coordinates":[-35.7753423,-6.6239003]},"properties":{"osm_id":6451788600,"nome":"Pedra do Mium","ele":null,"prominence":null,"wikipedia":null,"wikidata":null}},{"type":"Feature","geometry":{"type":"Point","coordinates":[-35.7751735,-6.484544]},"properties":{"osm_id":6456686508,"nome":"Pedra da Macambira","ele":118.0,"prominence":null,"wikipedia":null,"wikidata":null}},{"type":"Feature","geometry":{"type":"Point","coordinates":[-38.1265069,-7.7797951]},"properties":{"osm_id":6515379034,"nome":null,"ele":1120.0,"prominence":null,"wikipedia":null,"wikidata":null}},{"type":"Feature","geometry":{"type":"Point","coordinates":[-38.1201554,-7.737953]},"properties":{"osm_id":6515379035,"nome":null,"ele":1015.0,"prominence":null,"wikipedia":null,"wikidata":null}},{"type":"Feature","geometry":{"type":"Point","coordinates":[-38.0604708,-7.7552124]},"properties":{"osm_id":6515379062,"nome":null,"ele":1120.0,"prominence":null,"wikipedia":null,"wikidata":null}},{"type":"Feature","geometry":{"type":"Point","coordinates":[-38.0873251,-7.7781794]},"properties":{"osm_id":6515379063,"nome":null,"ele":860.0,"prominence":null,"wikipedia":null,"wikidata":null}},{"type":"Feature","geometry":{"type":"Point","coordinates":[-38.094728,-7.7709721]},"properties":{"osm_id":6515379064,"nome":null,"ele":869.0,"prominence":null,"wikipedia":null,"wikidata":null}},{"type":"Feature","geometry":{"type":"Point","coordinates":[-36.7958093,-8.1568526]},"properties":{"osm_id":6515445749,"nome":null,"ele":1075.0,"prominence":null,"wikipedia":null,"wikidata":null}},{"type":"Feature","geometry":{"type":"Point","coordinates":[-36.7683649,-8.1946697]},"properties":{"osm_id":6515445752,"nome":null,"ele":1085.0,"prominence":null,"wikipedia":null,"wikidata":null}},{"type":"Feature","geometry":{"type":"Point","coordinates":[-36.7696954,-8.1768288]},"properties":{"osm_id":6515445754,"nome":null,"ele":1075.0,"prominence":null,"wikipedia":null,"wikidata":null}},{"type":"Feature","geometry":{"type":"Point","coordinates":[-36.7343116,-8.1726022]},"properties":{"osm_id":6515445755,"nome":null,"ele":1144.0,"prominence":null,"wikipedia":null,"wikidata":null}},{"type":"Feature","geometry":{"type":"Point","coordinates":[-36.759739,-8.1425043]},"properties":{"osm_id":6515445756,"nome":null,"ele":1064.0,"prominence":null,"wikipedia":null,"wikidata":null}},{"type":"Feature","geometry":{"type":"Point","coordinates":[-36.7428304,-8.1391906]},"properties":{"osm_id":6515445757,"nome":null,"ele":1086.0,"prominence":null,"wikipedia":null,"wikidata":null}},{"type":"Feature","geometry":{"type":"Point","coordinates":[-36.722746,-8.1338377]},"properties":{"osm_id":6515445758,"nome":null,"ele":1120.0,"prominence":null,"wikipedia":null,"wikidata":null}},{"type":"Feature","geometry":{"type":"Point","coordinates":[-36.7368865,-8.1544843]},"properties":{"osm_id":6515445759,"nome":null,"ele":1076.0,"prominence":null,"wikipedia":null,"wikidata":null}},{"type":"Feature","geometry":{"type":"Point","coordinates":[-36.6901303,-8.132988]},"properties":{"osm_id":6515445761,"nome":null,"ele":1135.0,"prominence":null,"wikipedia":null,"wikidata":null}},{"type":"Feature","geometry":{"type":"Point","coordinates":[-37.1175242,-7.2140726]},"properties":{"osm_id":6515445766,"nome":null,"ele":899.0,"prominence":null,"wikipedia":null,"wikidata":null}},{"type":"Feature","geometry":{"type":"Point","coordinates":[-37.1363426,-7.2204802]},"properties":{"osm_id":6515445767,"nome":null,"ele":881.0,"prominence":null,"wikipedia":null,"wikidata":null}},{"type":"Feature","geometry":{"type":"Point","coordinates":[-37.1307637,-7.2139024]},"properties":{"osm_id":6515445768,"nome":null,"ele":892.0,"prominence":null,"wikipedia":null,"wikidata":null}},{"type":"Feature","geometry":{"type":"Point","coordinates":[-37.1284677,-7.1808624]},"properties":{"osm_id":6515445769,"nome":null,"ele":910.0,"prominence":null,"wikipedia":null,"wikidata":null}},{"type":"Feature","geometry":{"type":"Point","coordinates":[-37.1323729,-7.1842475]},"properties":{"osm_id":6515445770,"nome":null,"ele":933.0,"prominence":null,"wikipedia":null,"wikidata":null}},{"type":"Feature","geometry":{"type":"Point","coordinates":[-37.1245302,-7.2003525]},"properties":{"osm_id":6515445771,"nome":null,"ele":985.0,"prominence":null,"wikipedia":null,"wikidata":null}},{"type":"Feature","geometry":{"type":"Point","coordinates":[-37.1398295,-7.2016298]},"properties":{"osm_id":6515445772,"nome":null,"ele":977.0,"prominence":null,"wikipedia":null,"wikidata":null}},{"type":"Feature","geometry":{"type":"Point","coordinates":[-37.1109582,-7.1928695]},"properties":{"osm_id":6515445773,"nome":null,"ele":985.0,"prominence":null,"wikipedia":null,"wikidata":null}},{"type":"Feature","geometry":{"type":"Point","coordinates":[-37.1078254,-7.2000651]},"properties":{"osm_id":6515445774,"nome":null,"ele":923.0,"prominence":null,"wikipedia":null,"wikidata":null}},{"type":"Feature","geometry":{"type":"Point","coordinates":[-37.1006585,-7.2033435]},"properties":{"osm_id":6515445775,"nome":null,"ele":885.0,"prominence":null,"wikipedia":null,"wikidata":null}},{"type":"Feature","geometry":{"type":"Point","coordinates":[-37.1150781,-7.2228218]},"properties":{"osm_id":6515445776,"nome":null,"ele":926.0,"prominence":null,"wikipedia":null,"wikidata":null}},{"type":"Feature","geometry":{"type":"Point","coordinates":[-37.0949937,-7.2146049]},"properties":{"osm_id":6515445777,"nome":null,"ele":917.0,"prominence":null,"wikipedia":null,"wikidata":null}},{"type":"Feature","geometry":{"type":"Point","coordinates":[-36.9526006,-7.2182451]},"properties":{"osm_id":6515445779,"nome":null,"ele":763.0,"prominence":null,"wikipedia":null,"wikidata":null}},{"type":"Feature","geometry":{"type":"Point","coordinates":[-36.9806672,-7.2119439]},"properties":{"osm_id":6515445780,"nome":null,"ele":850.0,"prominence":null,"wikipedia":null,"wikidata":null}},{"type":"Feature","geometry":{"type":"Point","coordinates":[-36.9648904,-7.2127475]},"properties":{"osm_id":6515445781,"nome":null,"ele":905.0,"prominence":null,"wikipedia":null,"wikidata":null}},{"type":"Feature","geometry":{"type":"Point","coordinates":[-35.6171608,-7.6727579]},"properties":{"osm_id":6540901514,"nome":null,"ele":711.0,"prominence":null,"wikipedia":null,"wikidata":null}},{"type":"Feature","geometry":{"type":"Point","coordinates":[-35.6675435,-7.5074075]},"properties":{"osm_id":6540901515,"nome":null,"ele":615.0,"prominence":null,"wikipedia":null,"wikidata":null}},{"type":"Feature","geometry":{"type":"Point","coordinates":[-35.8540536,-7.3461229]},"properties":{"osm_id":6540901516,"nome":null,"ele":689.0,"prominence":null,"wikipedia":null,"wikidata":null}},{"type":"Feature","geometry":{"type":"Point","coordinates":[-35.8492471,-7.3483361]},"properties":{"osm_id":6540901517,"nome":null,"ele":701.0,"prominence":null,"wikipedia":null,"wikidata":null}},{"type":"Feature","geometry":{"type":"Point","coordinates":[-35.7941008,-7.3446758]},"properties":{"osm_id":6540901518,"nome":null,"ele":754.0,"prominence":null,"wikipedia":null,"wikidata":null}},{"type":"Feature","geometry":{"type":"Point","coordinates":[-35.7914401,-7.3516561]},"properties":{"osm_id":6540901519,"nome":null,"ele":767.0,"prominence":null,"wikipedia":null,"wikidata":null}},{"type":"Feature","geometry":{"type":"Point","coordinates":[-35.8007527,-7.3487192]},"properties":{"osm_id":6540901520,"nome":null,"ele":794.0,"prominence":null,"wikipedia":null,"wikidata":null}},{"type":"Feature","geometry":{"type":"Point","coordinates":[-35.9443475,-7.0606895]},"properties":{"osm_id":6540901521,"nome":null,"ele":785.0,"prominence":null,"wikipedia":null,"wikidata":null}},{"type":"Feature","geometry":{"type":"Point","coordinates":[-35.9506989,-7.102596]},"properties":{"osm_id":6540901522,"nome":null,"ele":771.0,"prominence":null,"wikipedia":null,"wikidata":null}},{"type":"Feature","geometry":{"type":"Point","coordinates":[-35.9809972,-7.0588155]},"properties":{"osm_id":6540901523,"nome":null,"ele":788.0,"prominence":null,"wikipedia":null,"wikidata":null}},{"type":"Feature","geometry":{"type":"Point","coordinates":[-35.9908677,-7.0846244]},"properties":{"osm_id":6540901524,"nome":null,"ele":790.0,"prominence":null,"wikipedia":null,"wikidata":null}},{"type":"Feature","geometry":{"type":"Point","coordinates":[-35.9662343,-7.0783214]},"properties":{"osm_id":6540901525,"nome":null,"ele":789.0,"prominence":null,"wikipedia":null,"wikidata":null}},{"type":"Feature","geometry":{"type":"Point","coordinates":[-35.9630586,-7.0979967]},"properties":{"osm_id":6540901526,"nome":null,"ele":789.0,"prominence":null,"wikipedia":null,"wikidata":null}},{"type":"Feature","geometry":{"type":"Point","coordinates":[-35.9889794,-7.1206521]},"properties":{"osm_id":6540901527,"nome":null,"ele":772.0,"prominence":null,"wikipedia":null,"wikidata":null}},{"type":"Feature","geometry":{"type":"Point","coordinates":[-35.9924127,-7.188782]},"properties":{"osm_id":6540901528,"nome":null,"ele":719.0,"prominence":null,"wikipedia":null,"wikidata":null}},{"type":"Feature","geometry":{"type":"Point","coordinates":[-35.997305,-7.1414328]},"properties":{"osm_id":6540901529,"nome":null,"ele":773.0,"prominence":null,"wikipedia":null,"wikidata":null}},{"type":"Feature","geometry":{"type":"Point","coordinates":[-35.9091568,-7.0013154]},"properties":{"osm_id":6540901530,"nome":null,"ele":762.0,"prominence":null,"wikipedia":null,"wikidata":null}},{"type":"Feature","geometry":{"type":"Point","coordinates":[-35.9058366,-6.6099691]},"properties":{"osm_id":6540901531,"nome":null,"ele":740.0,"prominence":null,"wikipedia":null,"wikidata":null}},{"type":"Feature","geometry":{"type":"Point","coordinates":[-36.7640305,-7.0411829]},"properties":{"osm_id":6540901532,"nome":null,"ele":844.0,"prominence":null,"wikipedia":null,"wikidata":null}},{"type":"Feature","geometry":{"type":"Point","coordinates":[-36.7444397,-7.029044]},"properties":{"osm_id":6540901533,"nome":null,"ele":876.0,"prominence":null,"wikipedia":null,"wikidata":null}},{"type":"Feature","geometry":{"type":"Point","coordinates":[-36.7999507,-7.040757]},"properties":{"osm_id":6540901534,"nome":null,"ele":830.0,"prominence":null,"wikipedia":null,"wikidata":null}},{"type":"Feature","geometry":{"type":"Point","coordinates":[-36.7892862,-7.040395]},"properties":{"osm_id":6540901535,"nome":null,"ele":888.0,"prominence":null,"wikipedia":null,"wikidata":null}},{"type":"Feature","geometry":{"type":"Point","coordinates":[-36.7829991,-7.0558342]},"properties":{"osm_id":6540901536,"nome":null,"ele":795.0,"prominence":null,"wikipedia":null,"wikidata":null}},{"type":"Feature","geometry":{"type":"Point","coordinates":[-36.8016029,-7.0708471]},"properties":{"osm_id":6540901537,"nome":null,"ele":736.0,"prominence":null,"wikipedia":null,"wikidata":null}},{"type":"Feature","geometry":{"type":"Point","coordinates":[-36.816001,-7.0749143]},"properties":{"osm_id":6540901538,"nome":null,"ele":767.0,"prominence":null,"wikipedia":null,"wikidata":null}},{"type":"Feature","geometry":{"type":"Point","coordinates":[-36.8452263,-7.0831765]},"properties":{"osm_id":6540901540,"nome":null,"ele":749.0,"prominence":null,"wikipedia":null,"wikidata":null}},{"type":"Feature","geometry":{"type":"Point","coordinates":[-36.8941499,-7.0691222]},"properties":{"osm_id":6540901541,"nome":null,"ele":874.0,"prominence":null,"wikipedia":null,"wikidata":null}},{"type":"Feature","geometry":{"type":"Point","coordinates":[-37.0368863,-7.0901607]},"properties":{"osm_id":6540901545,"nome":null,"ele":791.0,"prominence":null,"wikipedia":null,"wikidata":null}},{"type":"Feature","geometry":{"type":"Point","coordinates":[-35.9883357,-7.067802]},"properties":{"osm_id":6540924188,"nome":null,"ele":802.0,"prominence":null,"wikipedia":null,"wikidata":null}},{"type":"Feature","geometry":{"type":"Point","coordinates":[-35.7241595,-7.0863812]},"properties":{"osm_id":6580751559,"nome":"Boa Vista","ele":531.0,"prominence":null,"wikipedia":null,"wikidata":null}},{"type":"Feature","geometry":{"type":"Point","coordinates":[-38.079257,-7.4215383]},"properties":{"osm_id":6873824602,"nome":null,"ele":358.0,"prominence":null,"wikipedia":null,"wikidata":null}},{"type":"Feature","geometry":{"type":"Point","coordinates":[-38.0725193,-7.4048135]},"properties":{"osm_id":6873824603,"nome":null,"ele":416.0,"prominence":null,"wikipedia":null,"wikidata":null}},{"type":"Feature","geometry":{"type":"Point","coordinates":[-38.0728198,-7.4086862]},"properties":{"osm_id":6873824604,"nome":"Serrote João Bastos","ele":416.0,"prominence":null,"wikipedia":null,"wikidata":null}},{"type":"Feature","geometry":{"type":"Point","coordinates":[-38.0849648,-7.3920035]},"properties":{"osm_id":6873824605,"nome":null,"ele":522.0,"prominence":null,"wikipedia":null,"wikidata":null}},{"type":"Feature","geometry":{"type":"Point","coordinates":[-38.0571556,-7.4185168]},"properties":{"osm_id":6873824606,"nome":null,"ele":399.0,"prominence":null,"wikipedia":null,"wikidata":null}},{"type":"Feature","geometry":{"type":"Point","coordinates":[-37.430892,-6.8565008]},"properties":{"osm_id":8165367581,"nome":"Pico da Serra do Tronco","ele":601.0,"prominence":null,"wikipedia":null,"wikidata":null}},{"type":"Feature","geometry":{"type":"Point","coordinates":[-38.6055279,-6.5283581]},"properties":{"osm_id":8165994647,"nome":null,"ele":799.0,"prominence":null,"wikipedia":null,"wikidata":null}},{"type":"Feature","geometry":{"type":"Point","coordinates":[-37.1290685,-7.0040415]},"properties":{"osm_id":8166086435,"nome":"Serrote dos Picotes","ele":null,"prominence":null,"wikipedia":null,"wikidata":null}},{"type":"Feature","geometry":{"type":"Point","coordinates":[-37.3106003,-6.977291]},"properties":{"osm_id":8166086783,"nome":"Serrote Trapiá","ele":null,"prominence":null,"wikipedia":null,"wikidata":null}},{"type":"Feature","geometry":{"type":"Point","coordinates":[-37.2227311,-6.9886005]},"properties":{"osm_id":8169164949,"nome":"Morro do Carioca","ele":null,"prominence":null,"wikipedia":null,"wikidata":null}},{"type":"Feature","geometry":{"type":"Point","coordinates":[-37.2267438,-7.0731256]},"properties":{"osm_id":8169164956,"nome":"Serrote Pedro Agustinho","ele":null,"prominence":null,"wikipedia":null,"wikidata":null}},{"type":"Feature","geometry":{"type":"Point","coordinates":[-37.2496176,-7.0704425]},"properties":{"osm_id":8169164971,"nome":"Serrote Forquilha","ele":null,"prominence":null,"wikipedia":null,"wikidata":null}},{"type":"Feature","geometry":{"type":"Point","coordinates":[-35.4072619,-7.1934018]},"properties":{"osm_id":8176935512,"nome":"Serra do Boqueirão","ele":353.0,"prominence":null,"wikipedia":null,"wikidata":null}},{"type":"Feature","geometry":{"type":"Point","coordinates":[-35.8881068,-6.7642554]},"properties":{"osm_id":8223291398,"nome":"Caxexa","ele":618.0,"prominence":null,"wikipedia":null,"wikidata":null}},{"type":"Feature","geometry":{"type":"Point","coordinates":[-37.1435952,-6.9998246]},"properties":{"osm_id":9115500002,"nome":"Serrote Chato","ele":null,"prominence":null,"wikipedia":null,"wikidata":null}},{"type":"Feature","geometry":{"type":"Point","coordinates":[-36.9305177,-7.1497743]},"properties":{"osm_id":9118042205,"nome":null,"ele":774.0,"prominence":null,"wikipedia":null,"wikidata":null}},{"type":"Feature","geometry":{"type":"Point","coordinates":[-37.2291217,-6.9905102]},"properties":{"osm_id":9384048980,"nome":"Serrote da Pia","ele":null,"prominence":null,"wikipedia":null,"wikidata":null}},{"type":"Feature","geometry":{"type":"Point","coordinates":[-37.2384716,-6.9757983]},"properties":{"osm_id":9384048981,"nome":"Serra da Lagoa","ele":null,"prominence":null,"wikipedia":null,"wikidata":null}},{"type":"Feature","geometry":{"type":"Point","coordinates":[-37.2554404,-7.0747309]},"properties":{"osm_id":9384048982,"nome":"Serrote Farinha dos Gatos","ele":null,"prominence":null,"wikipedia":null,"wikidata":null}},{"type":"Feature","geometry":{"type":"Point","coordinates":[-35.7026815,-7.3381046]},"properties":{"osm_id":10910569307,"nome":null,"ele":607.0,"prominence":null,"wikipedia":null,"wikidata":null}},{"type":"Feature","geometry":{"type":"Point","coordinates":[-37.1958045,-6.9709246]},"properties":{"osm_id":11620089165,"nome":"Serra do Pedro","ele":null,"prominence":null,"wikipedia":null,"wikidata":null}},{"type":"Feature","geometry":{"type":"Point","coordinates":[-35.3825963,-7.4075399]},"properties":{"osm_id":11806328704,"nome":"Serra da Margarida","ele":378.0,"prominence":null,"wikipedia":null,"wikidata":null}},{"type":"Feature","geometry":{"type":"Point","coordinates":[-35.3432332,-7.3969438]},"properties":{"osm_id":11806328705,"nome":"Serra do Cajá","ele":327.0,"prominence":null,"wikipedia":null,"wikidata":null}},{"type":"Feature","geometry":{"type":"Point","coordinates":[-35.9626256,-6.5525124]},"properties":{"osm_id":11994678869,"nome":null,"ele":null,"prominence":null,"wikipedia":null,"wikidata":null}},{"type":"Feature","geometry":{"type":"Point","coordinates":[-35.9733929,-6.519189]},"properties":{"osm_id":11994678870,"nome":"Monte de Nossa Senhora de Fátima","ele":null,"prominence":null,"wikipedia":null,"wikidata":null}},{"type":"Feature","geometry":{"type":"Point","coordinates":[-35.9796238,-6.4923392]},"properties":{"osm_id":12453022236,"nome":null,"ele":541.0,"prominence":null,"wikipedia":null,"wikidata":null}},{"type":"Feature","geometry":{"type":"Point","coordinates":[-35.9847369,-6.4917725]},"properties":{"osm_id":12641100195,"nome":null,"ele":541.0,"prominence":null,"wikipedia":null,"wikidata":null}},{"type":"Feature","geometry":{"type":"Point","coordinates":[-35.9373807,-6.5158729]},"properties":{"osm_id":12641100197,"nome":null,"ele":640.0,"prominence":null,"wikipedia":null,"wikidata":null}},{"type":"Feature","geometry":{"type":"Point","coordinates":[-35.9314012,-6.5239333]},"properties":{"osm_id":12641100198,"nome":null,"ele":625.0,"prominence":null,"wikipedia":null,"wikidata":null}},{"type":"Feature","geometry":{"type":"Point","coordinates":[-35.9437129,-6.5265918]},"properties":{"osm_id":12641100199,"nome":null,"ele":634.0,"prominence":null,"wikipedia":null,"wikidata":null}},{"type":"Feature","geometry":{"type":"Point","coordinates":[-35.9370469,-6.5407897]},"properties":{"osm_id":12641100200,"nome":null,"ele":637.0,"prominence":null,"wikipedia":null,"wikidata":null}},{"type":"Feature","geometry":{"type":"Point","coordinates":[-35.9373533,-6.5556405]},"properties":{"osm_id":12641128701,"nome":null,"ele":653.0,"prominence":null,"wikipedia":null,"wikidata":null}},{"type":"Feature","geometry":{"type":"Point","coordinates":[-35.9555118,-6.562318]},"properties":{"osm_id":12641128702,"nome":null,"ele":526.0,"prominence":null,"wikipedia":null,"wikidata":null}},{"type":"Feature","geometry":{"type":"Point","coordinates":[-35.9965057,-6.5888539]},"properties":{"osm_id":12641128703,"nome":null,"ele":639.0,"prominence":null,"wikipedia":null,"wikidata":null}},{"type":"Feature","geometry":{"type":"Point","coordinates":[-35.9903602,-6.5881036]},"properties":{"osm_id":12641128704,"nome":null,"ele":604.0,"prominence":null,"wikipedia":null,"wikidata":null}},{"type":"Feature","geometry":{"type":"Point","coordinates":[-35.9833564,-6.5869781]},"properties":{"osm_id":12641128705,"nome":null,"ele":606.0,"prominence":null,"wikipedia":null,"wikidata":null}},{"type":"Feature","geometry":{"type":"Point","coordinates":[-35.9769706,-6.5833458]},"properties":{"osm_id":12641128706,"nome":null,"ele":605.0,"prominence":null,"wikipedia":null,"wikidata":null}},{"type":"Feature","geometry":{"type":"Point","coordinates":[-35.9670543,-6.5875797]},"properties":{"osm_id":12641128707,"nome":null,"ele":659.0,"prominence":null,"wikipedia":null,"wikidata":null}},{"type":"Feature","geometry":{"type":"Point","coordinates":[-35.9685821,-6.5935993]},"properties":{"osm_id":12641128708,"nome":null,"ele":657.0,"prominence":null,"wikipedia":null,"wikidata":null}},{"type":"Feature","geometry":{"type":"Point","coordinates":[-35.9496744,-6.5874807]},"properties":{"osm_id":12641128709,"nome":null,"ele":606.0,"prominence":null,"wikipedia":null,"wikidata":null}},{"type":"Feature","geometry":{"type":"Point","coordinates":[-35.9123722,-6.5861425]},"properties":{"osm_id":12641128710,"nome":null,"ele":660.0,"prominence":null,"wikipedia":null,"wikidata":null}},{"type":"Feature","geometry":{"type":"Point","coordinates":[-35.9093853,-6.5968857]},"properties":{"osm_id":12641128711,"nome":null,"ele":655.0,"prominence":null,"wikipedia":null,"wikidata":null}},{"type":"Feature","geometry":{"type":"Point","coordinates":[-35.9140829,-6.5804928]},"properties":{"osm_id":12641128712,"nome":null,"ele":653.0,"prominence":null,"wikipedia":null,"wikidata":null}},{"type":"Feature","geometry":{"type":"Point","coordinates":[-35.8942045,-6.5752471]},"properties":{"osm_id":12641128713,"nome":null,"ele":663.0,"prominence":null,"wikipedia":null,"wikidata":null}},{"type":"Feature","geometry":{"type":"Point","coordinates":[-35.88231,-6.5763619]},"properties":{"osm_id":12641128714,"nome":null,"ele":659.0,"prominence":null,"wikipedia":null,"wikidata":null}},{"type":"Feature","geometry":{"type":"Point","coordinates":[-35.8591365,-6.5943635]},"properties":{"osm_id":12641128715,"nome":null,"ele":668.0,"prominence":null,"wikipedia":null,"wikidata":null}},{"type":"Feature","geometry":{"type":"Point","coordinates":[-35.8612579,-6.5866294]},"properties":{"osm_id":12641128716,"nome":null,"ele":660.0,"prominence":null,"wikipedia":null,"wikidata":null}},{"type":"Feature","geometry":{"type":"Point","coordinates":[-35.865498,-6.5876185]},"properties":{"osm_id":12641128717,"nome":null,"ele":659.0,"prominence":null,"wikipedia":null,"wikidata":null}},{"type":"Feature","geometry":{"type":"Point","coordinates":[-35.9231903,-6.522612]},"properties":{"osm_id":12641128718,"nome":"Serra da Barriguda","ele":560.0,"prominence":null,"wikipedia":null,"wikidata":null}},{"type":"Feature","geometry":{"type":"Point","coordinates":[-35.9203062,-6.5482666]},"properties":{"osm_id":12641128719,"nome":null,"ele":552.0,"prominence":null,"wikipedia":null,"wikidata":null}},{"type":"Feature","geometry":{"type":"Point","coordinates":[-35.9804377,-6.5104225]},"properties":{"osm_id":12641128720,"nome":null,"ele":375.0,"prominence":null,"wikipedia":null,"wikidata":null}},{"type":"Feature","geometry":{"type":"Point","coordinates":[-36.0032655,-6.5714146]},"properties":{"osm_id":12641128721,"nome":null,"ele":536.0,"prominence":null,"wikipedia":null,"wikidata":null}},{"type":"Feature","geometry":{"type":"Point","coordinates":[-36.0250171,-6.5852663]},"properties":{"osm_id":12641128722,"nome":null,"ele":620.0,"prominence":null,"wikipedia":null,"wikidata":null}},{"type":"Feature","geometry":{"type":"Point","coordinates":[-36.0154072,-6.5788004]},"properties":{"osm_id":12641128723,"nome":null,"ele":661.0,"prominence":null,"wikipedia":null,"wikidata":null}},{"type":"Feature","geometry":{"type":"Point","coordinates":[-36.0178496,-6.5671346]},"properties":{"osm_id":12641128724,"nome":null,"ele":590.0,"prominence":null,"wikipedia":null,"wikidata":null}},{"type":"Feature","geometry":{"type":"Point","coordinates":[-36.057252,-6.5872041]},"properties":{"osm_id":12641128725,"nome":null,"ele":535.0,"prominence":null,"wikipedia":null,"wikidata":null}},{"type":"Feature","geometry":{"type":"Point","coordinates":[-36.0785367,-6.5903377]},"properties":{"osm_id":12641128726,"nome":null,"ele":535.0,"prominence":null,"wikipedia":null,"wikidata":null}},{"type":"Feature","geometry":{"type":"Point","coordinates":[-36.0945251,-6.5941446]},"properties":{"osm_id":12641128727,"nome":null,"ele":527.0,"prominence":null,"wikipedia":null,"wikidata":null}},{"type":"Feature","geometry":{"type":"Point","coordinates":[-36.100668,-6.5885875]},"properties":{"osm_id":12641128728,"nome":null,"ele":null,"prominence":null,"wikipedia":null,"wikidata":null}},{"type":"Feature","geometry":{"type":"Point","coordinates":[-36.1007384,-6.6425788]},"properties":{"osm_id":12641201864,"nome":"Serra do Bombocadinho","ele":646.0,"prominence":null,"wikipedia":null,"wikidata":null}},{"type":"Feature","geometry":{"type":"Point","coordinates":[-36.0041189,-6.6134023]},"properties":{"osm_id":12641201865,"nome":null,"ele":634.0,"prominence":null,"wikipedia":null,"wikidata":null}},{"type":"Feature","geometry":{"type":"Point","coordinates":[-36.1296005,-6.6697184]},"properties":{"osm_id":12641201866,"nome":null,"ele":642.0,"prominence":null,"wikipedia":null,"wikidata":null}},{"type":"Feature","geometry":{"type":"Point","coordinates":[-36.1719594,-6.6197863]},"properties":{"osm_id":12641201867,"nome":null,"ele":516.0,"prominence":null,"wikipedia":null,"wikidata":null}},{"type":"Feature","geometry":{"type":"Point","coordinates":[-36.1447025,-6.5657301]},"properties":{"osm_id":12641201868,"nome":null,"ele":570.0,"prominence":null,"wikipedia":null,"wikidata":null}},{"type":"Feature","geometry":{"type":"Point","coordinates":[-36.1238106,-6.5652811]},"properties":{"osm_id":12641201869,"nome":"Novo Sítio","ele":579.0,"prominence":null,"wikipedia":null,"wikidata":null}},{"type":"Feature","geometry":{"type":"Point","coordinates":[-36.1413517,-6.5764051]},"properties":{"osm_id":12641201870,"nome":"Capoeiras","ele":null,"prominence":null,"wikipedia":null,"wikidata":null}},{"type":"Feature","geometry":{"type":"Point","coordinates":[-36.2472574,-6.5746608]},"properties":{"osm_id":12641201871,"nome":null,"ele":657.0,"prominence":null,"wikipedia":null,"wikidata":null}},{"type":"Feature","geometry":{"type":"Point","coordinates":[-36.2096598,-6.5696946]},"properties":{"osm_id":12641201872,"nome":null,"ele":563.0,"prominence":null,"wikipedia":null,"wikidata":null}},{"type":"Feature","geometry":{"type":"Point","coordinates":[-36.2027906,-6.5402287]},"properties":{"osm_id":12641201873,"nome":null,"ele":null,"prominence":null,"wikipedia":null,"wikidata":null}},{"type":"Feature","geometry":{"type":"Point","coordinates":[-36.2175161,-6.5294801]},"properties":{"osm_id":12641201874,"nome":"Boi Morto","ele":570.0,"prominence":null,"wikipedia":null,"wikidata":null}},{"type":"Feature","geometry":{"type":"Point","coordinates":[-36.2582968,-6.5141207]},"properties":{"osm_id":12641201875,"nome":"Serra Quebrada","ele":672.0,"prominence":null,"wikipedia":null,"wikidata":null}},{"type":"Feature","geometry":{"type":"Point","coordinates":[-36.2610059,-6.5020667]},"properties":{"osm_id":12641201876,"nome":"Serra do Gravatá","ele":null,"prominence":null,"wikipedia":null,"wikidata":null}},{"type":"Feature","geometry":{"type":"Point","coordinates":[-36.1909825,-6.4971218]},"properties":{"osm_id":12641201877,"nome":"Monte Alegre","ele":null,"prominence":null,"wikipedia":null,"wikidata":null}},{"type":"Feature","geometry":{"type":"Point","coordinates":[-36.2063415,-6.5031056]},"properties":{"osm_id":12641201878,"nome":null,"ele":611.0,"prominence":null,"wikipedia":null,"wikidata":null}},{"type":"Feature","geometry":{"type":"Point","coordinates":[-36.2191857,-6.4967556]},"properties":{"osm_id":12641201879,"nome":"Saco do Milho","ele":672.0,"prominence":null,"wikipedia":null,"wikidata":null}},{"type":"Feature","geometry":{"type":"Point","coordinates":[-36.2392502,-6.5055321]},"properties":{"osm_id":12641201880,"nome":null,"ele":674.0,"prominence":null,"wikipedia":null,"wikidata":null}},{"type":"Feature","geometry":{"type":"Point","coordinates":[-36.2048067,-6.4892811]},"properties":{"osm_id":12641201881,"nome":null,"ele":670.0,"prominence":null,"wikipedia":null,"wikidata":null}},{"type":"Feature","geometry":{"type":"Point","coordinates":[-36.1672067,-6.512671]},"properties":{"osm_id":12641201882,"nome":"Pau-de-Leite","ele":646.0,"prominence":null,"wikipedia":null,"wikidata":null}},{"type":"Feature","geometry":{"type":"Point","coordinates":[-36.1743229,-6.5152905]},"properties":{"osm_id":12641201883,"nome":"Monte Nossa Senhora da Saúde","ele":null,"prominence":null,"wikipedia":null,"wikidata":null}},{"type":"Feature","geometry":{"type":"Point","coordinates":[-36.1273446,-6.5086827]},"properties":{"osm_id":12641201884,"nome":"Remanso","ele":606.0,"prominence":null,"wikipedia":null,"wikidata":null}},{"type":"Feature","geometry":{"type":"Point","coordinates":[-36.1148759,-6.5149142]},"properties":{"osm_id":12641201885,"nome":null,"ele":549.0,"prominence":null,"wikipedia":null,"wikidata":null}},{"type":"Feature","geometry":{"type":"Point","coordinates":[-36.111687,-6.5454017]},"properties":{"osm_id":12641201886,"nome":null,"ele":540.0,"prominence":null,"wikipedia":null,"wikidata":null}},{"type":"Feature","geometry":{"type":"Point","coordinates":[-36.0951595,-6.5628122]},"properties":{"osm_id":12641201887,"nome":"Grossos","ele":520.0,"prominence":null,"wikipedia":null,"wikidata":null}},{"type":"Feature","geometry":{"type":"Point","coordinates":[-36.0994085,-6.5415731]},"properties":{"osm_id":12641201888,"nome":null,"ele":458.0,"prominence":null,"wikipedia":null,"wikidata":null}},{"type":"Feature","geometry":{"type":"Point","coordinates":[-36.0244848,-6.5344488]},"properties":{"osm_id":12641201889,"nome":"Serra do Negro","ele":555.0,"prominence":null,"wikipedia":null,"wikidata":null}},{"type":"Feature","geometry":{"type":"Point","coordinates":[-36.0697167,-6.5081078]},"properties":{"osm_id":12641201890,"nome":"Cachoeirinha","ele":457.0,"prominence":null,"wikipedia":null,"wikidata":null}},{"type":"Feature","geometry":{"type":"Point","coordinates":[-36.0247028,-6.4779431]},"properties":{"osm_id":12641201893,"nome":null,"ele":507.0,"prominence":null,"wikipedia":null,"wikidata":null}},{"type":"Feature","geometry":{"type":"Point","coordinates":[-36.0587413,-6.4699749]},"properties":{"osm_id":12641201894,"nome":"Serra do Mel","ele":524.0,"prominence":null,"wikipedia":null,"wikidata":null}},{"type":"Feature","geometry":{"type":"Point","coordinates":[-36.0423506,-6.4900715]},"properties":{"osm_id":12641201895,"nome":null,"ele":null,"prominence":null,"wikipedia":null,"wikidata":null}},{"type":"Feature","geometry":{"type":"Point","coordinates":[-36.0532152,-6.4787529]},"properties":{"osm_id":12641201896,"nome":null,"ele":null,"prominence":null,"wikipedia":null,"wikidata":null}},{"type":"Feature","geometry":{"type":"Point","coordinates":[-36.0419138,-6.4789009]},"properties":{"osm_id":12641201897,"nome":null,"ele":null,"prominence":null,"wikipedia":null,"wikidata":null}},{"type":"Feature","geometry":{"type":"Point","coordinates":[-36.0358839,-6.4814561]},"properties":{"osm_id":12641201898,"nome":null,"ele":null,"prominence":null,"wikipedia":null,"wikidata":null}},{"type":"Feature","geometry":{"type":"Point","coordinates":[-36.0280066,-6.4850391]},"properties":{"osm_id":12641201899,"nome":null,"ele":null,"prominence":null,"wikipedia":null,"wikidata":null}},{"type":"Feature","geometry":{"type":"Point","coordinates":[-36.0282739,-6.4511986]},"properties":{"osm_id":12641201900,"nome":"Serra do Barandão","ele":541.0,"prominence":null,"wikipedia":null,"wikidata":null}},{"type":"Feature","geometry":{"type":"Point","coordinates":[-36.0538122,-6.4409011]},"properties":{"osm_id":12641257802,"nome":null,"ele":548.0,"prominence":null,"wikipedia":null,"wikidata":null}},{"type":"Feature","geometry":{"type":"Point","coordinates":[-36.0730671,-6.4536803]},"properties":{"osm_id":12641257812,"nome":null,"ele":560.0,"prominence":null,"wikipedia":null,"wikidata":null}},{"type":"Feature","geometry":{"type":"Point","coordinates":[-36.0842937,-6.4508147]},"properties":{"osm_id":12641257813,"nome":null,"ele":554.0,"prominence":null,"wikipedia":null,"wikidata":null}},{"type":"Feature","geometry":{"type":"Point","coordinates":[-36.0982294,-6.440232]},"properties":{"osm_id":12641257814,"nome":null,"ele":514.0,"prominence":null,"wikipedia":null,"wikidata":null}},{"type":"Feature","geometry":{"type":"Point","coordinates":[-36.1118078,-6.4539804]},"properties":{"osm_id":12641257815,"nome":"Gama","ele":559.0,"prominence":null,"wikipedia":null,"wikidata":null}},{"type":"Feature","geometry":{"type":"Point","coordinates":[-36.1156392,-6.4694503]},"properties":{"osm_id":12641257816,"nome":null,"ele":540.0,"prominence":null,"wikipedia":null,"wikidata":null}},{"type":"Feature","geometry":{"type":"Point","coordinates":[-36.1292447,-6.4339299]},"properties":{"osm_id":12641257817,"nome":null,"ele":546.0,"prominence":null,"wikipedia":null,"wikidata":null}},{"type":"Feature","geometry":{"type":"Point","coordinates":[-36.1533438,-6.4505147]},"properties":{"osm_id":12641257818,"nome":"Monte de São Manoel da Paciência","ele":null,"prominence":null,"wikipedia":null,"wikidata":null}},{"type":"Feature","geometry":{"type":"Point","coordinates":[-36.1544555,-6.4583568]},"properties":{"osm_id":12641257819,"nome":"Serra do Cuité","ele":668.0,"prominence":null,"wikipedia":null,"wikidata":null}},{"type":"Feature","geometry":{"type":"Point","coordinates":[-36.0029065,-6.534195]},"properties":{"osm_id":12641257850,"nome":null,"ele":425.0,"prominence":null,"wikipedia":null,"wikidata":null}},{"type":"Feature","geometry":{"type":"Point","coordinates":[-35.9086869,-6.4957934]},"properties":{"osm_id":12641257858,"nome":"Belo Monte","ele":483.0,"prominence":null,"wikipedia":null,"wikidata":null}},{"type":"Feature","geometry":{"type":"Point","coordinates":[-38.5380683,-7.0539042]},"properties":{"osm_id":12840444787,"nome":null,"ele":460.0,"prominence":null,"wikipedia":null,"wikidata":null}},{"type":"Feature","geometry":{"type":"Point","coordinates":[-38.5615397,-7.0922476]},"properties":{"osm_id":12881255272,"nome":null,"ele":460.0,"prominence":null,"wikipedia":null,"wikidata":null}},{"type":"Feature","geometry":{"type":"Point","coordinates":[-38.6344206,-7.0907144]},"properties":{"osm_id":12881255274,"nome":null,"ele":500.0,"prominence":null,"wikipedia":null,"wikidata":null}},{"type":"Feature","geometry":{"type":"Point","coordinates":[-38.6311484,-7.1064714]},"properties":{"osm_id":12881255275,"nome":null,"ele":450.0,"prominence":null,"wikipedia":null,"wikidata":null}},{"type":"Feature","geometry":{"type":"Point","coordinates":[-38.5728693,-7.1335445]},"properties":{"osm_id":12881255279,"nome":"Alto do Carcará","ele":465.0,"prominence":null,"wikipedia":null,"wikidata":null}},{"type":"Feature","geometry":{"type":"Point","coordinates":[-38.5451353,-7.1074083]},"properties":{"osm_id":12881255280,"nome":null,"ele":450.0,"prominence":null,"wikipedia":null,"wikidata":null}},{"type":"Feature","geometry":{"type":"Point","coordinates":[-38.565284,-7.1089307]},"properties":{"osm_id":12881255281,"nome":null,"ele":440.0,"prominence":null,"wikipedia":null,"wikidata":null}},{"type":"Feature","geometry":{"type":"Point","coordinates":[-38.6069441,-7.0846617]},"properties":{"osm_id":12881255282,"nome":null,"ele":600.0,"prominence":null,"wikipedia":null,"wikidata":null}},{"type":"Feature","geometry":{"type":"Point","coordinates":[-38.401047,-7.0653212]},"properties":{"osm_id":12881567152,"nome":null,"ele":440.0,"prominence":null,"wikipedia":null,"wikidata":null}},{"type":"Feature","geometry":{"type":"Point","coordinates":[-38.3954787,-7.0705916]},"properties":{"osm_id":12881567153,"nome":null,"ele":470.0,"prominence":null,"wikipedia":null,"wikidata":null}},{"type":"Feature","geometry":{"type":"Point","coordinates":[-38.3822072,-7.0664498]},"properties":{"osm_id":12881567154,"nome":null,"ele":540.0,"prominence":null,"wikipedia":null,"wikidata":null}},{"type":"Feature","geometry":{"type":"Point","coordinates":[-38.3710599,-7.0669609]},"properties":{"osm_id":12881567160,"nome":null,"ele":520.0,"prominence":null,"wikipedia":null,"wikidata":null}},{"type":"Feature","geometry":{"type":"Point","coordinates":[-38.3874858,-7.0748398]},"properties":{"osm_id":12881567161,"nome":null,"ele":505.0,"prominence":null,"wikipedia":null,"wikidata":null}},{"type":"Feature","geometry":{"type":"Point","coordinates":[-38.3414161,-7.0034239]},"properties":{"osm_id":12881567162,"nome":null,"ele":510.0,"prominence":null,"wikipedia":null,"wikidata":null}},{"type":"Feature","geometry":{"type":"Point","coordinates":[-38.3513001,-7.0113652]},"properties":{"osm_id":12881567163,"nome":null,"ele":530.0,"prominence":null,"wikipedia":null,"wikidata":null}},{"type":"Feature","geometry":{"type":"Point","coordinates":[-38.3635444,-7.0312377]},"properties":{"osm_id":12881567164,"nome":null,"ele":500.0,"prominence":null,"wikipedia":null,"wikidata":null}},{"type":"Feature","geometry":{"type":"Point","coordinates":[-38.35531,-7.0311099]},"properties":{"osm_id":12881567170,"nome":null,"ele":590.0,"prominence":null,"wikipedia":null,"wikidata":null}},{"type":"Feature","geometry":{"type":"Point","coordinates":[-38.3621496,-7.0016163]},"properties":{"osm_id":12881567171,"nome":null,"ele":520.0,"prominence":null,"wikipedia":null,"wikidata":null}},{"type":"Feature","geometry":{"type":"Point","coordinates":[-38.382175,-7.0080667]},"properties":{"osm_id":12881567177,"nome":null,"ele":460.0,"prominence":null,"wikipedia":null,"wikidata":null}},{"type":"Feature","geometry":{"type":"Point","coordinates":[-38.3878881,-7.0011877]},"properties":{"osm_id":12881567185,"nome":null,"ele":510.0,"prominence":null,"wikipedia":null,"wikidata":null}},{"type":"Feature","geometry":{"type":"Point","coordinates":[-38.3751583,-7.0323132]},"properties":{"osm_id":12881567186,"nome":null,"ele":515.0,"prominence":null,"wikipedia":null,"wikidata":null}},{"type":"Feature","geometry":{"type":"Point","coordinates":[-38.3901143,-7.0320842]},"properties":{"osm_id":12881567187,"nome":null,"ele":540.0,"prominence":null,"wikipedia":null,"wikidata":null}},{"type":"Feature","geometry":{"type":"Point","coordinates":[-38.4015942,-7.0299067]},"properties":{"osm_id":12881567188,"nome":null,"ele":528.0,"prominence":null,"wikipedia":null,"wikidata":null}},{"type":"Feature","geometry":{"type":"Point","coordinates":[-38.4141737,-7.0288259]},"properties":{"osm_id":12881567189,"nome":null,"ele":555.0,"prominence":null,"wikipedia":null,"wikidata":null}},{"type":"Feature","geometry":{"type":"Point","coordinates":[-38.4462905,-7.0344747]},"properties":{"osm_id":12881567190,"nome":null,"ele":440.0,"prominence":null,"wikipedia":null,"wikidata":null}},{"type":"Feature","geometry":{"type":"Point","coordinates":[-38.5160333,-7.0131941]},"properties":{"osm_id":12881567191,"nome":null,"ele":460.0,"prominence":null,"wikipedia":null,"wikidata":null}},{"type":"Feature","geometry":{"type":"Point","coordinates":[-38.5094056,-7.0296139]},"properties":{"osm_id":12881567195,"nome":null,"ele":410.0,"prominence":null,"wikipedia":null,"wikidata":null}},{"type":"Feature","geometry":{"type":"Point","coordinates":[-38.5139331,-7.023358]},"properties":{"osm_id":12881567204,"nome":null,"ele":455.0,"prominence":null,"wikipedia":null,"wikidata":null}},{"type":"Feature","geometry":{"type":"Point","coordinates":[-38.5471416,-7.0318553]},"properties":{"osm_id":12881567212,"nome":null,"ele":520.0,"prominence":null,"wikipedia":null,"wikidata":null}},{"type":"Feature","geometry":{"type":"Point","coordinates":[-38.5260809,-7.0577881]},"properties":{"osm_id":12881567213,"nome":null,"ele":430.0,"prominence":null,"wikipedia":null,"wikidata":null}},{"type":"Feature","geometry":{"type":"Point","coordinates":[-38.572408,-7.0755851]},"properties":{"osm_id":12881567214,"nome":null,"ele":480.0,"prominence":null,"wikipedia":null,"wikidata":null}},{"type":"Feature","geometry":{"type":"Point","coordinates":[-38.5629344,-7.0770438]},"properties":{"osm_id":12881567215,"nome":null,"ele":480.0,"prominence":null,"wikipedia":null,"wikidata":null}},{"type":"Feature","geometry":{"type":"Point","coordinates":[-38.6024809,-7.1079726]},"properties":{"osm_id":12881567220,"nome":null,"ele":455.0,"prominence":null,"wikipedia":null,"wikidata":null}},{"type":"Feature","geometry":{"type":"Point","coordinates":[-38.6174154,-7.1311278]},"properties":{"osm_id":12881567223,"nome":null,"ele":450.0,"prominence":null,"wikipedia":null,"wikidata":null}},{"type":"Feature","geometry":{"type":"Point","coordinates":[-38.4123498,-7.0637294]},"properties":{"osm_id":12881567224,"nome":null,"ele":450.0,"prominence":null,"wikipedia":null,"wikidata":null}},{"type":"Feature","geometry":{"type":"Point","coordinates":[-38.4691429,-7.0679191]},"properties":{"osm_id":12881567225,"nome":null,"ele":490.0,"prominence":null,"wikipedia":null,"wikidata":null}},{"type":"Feature","geometry":{"type":"Point","coordinates":[-38.3590436,-7.0971876]},"properties":{"osm_id":12881567226,"nome":null,"ele":535.0,"prominence":null,"wikipedia":null,"wikidata":null}},{"type":"Feature","geometry":{"type":"Point","coordinates":[-38.433255,-7.0933974]},"properties":{"osm_id":12881567227,"nome":null,"ele":450.0,"prominence":null,"wikipedia":null,"wikidata":null}},{"type":"Feature","geometry":{"type":"Point","coordinates":[-38.4343064,-7.0980713]},"properties":{"osm_id":12881567228,"nome":null,"ele":490.0,"prominence":null,"wikipedia":null,"wikidata":null}},{"type":"Feature","geometry":{"type":"Point","coordinates":[-38.4552974,-7.0951648]},"properties":{"osm_id":12881567229,"nome":null,"ele":450.0,"prominence":null,"wikipedia":null,"wikidata":null}},{"type":"Feature","geometry":{"type":"Point","coordinates":[-38.4493268,-7.0967085]},"properties":{"osm_id":12881567230,"nome":null,"ele":500.0,"prominence":null,"wikipedia":null,"wikidata":null}},{"type":"Feature","geometry":{"type":"Point","coordinates":[-38.4590417,-7.1085475]},"properties":{"osm_id":12881567232,"nome":null,"ele":530.0,"prominence":null,"wikipedia":null,"wikidata":null}},{"type":"Feature","geometry":{"type":"Point","coordinates":[-38.4544444,-7.1103041]},"properties":{"osm_id":12881567233,"nome":null,"ele":510.0,"prominence":null,"wikipedia":null,"wikidata":null}},{"type":"Feature","geometry":{"type":"Point","coordinates":[-38.4478998,-7.1065353]},"properties":{"osm_id":12881567234,"nome":null,"ele":510.0,"prominence":null,"wikipedia":null,"wikidata":null}},{"type":"Feature","geometry":{"type":"Point","coordinates":[-38.4338236,-7.103911]},"properties":{"osm_id":12881567235,"nome":null,"ele":510.0,"prominence":null,"wikipedia":null,"wikidata":null}},{"type":"Feature","geometry":{"type":"Point","coordinates":[-38.4260774,-7.1072486]},"properties":{"osm_id":12881567236,"nome":null,"ele":510.0,"prominence":null,"wikipedia":null,"wikidata":null}},{"type":"Feature","geometry":{"type":"Point","coordinates":[-38.4041584,-7.1078501]},"properties":{"osm_id":12881567237,"nome":null,"ele":560.0,"prominence":null,"wikipedia":null,"wikidata":null}},{"type":"Feature","geometry":{"type":"Point","coordinates":[-38.4804276,-7.2106984]},"properties":{"osm_id":12884176652,"nome":null,"ele":660.0,"prominence":null,"wikipedia":null,"wikidata":null}},{"type":"Feature","geometry":{"type":"Point","coordinates":[-38.5291157,-6.8250774]},"properties":{"osm_id":12973646040,"nome":null,"ele":530.0,"prominence":null,"wikipedia":null,"wikidata":null}},{"type":"Feature","geometry":{"type":"Point","coordinates":[-37.3862486,-7.252087]},"properties":{"osm_id":13310695072,"nome":"Pico do Jabre","ele":1208.0,"prominence":567.0,"wikipedia":"pt:Pico do Jabre","wikidata":"Q2154955"}},{"type":"Feature","geometry":{"type":"Point","coordinates":[-37.3778405,-7.2496906]},"properties":{"osm_id":13310695073,"nome":"Pico do Jabre","ele":1208.0,"prominence":567.0,"wikipedia":"pt:Pico do Jabre","wikidata":"Q2154955"}},{"type":"Feature","geometry":{"type":"Point","coordinates":[-37.3680335,-7.3290161]},"properties":{"osm_id":13345963079,"nome":null,"ele":830.0,"prominence":null,"wikipedia":null,"wikidata":null}},{"type":"Feature","geometry":{"type":"Point","coordinates":[-37.3608239,-7.2845832]},"properties":{"osm_id":13345963080,"nome":null,"ele":800.0,"prominence":null,"wikipedia":null,"wikidata":null}},{"type":"Feature","geometry":{"type":"Point","coordinates":[-37.3533051,-7.2876717]},"properties":{"osm_id":13345963081,"nome":null,"ele":800.0,"prominence":null,"wikipedia":null,"wikidata":null}},{"type":"Feature","geometry":{"type":"Point","coordinates":[-37.3543591,-7.2727219]},"properties":{"osm_id":13345963082,"nome":null,"ele":800.0,"prominence":null,"wikipedia":null,"wikidata":null}},{"type":"Feature","geometry":{"type":"Point","coordinates":[-37.3688148,-7.2713757]},"properties":{"osm_id":13345963083,"nome":null,"ele":150.0,"prominence":null,"wikipedia":null,"wikidata":null}},{"type":"Feature","geometry":{"type":"Point","coordinates":[-37.3624593,-7.3205756]},"properties":{"osm_id":13345963084,"nome":null,"ele":836.0,"prominence":null,"wikipedia":null,"wikidata":null}},{"type":"Feature","geometry":{"type":"Point","coordinates":[-37.3710915,-7.3131322]},"properties":{"osm_id":13345963085,"nome":null,"ele":836.0,"prominence":null,"wikipedia":null,"wikidata":null}},{"type":"Feature","geometry":{"type":"Point","coordinates":[-37.3147185,-7.2492951]},"properties":{"osm_id":13346821461,"nome":null,"ele":800.0,"prominence":null,"wikipedia":null,"wikidata":null}},{"type":"Feature","geometry":{"type":"Point","coordinates":[-37.4050263,-7.2853932]},"properties":{"osm_id":13351895579,"nome":null,"ele":736.0,"prominence":null,"wikipedia":null,"wikidata":null}},{"type":"Feature","geometry":{"type":"Point","coordinates":[-37.398629,-7.3141105]},"properties":{"osm_id":13351895580,"nome":null,"ele":800.0,"prominence":null,"wikipedia":null,"wikidata":null}},{"type":"Feature","geometry":{"type":"Point","coordinates":[-38.5987731,-6.5453472]},"properties":{"osm_id":13442704018,"nome":"Serra João Peva","ele":null,"prominence":null,"wikipedia":null,"wikidata":null}},{"type":"Feature","geometry":{"type":"Point","coordinates":[-37.3417914,-7.2303109]},"properties":{"osm_id":13512770336,"nome":null,"ele":916.0,"prominence":null,"wikipedia":null,"wikidata":null}},{"type":"Feature","geometry":{"type":"Point","coordinates":[-37.3252589,-7.2270665]},"properties":{"osm_id":13512770337,"nome":null,"ele":800.0,"prominence":null,"wikipedia":null,"wikidata":null}},{"type":"Feature","geometry":{"type":"Point","coordinates":[-37.3481255,-7.2678659]},"properties":{"osm_id":13529731107,"nome":null,"ele":700.0,"prominence":null,"wikipedia":null,"wikidata":null}},{"type":"Feature","geometry":{"type":"Point","coordinates":[-37.3511618,-7.2701014]},"properties":{"osm_id":13529731108,"nome":null,"ele":100.0,"prominence":null,"wikipedia":null,"wikidata":null}},{"type":"Feature","geometry":{"type":"Point","coordinates":[-37.7468866,-7.022343]},"properties":{"osm_id":13532053472,"nome":null,"ele":680.0,"prominence":null,"wikipedia":null,"wikidata":null}},{"type":"Feature","geometry":{"type":"Point","coordinates":[-37.3537391,-7.2346189]},"properties":{"osm_id":13593522517,"nome":null,"ele":800.0,"prominence":null,"wikipedia":null,"wikidata":null}},{"type":"Feature","geometry":{"type":"Point","coordinates":[-35.8246982,-6.6531496]},"properties":{"osm_id":13752750065,"nome":null,"ele":null,"prominence":null,"wikipedia":null,"wikidata":null}},{"type":"Feature","geometry":{"type":"Point","coordinates":[-35.7691005,-6.6261155]},"properties":{"osm_id":13755695151,"nome":null,"ele":null,"prominence":null,"wikipedia":null,"wikidata":null}},{"type":"Feature","geometry":{"type":"Point","coordinates":[-35.6861072,-6.4604512]},"properties":{"osm_id":13755695208,"nome":null,"ele":null,"prominence":null,"wikipedia":null,"wikidata":null}}]}