{"type":"FeatureCollection","features":[{"type":"Feature","properties":{"id":20,"nome":"Agua Branca","codigo":3854072,"altitude_m":710.0,"chuva_mm":null,"data_chuva":null},"geometry":{"type":"Point","coordinates":[-37.65,-7.51667]}},{"type":"Feature","properties":{"id":103,"nome":"Aguiar","codigo":3843166,"altitude_m":280.0,"chuva_mm":null,"data_chuva":null},"geometry":{"type":"Point","coordinates":[-38.18333,-7.08333]}},{"type":"Feature","properties":{"id":152,"nome":"Alagoa Grande","codigo":3848174,"altitude_m":180.0,"chuva_mm":null,"data_chuva":null},"geometry":{"type":"Point","coordinates":[-35.63333,-7.05]}},{"type":"Feature","properties":{"id":151,"nome":"Alagoa Nova","codigo":3848145,"altitude_m":500.0,"chuva_mm":null,"data_chuva":null},"geometry":{"type":"Point","coordinates":[-35.78333,-7.06667]}},{"type":"Feature","properties":{"id":42,"nome":"Algodao","codigo":3837796,"altitude_m":470.0,"chuva_mm":null,"data_chuva":null},"geometry":{"type":"Point","coordinates":[-36.03333,-6.88333]}},{"type":"Feature","properties":{"id":32,"nome":"Alhandra","codigo":3940819,"altitude_m":49.0,"chuva_mm":null,"data_chuva":null},"geometry":{"type":"Point","coordinates":[-34.91667,-7.43333]}},{"type":"Feature","properties":{"id":11,"nome":"Antenor Navarro","codigo":3833413,"altitude_m":240.0,"chuva_mm":null,"data_chuva":null},"geometry":{"type":"Point","coordinates":[-38.45,-6.73333]}},{"type":"Feature","properties":{"id":37,"nome":"Aparecida","codigo":3833588,"altitude_m":170.0,"chuva_mm":null,"data_chuva":null},"geometry":{"type":"Point","coordinates":[-38.06667,-6.76667]}},{"type":"Feature","properties":{"id":99,"nome":"Aracagi","codigo":3839727,"altitude_m":170.0,"chuva_mm":null,"data_chuva":null},"geometry":{"type":"Point","coordinates":[-35.36667,-6.85]}},{"type":"Feature","properties":{"id":100,"nome":"Arapua, St","codigo":3842185,"altitude_m":500.0,"chuva_mm":null,"data_chuva":null},"geometry":{"type":"Point","coordinates":[-38.58333,-7.06667]}},{"type":"Feature","properties":{"id":4,"nome":"Araruna","codigo":3838055,"altitude_m":580.0,"chuva_mm":null,"data_chuva":null},"geometry":{"type":"Point","coordinates":[-35.73333,-6.51667]}},{"type":"Feature","properties":{"id":7,"nome":"Areia","codigo":3838962,"altitude_m":445.0,"chuva_mm":null,"data_chuva":null},"geometry":{"type":"Point","coordinates":[-35.7,-6.96667]}},{"type":"Feature","properties":{"id":87,"nome":"Areia I","codigo":3838965,"altitude_m":445.0,"chuva_mm":null,"data_chuva":null},"geometry":{"type":"Point","coordinates":[-35.68333,-6.96667]}},{"type":"Feature","properties":{"id":74,"nome":"Areia Ii","codigo":3838966,"altitude_m":445.0,"chuva_mm":null,"data_chuva":null},"geometry":{"type":"Point","coordinates":[-35.68333,-6.98333]}},{"type":"Feature","properties":{"id":65,"nome":"Aroeiras","codigo":3858065,"altitude_m":340.0,"chuva_mm":null,"data_chuva":null},"geometry":{"type":"Point","coordinates":[-35.68333,-7.51667]}},{"type":"Feature","properties":{"id":57,"nome":"Balancas","codigo":3832956,"altitude_m":400.0,"chuva_mm":null,"data_chuva":null},"geometry":{"type":"Point","coordinates":[-38.73333,-6.98333]}},{"type":"Feature","properties":{"id":67,"nome":"Bananeiras","codigo":3856008,"altitude_m":700.0,"chuva_mm":null,"data_chuva":null},"geometry":{"type":"Point","coordinates":[-36.96667,-7.51667]}},{"type":"Feature","properties":{"id":18,"nome":"Bananeiras","codigo":3838575,"altitude_m":552.0,"chuva_mm":null,"data_chuva":null},"geometry":{"type":"Point","coordinates":[-35.63333,-6.76667]}},{"type":"Feature","properties":{"id":50,"nome":"Barra De S. Miguel","codigo":3857534,"altitude_m":520.0,"chuva_mm":null,"data_chuva":null},"geometry":{"type":"Point","coordinates":[-36.33333,-7.75]}},{"type":"Feature","properties":{"id":19,"nome":"Barra De Sta. Rosa","codigo":3837488,"altitude_m":440.0,"chuva_mm":null,"data_chuva":null},"geometry":{"type":"Point","coordinates":[-36.06667,-6.71667]}},{"type":"Feature","properties":{"id":23,"nome":"Barra Do Jua","codigo":3832089,"altitude_m":500.0,"chuva_mm":null,"data_chuva":null},"geometry":{"type":"Point","coordinates":[-38.56667,-6.53333]}},{"type":"Feature","properties":{"id":148,"nome":"Boa Vista","codigo":3847555,"altitude_m":490.0,"chuva_mm":null,"data_chuva":null},"geometry":{"type":"Point","coordinates":[-36.23333,-7.26667]}},{"type":"Feature","properties":{"id":72,"nome":"Bodocongo","codigo":3858003,"altitude_m":350.0,"chuva_mm":null,"data_chuva":null},"geometry":{"type":"Point","coordinates":[-36.0,-7.53333]}},{"type":"Feature","properties":{"id":25,"nome":"Bodocongo","codigo":3858006,"altitude_m":350.0,"chuva_mm":null,"data_chuva":null},"geometry":{"type":"Point","coordinates":[-35.98333,-7.53333]}},{"type":"Feature","properties":{"id":107,"nome":"Bom Jesus","codigo":3843727,"altitude_m":470.0,"chuva_mm":null,"data_chuva":null},"geometry":{"type":"Point","coordinates":[-38.36667,-7.35]}},{"type":"Feature","properties":{"id":81,"nome":"Bom Sucesso","codigo":3824914,"altitude_m":0.0,"chuva_mm":null,"data_chuva":null},"geometry":{"type":"Point","coordinates":[-37.91667,-6.43333]}},{"type":"Feature","properties":{"id":101,"nome":"Bonito De Santa Fe","codigo":3842698,"altitude_m":575.0,"chuva_mm":null,"data_chuva":null},"geometry":{"type":"Point","coordinates":[-38.51667,-7.31667]}},{"type":"Feature","properties":{"id":150,"nome":"Boqueirao              Ac","codigo":3847979,"altitude_m":380.0,"chuva_mm":null,"data_chuva":null},"geometry":{"type":"Point","coordinates":[-36.11667,-7.48333]}},{"type":"Feature","properties":{"id":12,"nome":"Brejo Do Cruz","codigo":3825701,"altitude_m":190.0,"chuva_mm":null,"data_chuva":null},"geometry":{"type":"Point","coordinates":[-37.5,-6.35]}},{"type":"Feature","properties":{"id":17,"nome":"Cabaceiras","codigo":3857044,"altitude_m":390.0,"chuva_mm":null,"data_chuva":null},"geometry":{"type":"Point","coordinates":[-36.28333,-7.5]}},{"type":"Feature","properties":{"id":49,"nome":"Cacimba De Dentro","codigo":3838246,"altitude_m":460.0,"chuva_mm":null,"data_chuva":null},"geometry":{"type":"Point","coordinates":[-35.78333,-6.63333]}},{"type":"Feature","properties":{"id":46,"nome":"Caicara","codigo":3839208,"altitude_m":185.0,"chuva_mm":null,"data_chuva":null},"geometry":{"type":"Point","coordinates":[-35.46667,-6.61667]}},{"type":"Feature","properties":{"id":9,"nome":"Cajazeiras","codigo":3832789,"altitude_m":291.0,"chuva_mm":null,"data_chuva":null},"geometry":{"type":"Point","coordinates":[-38.56667,-6.88333]}},{"type":"Feature","properties":{"id":56,"nome":"Cajazeirinhas","codigo":3834945,"altitude_m":400.0,"chuva_mm":null,"data_chuva":null},"geometry":{"type":"Point","coordinates":[-37.78333,-6.96667]}},{"type":"Feature","properties":{"id":175,"nome":"Caldas Brand?O","codigo":3849232,"altitude_m":146.0,"chuva_mm":null,"data_chuva":null},"geometry":{"type":"Point","coordinates":[-35.35,-7.11667]}},{"type":"Feature","properties":{"id":51,"nome":"Camalau","codigo":3856828,"altitude_m":565.0,"chuva_mm":null,"data_chuva":null},"geometry":{"type":"Point","coordinates":[-36.86667,-7.91667]}},{"type":"Feature","properties":{"id":171,"nome":"Campina Grande","codigo":3848431,"altitude_m":508.0,"chuva_mm":null,"data_chuva":null},"geometry":{"type":"Point","coordinates":[-35.85,-7.2]}},{"type":"Feature","properties":{"id":169,"nome":"Campina Grande","codigo":3848428,"altitude_m":508.0,"chuva_mm":null,"data_chuva":null},"geometry":{"type":"Point","coordinates":[-35.86667,-7.21667]}},{"type":"Feature","properties":{"id":170,"nome":"Campina Grande","codigo":3848429,"altitude_m":508.0,"chuva_mm":null,"data_chuva":null},"geometry":{"type":"Point","coordinates":[-35.86667,-7.23333]}},{"type":"Feature","properties":{"id":22,"nome":"Caraubas","codigo":3856498,"altitude_m":460.0,"chuva_mm":null,"data_chuva":null},"geometry":{"type":"Point","coordinates":[-36.51667,-7.71667]}},{"type":"Feature","properties":{"id":113,"nome":"Catingueira","codigo":3844279,"altitude_m":290.0,"chuva_mm":null,"data_chuva":null},"geometry":{"type":"Point","coordinates":[-37.61667,-7.13333]}},{"type":"Feature","properties":{"id":149,"nome":"Catole","codigo":3847698,"altitude_m":470.0,"chuva_mm":null,"data_chuva":null},"geometry":{"type":"Point","coordinates":[-36.01667,-7.31667]}},{"type":"Feature","properties":{"id":24,"nome":"Catole Do Rocha","codigo":3824751,"altitude_m":250.0,"chuva_mm":null,"data_chuva":null},"geometry":{"type":"Point","coordinates":[-37.75,-6.35]}},{"type":"Feature","properties":{"id":14,"nome":"Conceicao","codigo":3852197,"altitude_m":370.0,"chuva_mm":null,"data_chuva":null},"geometry":{"type":"Point","coordinates":[-38.51667,-7.55]}},{"type":"Feature","properties":{"id":34,"nome":"Condado","codigo":3834877,"altitude_m":260.0,"chuva_mm":null,"data_chuva":null},"geometry":{"type":"Point","coordinates":[-37.61667,-6.9]}},{"type":"Feature","properties":{"id":43,"nome":"Congo","codigo":3856667,"altitude_m":500.0,"chuva_mm":null,"data_chuva":null},"geometry":{"type":"Point","coordinates":[-36.66667,-7.8]}},{"type":"Feature","properties":{"id":112,"nome":"Coremas, Ac","codigo":3844008,"altitude_m":220.0,"chuva_mm":null,"data_chuva":null},"geometry":{"type":"Point","coordinates":[-37.96667,-7.01667]}},{"type":"Feature","properties":{"id":111,"nome":"Coremas, C.Ex.","codigo":3844007,"altitude_m":220.0,"chuva_mm":null,"data_chuva":null},"geometry":{"type":"Point","coordinates":[-37.96667,-7.0]}},{"type":"Feature","properties":{"id":66,"nome":"Coxixola","codigo":3856278,"altitude_m":465.0,"chuva_mm":null,"data_chuva":null},"geometry":{"type":"Point","coordinates":[-36.61667,-7.61667]}},{"type":"Feature","properties":{"id":177,"nome":"Cruz Do Espirito Santo","codigo":3849384,"altitude_m":20.0,"chuva_mm":null,"data_chuva":null},"geometry":{"type":"Point","coordinates":[-35.08333,-7.15]}},{"type":"Feature","properties":{"id":63,"nome":"Cuite","codigo":3827973,"altitude_m":620.0,"chuva_mm":null,"data_chuva":null},"geometry":{"type":"Point","coordinates":[-36.15,-6.48333]}},{"type":"Feature","properties":{"id":124,"nome":"Desterro","codigo":3845583,"altitude_m":590.0,"chuva_mm":null,"data_chuva":null},"geometry":{"type":"Point","coordinates":[-37.1,-7.28333]}},{"type":"Feature","properties":{"id":47,"nome":"Desterro De Malta","codigo":3834389,"altitude_m":195.0,"chuva_mm":null,"data_chuva":null},"geometry":{"type":"Point","coordinates":[-37.56667,-6.68333]}},{"type":"Feature","properties":{"id":28,"nome":"Engenheiro Avidos      Ac","codigo":3833908,"altitude_m":250.0,"chuva_mm":null,"data_chuva":null},"geometry":{"type":"Point","coordinates":[-38.46667,-6.96667]}},{"type":"Feature","properties":{"id":173,"nome":"Fagundes","codigo":3848741,"altitude_m":520.0,"chuva_mm":null,"data_chuva":null},"geometry":{"type":"Point","coordinates":[-35.8,-7.35]}},{"type":"Feature","properties":{"id":116,"nome":"Garrotes","codigo":3844703,"altitude_m":305.0,"chuva_mm":null,"data_chuva":null},"geometry":{"type":"Point","coordinates":[-38.0,-7.38333]}},{"type":"Feature","properties":{"id":98,"nome":"Guarabira","codigo":3839704,"altitude_m":89.0,"chuva_mm":null,"data_chuva":null},"geometry":{"type":"Point","coordinates":[-35.48333,-6.85]}},{"type":"Feature","properties":{"id":147,"nome":"Gurjao","codigo":3847505,"altitude_m":480.0,"chuva_mm":null,"data_chuva":null},"geometry":{"type":"Point","coordinates":[-36.48333,-7.26667]}},{"type":"Feature","properties":{"id":109,"nome":"Ibiara","codigo":3843919,"altitude_m":330.0,"chuva_mm":null,"data_chuva":null},"geometry":{"type":"Point","coordinates":[-38.41667,-7.48333]}},{"type":"Feature","properties":{"id":126,"nome":"Imaculada","codigo":3845704,"altitude_m":750.0,"chuva_mm":null,"data_chuva":null},"geometry":{"type":"Point","coordinates":[-37.5,-7.38333]}},{"type":"Feature","properties":{"id":129,"nome":"Imaculada","codigo":3845707,"altitude_m":750.0,"chuva_mm":null,"data_chuva":null},"geometry":{"type":"Point","coordinates":[-37.5,-7.38333]}},{"type":"Feature","properties":{"id":128,"nome":"Imaculada","codigo":3845706,"altitude_m":750.0,"chuva_mm":null,"data_chuva":null},"geometry":{"type":"Point","coordinates":[-37.5,-7.38333]}},{"type":"Feature","properties":{"id":131,"nome":"Imaculada","codigo":3845709,"altitude_m":750.0,"chuva_mm":null,"data_chuva":null},"geometry":{"type":"Point","coordinates":[-37.5,-7.38333]}},{"type":"Feature","properties":{"id":127,"nome":"Imaculada","codigo":3845705,"altitude_m":750.0,"chuva_mm":null,"data_chuva":null},"geometry":{"type":"Point","coordinates":[-37.5,-7.38333]}},{"type":"Feature","properties":{"id":132,"nome":"Imaculada","codigo":3845710,"altitude_m":750.0,"chuva_mm":null,"data_chuva":null},"geometry":{"type":"Point","coordinates":[-37.5,-7.38333]}},{"type":"Feature","properties":{"id":133,"nome":"Imaculada","codigo":3845711,"altitude_m":750.0,"chuva_mm":null,"data_chuva":null},"geometry":{"type":"Point","coordinates":[-37.5,-7.38333]}},{"type":"Feature","properties":{"id":130,"nome":"Imaculada","codigo":3845708,"altitude_m":750.0,"chuva_mm":null,"data_chuva":null},"geometry":{"type":"Point","coordinates":[-37.5,-7.38333]}},{"type":"Feature","properties":{"id":125,"nome":"Imaculada","codigo":3845703,"altitude_m":750.0,"chuva_mm":null,"data_chuva":null},"geometry":{"type":"Point","coordinates":[-37.5,-7.38333]}},{"type":"Feature","properties":{"id":134,"nome":"Imaculada","codigo":3845712,"altitude_m":750.0,"chuva_mm":null,"data_chuva":null},"geometry":{"type":"Point","coordinates":[-37.5,-7.38333]}},{"type":"Feature","properties":{"id":135,"nome":"Imaculada","codigo":3845713,"altitude_m":750.0,"chuva_mm":null,"data_chuva":null},"geometry":{"type":"Point","coordinates":[-37.5,-7.38333]}},{"type":"Feature","properties":{"id":136,"nome":"Imaculada","codigo":3845714,"altitude_m":750.0,"chuva_mm":null,"data_chuva":null},"geometry":{"type":"Point","coordinates":[-37.5,-7.38333]}},{"type":"Feature","properties":{"id":172,"nome":"Inga","codigo":3848579,"altitude_m":144.0,"chuva_mm":null,"data_chuva":null},"geometry":{"type":"Point","coordinates":[-35.61667,-7.28333]}},{"type":"Feature","properties":{"id":181,"nome":"Itabaiana","codigo":3849636,"altitude_m":45.0,"chuva_mm":null,"data_chuva":null},"geometry":{"type":"Point","coordinates":[-35.33333,-7.33333]}},{"type":"Feature","properties":{"id":106,"nome":"Itaporanga","codigo":3843667,"altitude_m":230.0,"chuva_mm":null,"data_chuva":null},"geometry":{"type":"Point","coordinates":[-38.16667,-7.3]}},{"type":"Feature","properties":{"id":95,"nome":"Jacarau","codigo":3839352,"altitude_m":140.0,"chuva_mm":null,"data_chuva":null},"geometry":{"type":"Point","coordinates":[-35.28333,-6.66667]}},{"type":"Feature","properties":{"id":94,"nome":"Jacarau","codigo":3839351,"altitude_m":140.0,"chuva_mm":null,"data_chuva":null},"geometry":{"type":"Point","coordinates":[-35.28333,-6.66667]}},{"type":"Feature","properties":{"id":93,"nome":"Jacarau","codigo":3839350,"altitude_m":140.0,"chuva_mm":null,"data_chuva":null},"geometry":{"type":"Point","coordinates":[-35.28333,-6.66667]}},{"type":"Feature","properties":{"id":89,"nome":"Jacarau","codigo":3839346,"altitude_m":140.0,"chuva_mm":null,"data_chuva":null},"geometry":{"type":"Point","coordinates":[-35.28333,-6.66667]}},{"type":"Feature","properties":{"id":88,"nome":"Jacarau","codigo":3839345,"altitude_m":140.0,"chuva_mm":null,"data_chuva":null},"geometry":{"type":"Point","coordinates":[-35.28333,-6.66667]}},{"type":"Feature","properties":{"id":96,"nome":"Jacarau","codigo":3839353,"altitude_m":140.0,"chuva_mm":null,"data_chuva":null},"geometry":{"type":"Point","coordinates":[-35.28333,-6.66667]}},{"type":"Feature","properties":{"id":91,"nome":"Jacarau","codigo":3839348,"altitude_m":140.0,"chuva_mm":null,"data_chuva":null},"geometry":{"type":"Point","coordinates":[-35.28333,-6.66667]}},{"type":"Feature","properties":{"id":90,"nome":"Jacarau","codigo":3839347,"altitude_m":140.0,"chuva_mm":null,"data_chuva":null},"geometry":{"type":"Point","coordinates":[-35.28333,-6.66667]}},{"type":"Feature","properties":{"id":92,"nome":"Jacarau","codigo":3839349,"altitude_m":140.0,"chuva_mm":null,"data_chuva":null},"geometry":{"type":"Point","coordinates":[-35.28333,-6.66667]}},{"type":"Feature","properties":{"id":53,"nome":"Jenipapeiro Dos Carreiros","codigo":3824992,"altitude_m":190.0,"chuva_mm":null,"data_chuva":null},"geometry":{"type":"Point","coordinates":[-37.55,-6.46667]}},{"type":"Feature","properties":{"id":38,"nome":"Jerico","codigo":3834137,"altitude_m":215.0,"chuva_mm":null,"data_chuva":null},"geometry":{"type":"Point","coordinates":[-37.81667,-6.55]}},{"type":"Feature","properties":{"id":45,"nome":"Joao Pessoa","codigo":3940226,"altitude_m":5.0,"chuva_mm":null,"data_chuva":null},"geometry":{"type":"Point","coordinates":[-34.88333,-7.13333]}},{"type":"Feature","properties":{"id":73,"nome":"Joao Pessoa","codigo":3940225,"altitude_m":5.0,"chuva_mm":null,"data_chuva":null},"geometry":{"type":"Point","coordinates":[-34.88333,-7.11667]}},{"type":"Feature","properties":{"id":137,"nome":"Juazeirinho","codigo":3846185,"altitude_m":570.0,"chuva_mm":null,"data_chuva":null},"geometry":{"type":"Point","coordinates":[-36.58333,-7.06667]}},{"type":"Feature","properties":{"id":75,"nome":"Juru","codigo":3854036,"altitude_m":470.0,"chuva_mm":null,"data_chuva":null},"geometry":{"type":"Point","coordinates":[-37.83333,-7.53333]}},{"type":"Feature","properties":{"id":59,"nome":"Lagoa Dos Marcos, Fz","codigo":3858039,"altitude_m":430.0,"chuva_mm":null,"data_chuva":null},"geometry":{"type":"Point","coordinates":[-35.81667,-7.53333]}},{"type":"Feature","properties":{"id":123,"nome":"Mae D Agua De Dentro","codigo":3845514,"altitude_m":370.0,"chuva_mm":null,"data_chuva":null},"geometry":{"type":"Point","coordinates":[-37.43333,-7.25]}},{"type":"Feature","properties":{"id":16,"nome":"Malta","codigo":3834894,"altitude_m":340.0,"chuva_mm":null,"data_chuva":null},"geometry":{"type":"Point","coordinates":[-37.53333,-6.9]}},{"type":"Feature","properties":{"id":97,"nome":"Mamanguape","codigo":3839679,"altitude_m":54.0,"chuva_mm":null,"data_chuva":null},"geometry":{"type":"Point","coordinates":[-35.11667,-6.83333]}},{"type":"Feature","properties":{"id":29,"nome":"Manaira","codigo":3853467,"altitude_m":605.0,"chuva_mm":null,"data_chuva":null},"geometry":{"type":"Point","coordinates":[-38.16667,-7.7]}},{"type":"Feature","properties":{"id":76,"nome":"Mataraca","codigo":3839291,"altitude_m":35.0,"chuva_mm":null,"data_chuva":null},"geometry":{"type":"Point","coordinates":[-35.05,-6.6]}},{"type":"Feature","properties":{"id":44,"nome":"Mata Virgem","codigo":3858439,"altitude_m":645.0,"chuva_mm":null,"data_chuva":null},"geometry":{"type":"Point","coordinates":[-35.81667,-7.73333]}},{"type":"Feature","properties":{"id":180,"nome":"Mogeiro","codigo":3849604,"altitude_m":110.0,"chuva_mm":null,"data_chuva":null},"geometry":{"type":"Point","coordinates":[-35.48333,-7.3]}},{"type":"Feature","properties":{"id":61,"nome":"Monteiro","codigo":3855778,"altitude_m":596.0,"chuva_mm":null,"data_chuva":null},"geometry":{"type":"Point","coordinates":[-37.11667,-7.86667]}},{"type":"Feature","properties":{"id":8,"nome":"Monteiro","codigo":3855779,"altitude_m":590.0,"chuva_mm":null,"data_chuva":null},"geometry":{"type":"Point","coordinates":[-37.11667,-7.88333]}},{"type":"Feature","properties":{"id":174,"nome":"Mulungu","codigo":3849006,"altitude_m":100.0,"chuva_mm":null,"data_chuva":null},"geometry":{"type":"Point","coordinates":[-35.48333,-7.03333]}},{"type":"Feature","properties":{"id":35,"nome":"Nazarezinho","codigo":3833835,"altitude_m":265.0,"chuva_mm":null,"data_chuva":null},"geometry":{"type":"Point","coordinates":[-38.33333,-6.91667]}},{"type":"Feature","properties":{"id":110,"nome":"Nova Olinda","codigo":3843992,"altitude_m":315.0,"chuva_mm":null,"data_chuva":null},"geometry":{"type":"Point","coordinates":[-38.05,-7.46667]}},{"type":"Feature","properties":{"id":115,"nome":"Olho D Agua","codigo":3844448,"altitude_m":275.0,"chuva_mm":null,"data_chuva":null},"geometry":{"type":"Point","coordinates":[-37.76667,-7.21667]}},{"type":"Feature","properties":{"id":26,"nome":"Olivedos","codigo":3837953,"altitude_m":545.0,"chuva_mm":null,"data_chuva":null},"geometry":{"type":"Point","coordinates":[-36.25,-6.98333]}},{"type":"Feature","properties":{"id":121,"nome":"Passagem","codigo":3845289,"altitude_m":340.0,"chuva_mm":null,"data_chuva":null},"geometry":{"type":"Point","coordinates":[-37.06667,-7.13333]}},{"type":"Feature","properties":{"id":117,"nome":"Patos","codigo":3845045,"altitude_m":250.0,"chuva_mm":null,"data_chuva":null},"geometry":{"type":"Point","coordinates":[-37.28333,-7.01667]}},{"type":"Feature","properties":{"id":118,"nome":"Patos Ii","codigo":3845048,"altitude_m":250.0,"chuva_mm":null,"data_chuva":null},"geometry":{"type":"Point","coordinates":[-37.26667,-7.01667]}},{"type":"Feature","properties":{"id":27,"nome":"Pedra Lavrada","codigo":3837507,"altitude_m":525.0,"chuva_mm":null,"data_chuva":null},"geometry":{"type":"Point","coordinates":[-36.46667,-6.75]}},{"type":"Feature","properties":{"id":114,"nome":"Pianco","codigo":3844313,"altitude_m":250.0,"chuva_mm":null,"data_chuva":null},"geometry":{"type":"Point","coordinates":[-37.95,-7.18333]}},{"type":"Feature","properties":{"id":2,"nome":"Picui","codigo":3837028,"altitude_m":450.0,"chuva_mm":null,"data_chuva":null},"geometry":{"type":"Point","coordinates":[-36.36667,-6.51667]}},{"type":"Feature","properties":{"id":179,"nome":"Pilar","codigo":3849545,"altitude_m":35.0,"chuva_mm":null,"data_chuva":null},"geometry":{"type":"Point","coordinates":[-35.28333,-7.26667]}},{"type":"Feature","properties":{"id":31,"nome":"Piloes, Ac","codigo":3832398,"altitude_m":255.0,"chuva_mm":null,"data_chuva":null},"geometry":{"type":"Point","coordinates":[-38.51667,-6.66667]}},{"type":"Feature","properties":{"id":145,"nome":"Pocinhos","codigo":3847188,"altitude_m":624.0,"chuva_mm":null,"data_chuva":null},"geometry":{"type":"Point","coordinates":[-36.06667,-7.06667]}},{"type":"Feature","properties":{"id":6,"nome":"Pombal","codigo":3834538,"altitude_m":178.0,"chuva_mm":null,"data_chuva":null},"geometry":{"type":"Point","coordinates":[-37.81667,-6.76667]}},{"type":"Feature","properties":{"id":178,"nome":"Ponte Da Batalha","codigo":3849394,"altitude_m":0.0,"chuva_mm":null,"data_chuva":null},"geometry":{"type":"Point","coordinates":[-35.03333,-7.15]}},{"type":"Feature","properties":{"id":120,"nome":"Porcos                 Fz","codigo":3845236,"altitude_m":270.0,"chuva_mm":null,"data_chuva":null},"geometry":{"type":"Point","coordinates":[-37.33333,-7.13333]}},{"type":"Feature","properties":{"id":62,"nome":"Prata","codigo":3855383,"altitude_m":600.0,"chuva_mm":null,"data_chuva":null},"geometry":{"type":"Point","coordinates":[-37.1,-7.68333]}},{"type":"Feature","properties":{"id":5,"nome":"Princesa Isabel","codigo":3853499,"altitude_m":660.0,"chuva_mm":null,"data_chuva":null},"geometry":{"type":"Point","coordinates":[-38.01667,-7.73333]}},{"type":"Feature","properties":{"id":159,"nome":"Puxinana","codigo":3848317,"altitude_m":657.0,"chuva_mm":null,"data_chuva":null},"geometry":{"type":"Point","coordinates":[-35.95,-7.13333]}},{"type":"Feature","properties":{"id":153,"nome":"Puxinana","codigo":3848311,"altitude_m":657.0,"chuva_mm":null,"data_chuva":null},"geometry":{"type":"Point","coordinates":[-35.95,-7.13333]}},{"type":"Feature","properties":{"id":154,"nome":"Puxinana","codigo":3848312,"altitude_m":657.0,"chuva_mm":null,"data_chuva":null},"geometry":{"type":"Point","coordinates":[-35.95,-7.13333]}},{"type":"Feature","properties":{"id":155,"nome":"Puxinana","codigo":3848313,"altitude_m":657.0,"chuva_mm":null,"data_chuva":null},"geometry":{"type":"Point","coordinates":[-35.95,-7.13333]}},{"type":"Feature","properties":{"id":156,"nome":"Puxinana","codigo":3848314,"altitude_m":657.0,"chuva_mm":null,"data_chuva":null},"geometry":{"type":"Point","coordinates":[-35.95,-7.13333]}},{"type":"Feature","properties":{"id":157,"nome":"Puxinana","codigo":3848315,"altitude_m":657.0,"chuva_mm":null,"data_chuva":null},"geometry":{"type":"Point","coordinates":[-35.95,-7.13333]}},{"type":"Feature","properties":{"id":158,"nome":"Puxinana","codigo":3848316,"altitude_m":657.0,"chuva_mm":null,"data_chuva":null},"geometry":{"type":"Point","coordinates":[-35.95,-7.13333]}},{"type":"Feature","properties":{"id":160,"nome":"Puxinana","codigo":3848318,"altitude_m":657.0,"chuva_mm":null,"data_chuva":null},"geometry":{"type":"Point","coordinates":[-35.95,-7.13333]}},{"type":"Feature","properties":{"id":161,"nome":"Puxinana","codigo":3848319,"altitude_m":657.0,"chuva_mm":null,"data_chuva":null},"geometry":{"type":"Point","coordinates":[-35.95,-7.13333]}},{"type":"Feature","properties":{"id":162,"nome":"Puxinana","codigo":3848320,"altitude_m":657.0,"chuva_mm":null,"data_chuva":null},"geometry":{"type":"Point","coordinates":[-35.95,-7.13333]}},{"type":"Feature","properties":{"id":163,"nome":"Puxinana","codigo":3848321,"altitude_m":657.0,"chuva_mm":null,"data_chuva":null},"geometry":{"type":"Point","coordinates":[-35.95,-7.13333]}},{"type":"Feature","properties":{"id":164,"nome":"Puxinana","codigo":3848322,"altitude_m":657.0,"chuva_mm":null,"data_chuva":null},"geometry":{"type":"Point","coordinates":[-35.95,-7.13333]}},{"type":"Feature","properties":{"id":165,"nome":"Puxinana","codigo":3848323,"altitude_m":657.0,"chuva_mm":null,"data_chuva":null},"geometry":{"type":"Point","coordinates":[-35.95,-7.13333]}},{"type":"Feature","properties":{"id":166,"nome":"Puxinana","codigo":3848324,"altitude_m":657.0,"chuva_mm":null,"data_chuva":null},"geometry":{"type":"Point","coordinates":[-35.95,-7.13333]}},{"type":"Feature","properties":{"id":167,"nome":"Puxinana","codigo":3848325,"altitude_m":657.0,"chuva_mm":null,"data_chuva":null},"geometry":{"type":"Point","coordinates":[-35.95,-7.13333]}},{"type":"Feature","properties":{"id":168,"nome":"Puxinana","codigo":3848326,"altitude_m":657.0,"chuva_mm":null,"data_chuva":null},"geometry":{"type":"Point","coordinates":[-35.95,-7.13333]}},{"type":"Feature","properties":{"id":48,"nome":"Riacho Sto. Antonio","codigo":3857471,"altitude_m":455.0,"chuva_mm":null,"data_chuva":null},"geometry":{"type":"Point","coordinates":[-36.15,-7.7]}},{"type":"Feature","properties":{"id":138,"nome":"Salgadinho","codigo":3846231,"altitude_m":410.0,"chuva_mm":null,"data_chuva":null},"geometry":{"type":"Point","coordinates":[-36.85,-7.1]}},{"type":"Feature","properties":{"id":40,"nome":"Salgado","codigo":3838526,"altitude_m":400.0,"chuva_mm":null,"data_chuva":null},"geometry":{"type":"Point","coordinates":[-35.88333,-6.78333]}},{"type":"Feature","properties":{"id":176,"nome":"Sape","codigo":3849254,"altitude_m":125.0,"chuva_mm":null,"data_chuva":null},"geometry":{"type":"Point","coordinates":[-35.23333,-7.1]}},{"type":"Feature","properties":{"id":108,"nome":"S. Boaventura","codigo":3843857,"altitude_m":300.0,"chuva_mm":null,"data_chuva":null},"geometry":{"type":"Point","coordinates":[-38.21667,-7.4]}},{"type":"Feature","properties":{"id":60,"nome":"Serido","codigo":3837717,"altitude_m":530.0,"chuva_mm":null,"data_chuva":null},"geometry":{"type":"Point","coordinates":[-36.41667,-6.85]}},{"type":"Feature","properties":{"id":143,"nome":"Serra Branca","codigo":3846969,"altitude_m":450.0,"chuva_mm":null,"data_chuva":null},"geometry":{"type":"Point","coordinates":[-36.66667,-7.48333]}},{"type":"Feature","properties":{"id":105,"nome":"Serra Grande","codigo":3843537,"altitude_m":585.0,"chuva_mm":null,"data_chuva":null},"geometry":{"type":"Point","coordinates":[-38.31667,-7.25]}},{"type":"Feature","properties":{"id":15,"nome":"Serraria","codigo":3838675,"altitude_m":360.0,"chuva_mm":null,"data_chuva":null},"geometry":{"type":"Point","coordinates":[-35.63333,-6.81667]}},{"type":"Feature","properties":{"id":36,"nome":"S. Francisco","codigo":3833285,"altitude_m":150.0,"chuva_mm":null,"data_chuva":null},"geometry":{"type":"Point","coordinates":[-38.08333,-6.61667]}},{"type":"Feature","properties":{"id":85,"nome":"S. Goncalo","codigo":3833640,"altitude_m":235.0,"chuva_mm":null,"data_chuva":null},"geometry":{"type":"Point","coordinates":[-38.31667,-6.83333]}},{"type":"Feature","properties":{"id":86,"nome":"S. Goncalo","codigo":3833641,"altitude_m":235.0,"chuva_mm":null,"data_chuva":null},"geometry":{"type":"Point","coordinates":[-38.31667,-6.83333]}},{"type":"Feature","properties":{"id":33,"nome":"S. Goncalo","codigo":3833639,"altitude_m":235.0,"chuva_mm":null,"data_chuva":null},"geometry":{"type":"Point","coordinates":[-38.31667,-6.83333]}},{"type":"Feature","properties":{"id":142,"nome":"S. Joao Do Cariri","codigo":3846894,"altitude_m":445.0,"chuva_mm":null,"data_chuva":null},"geometry":{"type":"Point","coordinates":[-36.53333,-7.4]}},{"type":"Feature","properties":{"id":30,"nome":"S. Joao Do Tigre","codigo":3866128,"altitude_m":616.0,"chuva_mm":null,"data_chuva":null},"geometry":{"type":"Point","coordinates":[-36.86667,-8.06667]}},{"type":"Feature","properties":{"id":54,"nome":"S. Jose Da Lagoa Tapada","codigo":3833869,"altitude_m":260.0,"chuva_mm":null,"data_chuva":null},"geometry":{"type":"Point","coordinates":[-38.16667,-6.93333]}},{"type":"Feature","properties":{"id":104,"nome":"S. Jose De Piranhas","codigo":3843202,"altitude_m":300.0,"chuva_mm":null,"data_chuva":null},"geometry":{"type":"Point","coordinates":[-38.5,-7.11667]}},{"type":"Feature","properties":{"id":52,"nome":"S. Jose Do Brejo Do Cruz","codigo":3825346,"altitude_m":120.0,"chuva_mm":null,"data_chuva":null},"geometry":{"type":"Point","coordinates":[-37.28333,-6.18333]}},{"type":"Feature","properties":{"id":70,"nome":"S. Jose Do Espinharas","codigo":3835734,"altitude_m":185.0,"chuva_mm":null,"data_chuva":null},"geometry":{"type":"Point","coordinates":[-37.33333,-6.85]}},{"type":"Feature","properties":{"id":141,"nome":"S. Jose Dos Cordeiros","codigo":3846739,"altitude_m":610.0,"chuva_mm":null,"data_chuva":null},"geometry":{"type":"Point","coordinates":[-36.81667,-7.38333]}},{"type":"Feature","properties":{"id":55,"nome":"S. Mamede","codigo":3835882,"altitude_m":270.0,"chuva_mm":null,"data_chuva":null},"geometry":{"type":"Point","coordinates":[-37.1,-6.91667]}},{"type":"Feature","properties":{"id":144,"nome":"Soledade","codigo":3847128,"altitude_m":560.0,"chuva_mm":null,"data_chuva":null},"geometry":{"type":"Point","coordinates":[-36.36667,-7.06667]}},{"type":"Feature","properties":{"id":68,"nome":"Sossego","codigo":3837552,"altitude_m":600.0,"chuva_mm":null,"data_chuva":null},"geometry":{"type":"Point","coordinates":[-36.25,-6.76667]}},{"type":"Feature","properties":{"id":10,"nome":"Souza","codigo":3833554,"altitude_m":200.0,"chuva_mm":null,"data_chuva":null},"geometry":{"type":"Point","coordinates":[-38.23333,-6.75]}},{"type":"Feature","properties":{"id":69,"nome":"S. Sebastiao Do Umbuzeiro","codigo":3865397,"altitude_m":600.0,"chuva_mm":null,"data_chuva":null},"geometry":{"type":"Point","coordinates":[-37.01667,-8.15]}},{"type":"Feature","properties":{"id":13,"nome":"Sta. Luzia","codigo":3836715,"altitude_m":290.0,"chuva_mm":null,"data_chuva":null},"geometry":{"type":"Point","coordinates":[-36.93333,-6.86667]}},{"type":"Feature","properties":{"id":64,"nome":"Sta. Maria Da Paraiba","codigo":3866066,"altitude_m":800.0,"chuva_mm":null,"data_chuva":null},"geometry":{"type":"Point","coordinates":[-36.68333,-8.03333]}},{"type":"Feature","properties":{"id":1,"nome":"Sta. Rita","codigo":3940206,"altitude_m":16.0,"chuva_mm":null,"data_chuva":null},"geometry":{"type":"Point","coordinates":[-34.98333,-7.13333]}},{"type":"Feature","properties":{"id":119,"nome":"Sta. Teresinha","codigo":3845113,"altitude_m":380.0,"chuva_mm":null,"data_chuva":null},"geometry":{"type":"Point","coordinates":[-37.45,-7.08333]}},{"type":"Feature","properties":{"id":146,"nome":"Sta. Tereza, Fz","codigo":3847218,"altitude_m":500.0,"chuva_mm":null,"data_chuva":null},"geometry":{"type":"Point","coordinates":[-36.41667,-7.11667]}},{"type":"Feature","properties":{"id":140,"nome":"Sto. Andre","codigo":3846475,"altitude_m":470.0,"chuva_mm":null,"data_chuva":null},"geometry":{"type":"Point","coordinates":[-36.63333,-7.21667]}},{"type":"Feature","properties":{"id":58,"nome":"Sucuru","codigo":3856345,"altitude_m":410.0,"chuva_mm":null,"data_chuva":null},"geometry":{"type":"Point","coordinates":[-36.78333,-7.66667]}},{"type":"Feature","properties":{"id":21,"nome":"Sume","codigo":3856314,"altitude_m":510.0,"chuva_mm":null,"data_chuva":null},"geometry":{"type":"Point","coordinates":[-36.93333,-7.65]}},{"type":"Feature","properties":{"id":41,"nome":"S. Vicente, St","codigo":3833235,"altitude_m":420.0,"chuva_mm":null,"data_chuva":null},"geometry":{"type":"Point","coordinates":[-38.33333,-6.61667]}},{"type":"Feature","properties":{"id":139,"nome":"Taperoa","codigo":3846434,"altitude_m":500.0,"chuva_mm":null,"data_chuva":null},"geometry":{"type":"Point","coordinates":[-36.83333,-7.2]}},{"type":"Feature","properties":{"id":122,"nome":"Teixeira","codigo":3845448,"altitude_m":770.0,"chuva_mm":null,"data_chuva":null},"geometry":{"type":"Point","coordinates":[-37.26667,-7.21667]}},{"type":"Feature","properties":{"id":102,"nome":"Timbauba, Fz","codigo":3843042,"altitude_m":520.0,"chuva_mm":null,"data_chuva":null},"geometry":{"type":"Point","coordinates":[-38.3,-7.01667]}},{"type":"Feature","properties":{"id":39,"nome":"Uirauna","codigo":3833018,"altitude_m":300.0,"chuva_mm":null,"data_chuva":null},"geometry":{"type":"Point","coordinates":[-38.41667,-6.51667]}},{"type":"Feature","properties":{"id":3,"nome":"Umbuzeiro","codigo":3858467,"altitude_m":553.0,"chuva_mm":null,"data_chuva":null},"geometry":{"type":"Point","coordinates":[-35.66667,-7.7]}},{"type":"Feature","properties":{"id":77,"nome":"Vila Do Conde","codigo":3940522,"altitude_m":100.0,"chuva_mm":null,"data_chuva":null},"geometry":{"type":"Point","coordinates":[-34.9,-7.26667]}},{"type":"Feature","properties":{"id":71,"nome":"Vila Maia","codigo":3838684,"altitude_m":210.0,"chuva_mm":null,"data_chuva":null},"geometry":{"type":"Point","coordinates":[-35.58333,-6.8]}}]}